no,shopname,localname,code1,codename1,code2,codename2,code3,codename3,code4,codename4,citycode,city,gucode,gu,dongcode,dong,jibuaddress,address,oldpostcode,postcode,lng,lat
19905471,와라와라호프,,Q,음식,Q09,유흥주점,Q09A01,호프/맥주,I56219,"기타 주점업",11,서울특별시,11680,강남구,1168010600,대치동,"서울특별시 강남구 대치동 604","서울특별시 강남구 남부순환로 2933",135280,6280,""127.061026050567"",""37.4939223326479""
19911397,커피빈코리아선릉로93길점,코리아선릉로93길점,Q,음식,Q12,커피점/카페,Q12A01,커피전문점/카페/다방,I56220,"비알콜 음료점업",11,서울특별시,11680,강남구,1168010100,역삼동,"서울특별시 강남구 역삼동 696-42","서울특별시 강남구 선릉로93길 6",135080,6149,""127.047883157395"",""37.505675040058""
19911801,프로포즈,,Q,음식,Q09,유흥주점,Q09A01,호프/맥주,I56219,"기타 주점업",11,서울특별시,11545,금천구,1154510200,독산동,"서울특별시 금천구 독산동 162-1","서울특별시 금천구 가산로 34-6",153010,8545,""126.899220370682"",""37.4717112331268""
19912201,싱싱커피&토스트,,Q,음식,Q07,패스트푸드,Q07A10,토스트전문,I56192,"피자, 햄버거, 샌드위치 및 유사 음식점업",26,부산광역시,26530,사상구,2653010400,괘법동,"부산광역시 사상구 괘법동 578","부산광역시 사상구 괘감로 37",617726,46977,""128.980455279266"",""35.1597741758499""
19932756,가락사우나내스낵,,F,생활서비스,F09,대중목욕탕/휴게,F09A02,사우나/증기탕/온천,S96121,욕탕업,11,서울특별시,11710,송파구,1171010500,석촌동,"서울특별시 송파구 석촌동 256","서울특별시 송파구 가락로 71",138846,5690,""127.104070564081"",""37.5002486691845""
19983535,초밥왕,,Q,음식,Q03,일식/수산물,Q03A03,음식점-초밥전문,I56113,"일식 음식점업",11,서울특별시,11710,송파구,1171010200,신천동,"서울특별시 송파구 신천동 7-28","서울특별시 송파구 올림픽로 293-19",138735,5510,""127.102489784096"",""37.5151491920485""
19964615,석봉토스트,,Q,음식,Q07,패스트푸드,Q07A10,토스트전문,I56192,"피자, 햄버거, 샌드위치 및 유사 음식점업",11,서울특별시,11215,광진구,1121510300,구의동,"서울특별시 광진구 구의동 77-47","서울특별시 광진구 자양로39길 20",143200,4992,""127.088387455895"",""37.5492452077814""
19975850,허술한집,,Q,음식,Q04,분식,Q04A01,라면김밥분식,I56194,"분식 및 김밥 전문점",11,서울특별시,11500,강서구,1150010800,공항동,"서울특별시 강서구 공항동 45-89","서울특별시 강서구 공항대로3길 9",157812,7619,""126.809957472555"",""37.5620126925293""
19977290,피자마루,약수점,Q,음식,Q07,패스트푸드,Q07A01,피자전문,I56192,"피자, 햄버거, 샌드위치 및 유사 음식점업",11,서울특별시,11140,중구,1114016200,신당동,"서울특별시 중구 신당동 372-95","서울특별시 중구 동호로7길 37",100450,4596,""127.010861306352"",""37.5521533135816""
19979960,홍능갈비,,Q,음식,Q01,한식,Q01A02,갈비/삼겹살,I56111,"한식 음식점업",11,서울특별시,11500,강서구,1150010300,화곡동,"서울특별시 강서구 화곡동 1086-3","서울특별시 강서구 화곡로18길 31",157010,7718,""126.836078008217"",""37.5389273478103""
20004707,커피빈,코리아교대점,Q,음식,Q12,커피점/카페,Q12A01,커피전문점/카페/다방,I56220,"비알콜 음료점업",11,서울특별시,11650,서초구,1165010800,서초동,"서울특별시 서초구 서초동 1657-5","서울특별시 서초구 서초중앙로 118",137070,6634,""127.014217033954"",""37.4923876590647""
20006330,코롱식당,,Q,음식,Q01,한식,Q01A01,한식/백반/한정식,I56111,"한식 음식점업",11,서울특별시,11545,금천구,1154510100,가산동,"서울특별시 금천구 가산동 60-4","서울특별시 금천구 디지털로9길 56",153770,8512,""126.886859445485"",""37.48038965624""
19993199,고려대학교교육관쎄리오점,,Q,음식,Q12,커피점/카페,Q12A01,커피전문점/카페/다방,I56220,"비알콜 음료점업",11,서울특별시,11290,성북구,1129012500,안암동5가,"서울특별시 성북구 안암동5가 1-2","서울특별시 성북구 안암로 145",136701,2841,""127.031701809695"",""37.5884849860916""
19996819,전주식당,,Q,음식,Q01,한식,Q01A01,한식/백반/한정식,I56111,"한식 음식점업",11,서울특별시,11530,구로구,1153010100,신도림동,"서울특별시 구로구 신도림동 406-1","서울특별시 구로구 경인로 577",152887,8212,""126.880898201104"",""37.5040668669735""
19987359,아구본가첨벙,,Q,음식,Q03,일식/수산물,Q03A06,아구전문,I56111,"한식 음식점업",11,서울특별시,11290,성북구,1129013400,길음동,"서울특별시 성북구 길음동 20-1","서울특별시 성북구 동소문로 315",136719,2730,""127.028725560472"",""37.6083915431599""
20020124,스완카페트,,Q,음식,Q12,커피점/카페,Q12A01,커피전문점/카페/다방,I56220,"비알콜 음료점업",11,서울특별시,11560,영등포구,1156013300,대림동,"서울특별시 영등포구 대림동 604-56","서울특별시 영등포구 도신로10가길 11-1",150070,7379,""126.897710439978"",""37.5036933368184""
19969945,에브리돈,북가좌점,Q,음식,Q01,한식,Q01A01,한식/백반/한정식,I56111,"한식 음식점업",11,서울특별시,11410,서대문구,1141011900,북가좌동,"서울특별시 서대문구 북가좌동 307-2","서울특별시 서대문구 응암로 65",120130,3681,""126.910288305861"",""37.5790288661421""
19969947,대왕농산,,D,소매,D01,음/식료품소매,D01A13,청과물소매,G47214,"과실 및 채소 소매업",11,서울특별시,11230,동대문구,1123010300,제기동,"서울특별시 동대문구 제기동 635-18","서울특별시 동대문구 왕산로35길 7",130862,2572,""127.043189062088"",""37.5800728147996""
19970556,솔로몬피자,,Q,음식,Q07,패스트푸드,Q07A01,피자전문,I56192,"피자, 햄버거, 샌드위치 및 유사 음식점업",11,서울특별시,11215,광진구,1121510900,군자동,"서울특별시 광진구 군자동 100-17","서울특별시 광진구 군자로 99-2",143839,5001,""127.071184021135"",""37.552102622032""
19971398,우리식당,,Q,음식,Q01,한식,Q01A01,한식/백반/한정식,I56111,"한식 음식점업",11,서울특별시,11215,광진구,1121510700,화양동,"서울특별시 광진구 화양동 507-3","서울특별시 광진구 광나루로26길 16",143926,5022,""127.076811507571"",""37.5454609583284""
19971658,크리스피크림,롯데청량리점,Q,음식,Q07,패스트푸드,Q07A06,도너츠전문,I56191,제과점업,11,서울특별시,11230,동대문구,1123010400,전농동,"서울특별시 동대문구 전농동 620-69","서울특별시 동대문구 왕산로 200",130796,2559,""127.045021605777"",""37.5801957798395""
19973708,왕실,,Q,음식,Q12,커피점/카페,Q12A01,커피전문점/카페/다방,I56220,"비알콜 음료점업",11,서울특별시,11140,중구,1114012700,명동2가,"서울특별시 중구 명동2가 105","서울특별시 중구 남대문로 52-13",100810,4535,""126.982418808029"",""37.562273608482""
19974666,신호건강원,,D,소매,D10,건강/미용식품,D10A07,건강원,G47216,"건강보조식품 소매업",11,서울특별시,11500,강서구,1150010300,화곡동,"서울특별시 강서구 화곡동 369-53","서울특별시 강서구 가로공원로82길 42-3",157010,7765,""126.840285055847"",""37.5354186632593""
19989422,Mr.피터팬,,Q,음식,Q04,분식,Q04A01,라면김밥분식,I56194,"분식 및 김밥 전문점",11,서울특별시,11710,송파구,1171010300,풍납동,"서울특별시 송파구 풍납동 399-17","서울특별시 송파구 올림픽로45길 22",138040,5537,""127.115873391566"",""37.5274774824996""
19999875,제이씨코퍼레이션,,D,소매,D02,선물/팬시/기념품,D02A05,토산품/기념품점,G47842,"관광 민예품 및 선물용품 소매업",11,서울특별시,11560,영등포구,1156012700,양평동3가,"서울특별시 영등포구 양평동3가 24","서울특별시 영등포구 선유서로 115",150103,7269,""126.885320162819"",""37.5261391555287""
20013190,청암회관,,Q,음식,Q01,한식,Q01A01,한식/백반/한정식,I56111,"한식 음식점업",11,서울특별시,11350,노원구,1135010600,중계동,"서울특별시 노원구 중계동 364-14","서울특별시 노원구 한글비석로8길 29",139220,1737,""127.078464379963"",""37.6482469290036""
20014818,쉼터,,Q,음식,Q04,분식,Q04A01,라면김밥분식,I56194,"분식 및 김밥 전문점",11,서울특별시,11680,강남구,1168010500,삼성동,"서울특별시 강남구 삼성동 159","서울특별시 강남구 봉은사로 524",135798,6164,""127.057100286394"",""37.5129393969289""
20015136,배제현의웰빙낙지한마리수제비,,Q,음식,Q03,일식/수산물,Q03A13,낙지/오징어,I56111,"한식 음식점업",11,서울특별시,11680,강남구,1168010700,신사동,"서울특별시 강남구 신사동 512-13","서울특별시 강남구 강남대로152길 19",135887,6035,""127.020944625774"",""37.5175739922091""
20031733,동해제일산오징어,,Q,음식,Q03,일식/수산물,Q03A13,낙지/오징어,I56111,"한식 음식점업",26,부산광역시,26260,동래구,2626010800,온천동,"부산광역시 동래구 온천동 1380-2","부산광역시 동래구 아시아드대로220번길 30",607060,47838,""129.068323651097"",""35.2029017640286""
20033259,리지호프소주,,Q,음식,Q06,양식,Q06A01,정통양식/경양식,I56114,"서양식 음식점업",26,부산광역시,26230,부산진구,2623010400,범천동,"부산광역시 부산진구 범천동 847-15","부산광역시 부산진구 범일로 166",614020,47361,""129.059574393176"",""35.1447758974312""
20035727,동화장,,Q,음식,Q02,중식,Q02A00,중국음식/중국집,I56112,"중식 음식점업",11,서울특별시,11590,동작구,1159010800,대방동,"서울특별시 동작구 대방동 407-38","서울특별시 동작구 여의대방로24길 137",156811,7055,""126.927655371128"",""37.4992294723946""
20037352,마니쩜,,Q,음식,Q09,유흥주점,Q09A01,호프/맥주,I56219,"기타 주점업",26,부산광역시,26230,부산진구,2623011000,가야동,"부산광역시 부산진구 가야동 450-2","부산광역시 부산진구 대학로 64-1",614010,47336,""129.034302185853"",""35.1500691105999""
20038373,경주아구찜,,Q,음식,Q03,일식/수산물,Q03A06,아구전문,I56111,"한식 음식점업",26,부산광역시,26500,수영구,2650010500,남천동,"부산광역시 수영구 남천동 357-10","부산광역시 수영구 수영로 381-8",613010,48318,""129.10632999777"",""35.1411761239461""
20036227,우림,,Q,음식,Q01,한식,Q01A01,한식/백반/한정식,I56111,"한식 음식점업",11,서울특별시,11590,동작구,1159010700,사당동,"서울특별시 동작구 사당동 1033-34","서울특별시 동작구 동작대로7길 28",156090,7015,""126.980242177491"",""37.4794034273439""
20036524,포마토김밥,,Q,음식,Q04,분식,Q04A01,라면김밥분식,I56194,"분식 및 김밥 전문점",11,서울특별시,11590,동작구,1159010100,노량진동,"서울특별시 동작구 노량진동 126-6","서울특별시 동작구 만양로14가길 22",156050,6913,""126.94509899537"",""37.5125688674931""
20047434,경부할인마트,,D,소매,D03,종합소매점,D03A06,종합소매,G47190,"그외 기타 종합 소매업",26,부산광역시,26170,동구,2617010100,초량동,"부산광역시 동구 초량동 794-681","부산광역시 동구 망양로 593",601831,48716,""129.034598684938"",""35.123195913371""
20020932,착한짜장,,Q,음식,Q02,중식,Q02A00,중국음식/중국집,I56112,"중식 음식점업",11,서울특별시,11200,성동구,1120011500,성수동2가,"서울특별시 성동구 성수동2가 289-272","서울특별시 성동구 아차산로7길 17-1",133120,4793,""127.054649291142"",""37.5467182768796""
20022551,해마로숯불바베큐,,Q,음식,Q06,양식,Q06A06,바베큐전문,I56114,"서양식 음식점업",11,서울특별시,11200,성동구,1120011000,금호동2가,"서울특별시 성동구 금호동2가 478","서울특별시 성동구 금호산길 62",133803,4726,""127.019555900225"",""37.5536675060871""
20024149,타워광명내과의원,,S,의료,S01,병원,S01B07,내과/외과,Q86201,"일반 의원",11,서울특별시,11680,강남구,1168011800,도곡동,"서울특별시 강남구 도곡동 467-14","서울특별시 강남구 언주로30길 39",135270,6292,""127.053197983987"",""37.4887418448763""
20027817,마깐바냑,,Q,음식,Q04,분식,Q04A01,라면김밥분식,I56194,"분식 및 김밥 전문점",11,서울특별시,11680,강남구,1168010100,역삼동,"서울특별시 강남구 역삼동 831-45","서울특별시 강남구 역삼로 109",135080,6242,""127.03100500319"",""37.4936528720033""
20027870,강남김밥,,Q,음식,Q04,분식,Q04A01,라면김밥분식,I56194,"분식 및 김밥 전문점",11,서울특별시,11680,강남구,1168010600,대치동,"서울특별시 강남구 대치동 940-8","서울특별시 강남구 도곡로 441",135280,6208,""127.05856031294"",""37.4984620600522""
20028437,샘터,,Q,음식,Q09,유흥주점,Q09A01,호프/맥주,I56219,"기타 주점업",11,서울특별시,11215,광진구,1121510900,군자동,"서울특별시 광진구 군자동 477-1","서울특별시 광진구 능동로35길 7",143838,4997,""127.078518935674"",""37.5566022713432""
20028651,이롬황성주생식서울사업단,,D,소매,D10,건강/미용식품,D10A02,생식판매,G47216,"건강보조식품 소매업",11,서울특별시,11200,성동구,1120011500,성수동2가,"서울특별시 성동구 성수동2가 315-97","서울특별시 성동구 아차산로 110",133120,4782,""127.056141140309"",""37.5441802397171""
20083902,비비엠,,Q,음식,Q07,패스트푸드,Q07A04,패스트푸드,I56199,"그외 기타 음식점업",26,부산광역시,26110,중구,2611010100,영주동,"부산광역시 중구 영주동 511-18","부산광역시 중구 중구로 190",600811,48922,""129.034604807719"",""35.1115317385349""
20076690,파스쿠찌,디큐브아트센터2호점,Q,음식,Q12,커피점/카페,Q12A01,커피전문점/카페/다방,I56220,"비알콜 음료점업",11,서울특별시,11530,구로구,1153010100,신도림동,"서울특별시 구로구 신도림동 692","서울특별시 구로구 경인로 662",152706,8209,""126.888484621418"",""37.5080580382841""
20081386,물텀벙,,Q,음식,Q01,한식,Q01A01,한식/백반/한정식,I56111,"한식 음식점업",26,부산광역시,26200,영도구,2620012100,동삼동,"부산광역시 영도구 동삼동 1123","부산광역시 영도구 상리로 1",606762,49089,""129.070116942393"",""35.0857769367064""
20107885,미야꼬,,Q,음식,Q04,분식,Q04A01,라면김밥분식,I56194,"분식 및 김밥 전문점",11,서울특별시,11200,성동구,1120011500,성수동2가,"서울특별시 성동구 성수동2가 277-20","서울특별시 성동구 성수이로 126",133120,4797,""127.057746479154"",""37.5461032871669""
20107897,롯데리아,신림역점,Q,음식,Q07,패스트푸드,Q07A04,패스트푸드,I56199,"그외 기타 음식점업",11,서울특별시,11620,관악구,1162010200,신림동,"서울특별시 관악구 신림동 1640-9","서울특별시 관악구 남부순환로 1610",151930,8776,""126.929287904186"",""37.4838994178""
20099319,산울FNC,,Q,음식,Q04,분식,Q04A01,라면김밥분식,I56194,"분식 및 김밥 전문점",11,서울특별시,11680,강남구,1168011800,도곡동,"서울특별시 강남구 도곡동 467-17","서울특별시 강남구 언주로30길 57",135270,6293,""127.054163435442"",""37.4892992237675""
20388346,옥이영양탕,,Q,음식,Q01,한식,Q01A01,한식/백반/한정식,I56111,"한식 음식점업",26,부산광역시,26230,부산진구,2623010400,범천동,"부산광역시 부산진구 범천동 845-56","부산광역시 부산진구 범일로142번가길 16",614020,47364,""129.060972460197"",""35.1434205870722""
20388577,대박,,Q,음식,Q01,한식,Q01A01,한식/백반/한정식,I56111,"한식 음식점업",11,서울특별시,11560,영등포구,1156011300,당산동3가,"서울특별시 영등포구 당산동3가 257-9","서울특별시 영등포구 당산로30길 6-1",150803,7259,""126.897321974925"",""37.5254859418621""
20458376,로뎀건강,,D,소매,D10,건강/미용식품,D10A04,건강식품판매,G47216,"건강보조식품 소매업",11,서울특별시,11230,동대문구,1123011000,이문동,"서울특별시 동대문구 이문동 363-5","서울특별시 동대문구 휘경로3길 4",130080,2420,""127.062408783783"",""37.5957790596355""
20350610,한귀원정신과의원,,S,의료,S01,병원,S01B99,기타병원,,,26,부산광역시,26500,수영구,2650010400,광안동,"부산광역시 수영구 광안동 74-1","부산광역시 수영구 수영로 688",613100,48266,""129.115437548116"",""35.166872301459""
20484374,"놀부숯불애장닭&부대찌개,철판구이",천호점,Q,음식,Q01,한식,Q01A07,부대찌개/섞어찌개,I56111,"한식 음식점업",11,서울특별시,11740,강동구,1174010800,성내동,"서울특별시 강동구 성내동 50-14","서울특별시 강동구 천호옛길 99",134030,5378,""127.126131197829"",""37.5375014930199""
20485406,고향산천궁중전골묵은지삽겹살,,Q,음식,Q09,유흥주점,Q09A01,호프/맥주,I56219,"기타 주점업",11,서울특별시,11200,성동구,1120010400,도선동,"서울특별시 성동구 도선동 68","서울특별시 성동구 무학로2길 46",133882,4709,""127.034540491789"",""37.5624410338248""
20476586,대성식당,,Q,음식,Q01,한식,Q01A01,한식/백반/한정식,I56111,"한식 음식점업",26,부산광역시,26440,강서구,2644010400,명지동,"부산광역시 강서구 명지동 1-377","부산광역시 강서구 신포길 13-2",618813,46717,""128.932142370031"",""35.1129848904251""
20429499,하이,서울유스호스텔지점,Q,음식,Q01,한식,Q01A01,한식/백반/한정식,I56111,"한식 음식점업",11,서울특별시,11560,영등포구,1156010800,영등포동7가,"서울특별시 영등포구 영등포동7가 57","서울특별시 영등포구 국회대로44길 10",150037,7244,""126.903271860751"",""37.5247754603183""
20468748,김밥사랑,,Q,음식,Q04,분식,Q04A01,라면김밥분식,I56194,"분식 및 김밥 전문점",11,서울특별시,11470,양천구,1147010300,신월동,"서울특별시 양천구 신월동 159-47","서울특별시 양천구 남부순환로40길 22",158090,7911,""126.82757969483"",""37.5346264351659""
20488142,엠비씨노래광장,,Q,음식,Q09,유흥주점,Q09A10,룸살롱/단란주점,I56211,"일반유흥 주점업",11,서울특별시,11110,종로구,1111013500,관철동,"서울특별시 종로구 관철동 19-16","서울특별시 종로구 삼일대로17길 46",110111,3189,""126.984915188576"",""37.5693232267433""
20372343,꿀꿀이감자탕,,Q,음식,Q01,한식,Q01A05,해장국/감자탕,I56111,"한식 음식점업",26,부산광역시,26350,해운대구,2635010700,좌동,"부산광역시 해운대구 좌동 1341-24","부산광역시 해운대구 좌동순환로 41",612030,48084,""129.166142607821"",""35.170126508439""
20415080,보물섬유흥주점,,Q,음식,Q09,유흥주점,Q09A10,룸살롱/단란주점,I56211,"일반유흥 주점업",26,부산광역시,26410,금정구,2641011000,서동,"부산광역시 금정구 서동 210-6","부산광역시 금정구 서동로 182",609400,46328,""129.106574041325"",""35.214276184678""
20416371,황태자,,Q,음식,Q09,유흥주점,Q09A10,룸살롱/단란주점,I56211,"일반유흥 주점업",26,부산광역시,26470,연제구,2647010200,연산동,"부산광역시 연제구 연산동 730-20","부산광역시 연제구 고분로 7",611080,47549,""129.083276482564"",""35.1860211887408""
20470999,JBar,,Q,음식,Q09,유흥주점,Q09A08,빠/카페/스탠드빠,I56211,"일반유흥 주점업",11,서울특별시,11650,서초구,1165010800,서초동,"서울특별시 서초구 서초동 1451-1","서울특별시 서초구 반포대로 32",137070,6716,""127.012107226848"",""37.4834315635633""
20473861,우리집김밥,,Q,음식,Q04,분식,Q04A01,라면김밥분식,I56194,"분식 및 김밥 전문점",11,서울특별시,11305,강북구,1130510100,미아동,"서울특별시 강북구 미아동 484-1","서울특별시 강북구 숭인로 69",142100,1211,""127.02942030814"",""37.6124519324511""
20385373,씨제이올리브영종각점,종각점,D,소매,D16,화장품소매,D16A01,화장품판매점,G47813,"화장품 및 방향제 소매업",11,서울특별시,11110,종로구,1111013800,종로2가,"서울특별시 종로구 종로2가 7","서울특별시 종로구 종로 61",110122,3164,""126.98426629269"",""37.5704259262814""
20417890,내바디스타일,,D,소매,D10,건강/미용식품,D10A01,다이어트상품판매,G47216,"건강보조식품 소매업",11,서울특별시,11380,은평구,1138011400,진관동,"서울특별시 은평구 진관동 6","서울특별시 은평구 진관4로 77",122737,3303,""126.928060502789"",""37.6470572349705""
20482173,원일보신탕,,Q,음식,Q04,분식,Q04A02,국수/만두/칼국수,I56194,"분식 및 김밥 전문점",11,서울특별시,11560,영등포구,1156013300,대림동,"서울특별시 영등포구 대림동 1081-54","서울특별시 영등포구 디지털로 352",150070,7447,""126.899656921503"",""37.4889703738922""
20482406,소노야코엑스점,코엑스점,Q,음식,Q03,일식/수산물,Q03A02,음식점-일식,I56113,"일식 음식점업",11,서울특별시,11680,강남구,1168010500,삼성동,"서울특별시 강남구 삼성동 159","서울특별시 강남구 영동대로 513",135798,6164,""127.059139102428"",""37.5118203253706""
20482833,퀸써브,,Q,음식,Q06,양식,Q06A01,정통양식/경양식,I56114,"서양식 음식점업",26,부산광역시,26470,연제구,2647010200,연산동,"부산광역시 연제구 연산동 1143-7","부산광역시 연제구 월드컵대로 163",611080,47540,""129.078457223513"",""35.1869115019226""
20383527,감미정갈비,,Q,음식,Q01,한식,Q01A02,갈비/삼겹살,I56111,"한식 음식점업",26,부산광역시,26710,기장군,2671025334,장안읍,"부산광역시 기장군 장안읍 길천리 208-3","부산광역시 기장군 장안읍 길천2길 10-1",619952,46036,""129.282245923066"",""35.3290157230355""
20314543,하자하자허브다이어트,,D,소매,D10,건강/미용식품,D10A01,다이어트상품판매,G47216,"건강보조식품 소매업",11,서울특별시,11260,중랑구,1126010100,면목동,"서울특별시 중랑구 면목동 154-41","서울특별시 중랑구 동일로96길 49",131200,2216,""127.082598634252"",""37.5847917920862""
20703456,김극무영어,,R,학문/교육,R04,학원-어학,R04A01,학원-외국어/어학,P85502,외국어학원,26,부산광역시,26260,동래구,2626010900,사직동,"부산광역시 동래구 사직동 1017","부산광역시 동래구 사직로 80",607786,47863,""129.057535160126"",""35.1966416954681""
20787543,자임한복,,D,소매,D05,의복의류,D05A10,한복/갈옷/민속옷,G47412,"한복 소매업",11,서울특별시,11680,강남구,1168010700,신사동,"서울특별시 강남구 신사동 586-12","서울특별시 강남구 도산대로27길 26",135892,6032,""127.027614145299"",""37.5214225188702""
20783574,선경바둑,,N,관광/여가/오락,N01,PC/오락/당구/볼링등,N01A09,기원,R91293,"기원 운영업",11,서울특별시,11680,강남구,1168010700,신사동,"서울특별시 강남구 신사동 638-5","서울특별시 강남구 압구정로 310",135896,6017,""127.035280058968"",""37.5287748929877""
20334864,상해식품점,미아점,D,소매,D01,음/식료품소매,D01A01,식료품점,G47219,"기타 식료품 소매업",11,서울특별시,11290,성북구,1129013400,길음동,"서울특별시 성북구 길음동 20-1","서울특별시 성북구 동소문로 315",136719,2730,""127.028725560472"",""37.6083915431599""
20335258,파파존스,고덕점,Q,음식,Q07,패스트푸드,Q07A01,피자전문,I56192,"피자, 햄버거, 샌드위치 및 유사 음식점업",11,서울특별시,11740,강동구,1174010100,명일동,"서울특별시 강동구 명일동 69","서울특별시 강동구 구천면로 506",134070,5271,""127.154504078866"",""37.5490523468649""
20665694,배스킨라빈스,관악구청점,Q,음식,Q07,패스트푸드,Q07A07,아이스크림판매,I56191,제과점업,11,서울특별시,11620,관악구,1162010100,봉천동,"서울특별시 관악구 봉천동 863-13","서울특별시 관악구 관악로 161",151050,8787,""126.952165618801"",""37.4795992772291""
20706745,청운,,Q,음식,Q01,한식,Q01A01,한식/백반/한정식,I56111,"한식 음식점업",11,서울특별시,11110,종로구,1111010100,청운동,"서울특별시 종로구 청운동 72","서울특별시 종로구 자하문로 116",110030,3047,""126.9701020005"",""37.5862425862757""
20303513,김반장,,Q,음식,Q04,분식,Q04A01,라면김밥분식,I56194,"분식 및 김밥 전문점",11,서울특별시,11680,강남구,1168010100,역삼동,"서울특별시 강남구 역삼동 681-30","서울특별시 강남구 봉은사로48길 10",135080,6143,""127.041531803283"",""37.508813408903""
20261400,롯데리아롯데마트행당역점롯데마트행당역점,롯데마트행당역점,Q,음식,Q07,패스트푸드,Q07A04,패스트푸드,I56199,"그외 기타 음식점업",11,서울특별시,11200,성동구,1120010700,행당동,"서울특별시 성동구 행당동 346","서울특별시 성동구 행당로 82",133777,4717,""127.027512774894"",""37.5562382207618""
20297445,바빈스커피,,Q,음식,Q12,커피점/카페,Q12A01,커피전문점/카페/다방,I56220,"비알콜 음료점업",11,서울특별시,11680,강남구,1168010100,역삼동,"서울특별시 강남구 역삼동 804","서울특별시 강남구 테헤란로 156",135080,6236,""127.036602597823"",""37.5007088680698""
20339459,프렌치,,Q,음식,Q01,한식,Q01A01,한식/백반/한정식,I56111,"한식 음식점업",11,서울특별시,11500,강서구,1150010900,방화동,"서울특별시 강서구 방화동 886","서울특별시 강서구 하늘길 38",157220,7505,""126.80076003963"",""37.5659562255298""
20810221,맛생맛사,,Q,음식,Q01,한식,Q01A01,한식/백반/한정식,I56111,"한식 음식점업",11,서울특별시,11140,중구,1114011000,수표동,"서울특별시 중구 수표동 56-12","서울특별시 중구 을지로9길 16",100230,4542,""126.988489985322"",""37.5669841704799""
20250422,샤브힐Shabuhill,,Q,음식,Q10,별식/퓨전요리,Q10A02,샤브샤브전문,I56111,"한식 음식점업",11,서울특별시,11650,서초구,1165010100,방배동,"서울특별시 서초구 방배동 951-17","서울특별시 서초구 서초대로4길 3",137060,6675,""126.985383149392"",""37.4855117840047""
20776399,BYC,,D,소매,D05,의복의류,D05A07,셔츠/내의/속옷,,,26,부산광역시,26410,금정구,2641010800,장전동,"부산광역시 금정구 장전동 654-6","부산광역시 금정구 온천장로125번길 32",609390,46300,""129.083791334945"",""35.2231265213051""
20776515,GIA보석교육원,,R,학문/교육,R03,학원-자격/국가고시,R03A11,학원-보석감정,P85659,"기타 기술 및 직업훈련학원",11,서울특별시,11680,강남구,1168010700,신사동,"서울특별시 강남구 신사동 639-3","서울특별시 강남구 압구정로 320",135896,6017,""127.036437203336"",""37.5285320454891""
20330827,완도세꼬시,,Q,음식,Q03,일식/수산물,Q03A01,횟집,I56111,"한식 음식점업",11,서울특별시,11740,강동구,1174010500,길동,"서울특별시 강동구 길동 389-1","서울특별시 강동구 양재대로113길 7",134880,5353,""127.139433065314"",""37.5379325686252""
20737330,VIPO2독서실,,R,학문/교육,R10,도서관/독서실,R10A01,독서실,R90212,"독서실 운영업",26,부산광역시,26410,금정구,2641010400,남산동,"부산광역시 금정구 남산동 987-3","부산광역시 금정구 남산로 39",609816,46223,""129.087912017165"",""35.266833373184""
20737410,두인토탈인테리어,,D,소매,D07,가정/주방/인테리어,D07A01,인테리어/욕실용품/커튼,G47599,"그외 기타 분류안된 가정용품 소매업",11,서울특별시,11680,강남구,1168010800,논현동,"서울특별시 강남구 논현동 22","서울특별시 강남구 강남대로146길 28",135814,6043,""127.02288919536"",""37.5150581390206""
20804450,영남국악원,,R,학문/교육,R05,학원-음악미술무용,R05A06,학원-국악,P85620,"예술 학원",26,부산광역시,26410,금정구,2641010900,부곡동,"부산광역시 금정구 부곡동 889-25","부산광역시 금정구 부곡로 9",609320,46311,""129.086841492404"",""35.2179162378346""
20254057,진양평해장국,,Q,음식,Q01,한식,Q01A05,해장국/감자탕,I56111,"한식 음식점업",11,서울특별시,11560,영등포구,1156010100,영등포동,"서울특별시 영등포구 영등포동 618-190","서울특별시 영등포구 영신로20길 2",150899,7307,""126.908032247298"",""37.5148540352773""
20659878,커피빈,코리아대학로대명거리점,Q,음식,Q12,커피점/카페,Q12A01,커피전문점/카페/다방,I56220,"비알콜 음료점업",11,서울특별시,11110,종로구,1111017200,명륜4가,"서울특별시 종로구 명륜4가 51","서울특별시 종로구 대명길 25",110524,3078,""127.000170846364"",""37.5831492497775""
20700645,씨지브이영등포골드클래스,,Q,음식,Q07,패스트푸드,Q07A04,패스트푸드,I56199,"그외 기타 음식점업",11,서울특별시,11560,영등포구,1156010500,영등포동4가,"서울특별시 영등포구 영등포동4가 442","서울특별시 영등포구 영중로 15",150034,7305,""126.903914224263"",""37.5172126661057""
20741628,행운노래연습장,,N,관광/여가/오락,N02,무도/유흥/가무,N02A01,노래방,R91223,"노래연습장 운영업",11,서울특별시,11230,동대문구,1123010600,장안동,"서울특별시 동대문구 장안동 432-3","서울특별시 동대문구 장한로 9",130100,2636,""127.064796251601"",""37.5624412936356""
20676428,요거프레소,쌍문점,Q,음식,Q12,커피점/카페,Q12A01,커피전문점/카페/다방,I56220,"비알콜 음료점업",11,서울특별시,11320,도봉구,1132010500,쌍문동,"서울특별시 도봉구 쌍문동 20","서울특별시 도봉구 도당로 7",132030,1385,""127.034745665547"",""37.6587277238356""
20680081,제일목욕탕내이발,,F,생활서비스,F09,대중목욕탕/휴게,F09A01,욕탕업-종합,S96121,욕탕업,11,서울특별시,11290,성북구,1129013400,길음동,"서울특별시 성북구 길음동 541-100","서울특별시 성북구 길음로1길 27",136110,2722,""127.022959782249"",""37.6032620893777""
20278754,망고식스,명동페이리스점,Q,음식,Q12,커피점/카페,Q12A01,커피전문점/카페/다방,I56220,"비알콜 음료점업",11,서울특별시,11140,중구,1114012700,명동2가,"서울특별시 중구 명동2가 55-16","서울특별시 중구 명동4길 26",100810,4536,""126.983728102857"",""37.5625461885785""
20325422,가마솥돼지집,,Q,음식,Q01,한식,Q01A02,갈비/삼겹살,I56111,"한식 음식점업",26,부산광역시,26530,사상구,2653010600,주례동,"부산광역시 사상구 주례동 507-14","부산광역시 사상구 가야대로284번길 7",617010,47013,""129.004052130746"",""35.1497917318066""
20719276,미장헤어미용실,,F,생활서비스,F01,이/미용/건강,F01A01,여성미용실,S96112,두발미용업,26,부산광역시,26230,부산진구,2623011100,개금동,"부산광역시 부산진구 개금동 1-8","부산광역시 부산진구 백양관문로77번길 99",614110,47165,""129.025854745995"",""35.1625621584819""
20755460,헬로스마일소아과,,S,의료,S01,병원,S01B11,소아과,Q86201,"일반 의원",11,서울특별시,11680,강남구,1168010800,논현동,"서울특별시 강남구 논현동 39-18","서울특별시 강남구 논현로131길 30",135010,6045,""127.027878262465"",""37.5141441909188""
20695531,메머드커피,,Q,음식,Q12,커피점/카페,Q12A01,커피전문점/카페/다방,I56220,"비알콜 음료점업",11,서울특별시,11440,마포구,1144012000,서교동,"서울특별시 마포구 서교동 327-15","서울특별시 마포구 와우산로 149",121836,4052,""126.929691877693"",""37.5545990573133""
20736806,안재형영어,,R,학문/교육,R04,학원-어학,R04A01,학원-외국어/어학,P85502,외국어학원,11,서울특별시,11470,양천구,1147010200,목동,"서울특별시 양천구 목동 905-34","서울특별시 양천구 목동서로 133-2",158050,7988,""126.875972678068"",""37.5315919486785""
20573427,씨제이올리브영,천호점,D,소매,D16,화장품소매,D16A01,화장품판매점,G47813,"화장품 및 방향제 소매업",11,서울특별시,11740,강동구,1174010900,천호동,"서울특별시 강동구 천호동 454-49","서울특별시 강동구 천호대로157길 7",134020,5329,""127.126494586703"",""37.5383601844964""
20681413,아이패밀리안경,,D,소매,D18,사진/광학/정밀기기소매,D18A04,안경원,G47822,"안경 소매업",11,서울특별시,11500,강서구,1150010300,화곡동,"서울특별시 강서구 화곡동 799-10","서울특별시 강서구 곰달래로 245",157010,7741,""126.860226509886"",""37.5321258097832""
20595779,금조홍어,,Q,음식,Q03,일식/수산물,Q03A19,홍어전문,I56111,"한식 음식점업",11,서울특별시,11305,강북구,1130510300,수유동,"서울특별시 강북구 수유동 85-3","서울특별시 강북구 도봉로71길 16",142070,1114,""127.023109682661"",""37.6316279761096""
20683468,조가방앗간,,F,생활서비스,F02,세탁/가사서비스,F02A04,방앗간/정미소,,,26,부산광역시,26350,해운대구,2635010600,중동,"부산광역시 해운대구 중동 1270-3","부산광역시 해운대구 해운대해변로 353-3",612010,48096,""129.168305767262"",""35.1640303659709""
20581495,메가박스상봉,,Q,음식,Q07,패스트푸드,Q07A04,패스트푸드,I56199,"그외 기타 음식점업",11,서울특별시,11260,중랑구,1126010200,상봉동,"서울특별시 중랑구 상봉동 130-3","서울특별시 중랑구 망우로30길 3",131220,2120,""127.074728919101"",""37.5930740403772""
20619869,사계절,,Q,음식,Q01,한식,Q01A01,한식/백반/한정식,I56111,"한식 음식점업",11,서울특별시,11200,성동구,1120011800,송정동,"서울특별시 성동구 송정동 66-262","서울특별시 성동구 광나루로9길 2",133836,4801,""127.063895754421"",""37.5484678964413""
20509297,맥시칸양념통닭,,Q,음식,Q05,닭/오리요리,Q05A08,후라이드/양념치킨,I56193,"치킨 전문점",26,부산광역시,26110,중구,2611010100,영주동,"부산광역시 중구 영주동 151-4","부산광역시 중구 영주로 68",600110,48907,""129.030326495434"",""35.1132628121887""
20527281,경록건강원,,D,소매,D10,건강/미용식품,D10A07,건강원,G47216,"건강보조식품 소매업",26,부산광역시,26380,사하구,2638010300,하단동,"부산광역시 사하구 하단동 518-17","부산광역시 사하구 낙동남로1373번길 28",604020,49313,""128.962072745043"",""35.107757245319""
20612407,구의식당,,Q,음식,Q01,한식,Q01A01,한식/백반/한정식,I56111,"한식 음식점업",11,서울특별시,11215,광진구,1121510500,자양동,"서울특별시 광진구 자양동 216-23","서울특별시 광진구 아차산로 384",143190,5051,""127.085440308886"",""37.5366617474821""
20687182,본도시락,고려대점,Q,음식,Q07,패스트푸드,Q07A02,도시락전문점,I56111,"한식 음식점업",11,서울특별시,11290,성북구,1129012500,안암동5가,"서울특별시 성북구 안암동5가 134-70","서울특별시 성북구 안암로 63",136075,2855,""127.028589396712"",""37.5822782624666""
20727381,한일지도판매,,D,소매,D13,책/서적/도서,D13A13,지도판매,G47611,"서적 및 잡지류 소매업",11,서울특별시,11680,강남구,1168010100,역삼동,"서울특별시 강남구 역삼동 746-10","서울특별시 강남구 논현로 415",135080,6246,""127.038310128388"",""37.4971996533981""
20583520,홍성폐백,,F,생활서비스,F17,예식/의례/관혼상제,F17A04,폐백전문,I56131,"출장 음식 서비스업",11,서울특별시,11230,동대문구,1123010300,제기동,"서울특별시 동대문구 제기동 1019","서울특별시 동대문구 고산자로36길 3",130865,2571,""127.039126646871"",""37.5790306472822""
20729029,달라스이용원,,F,생활서비스,F01,이/미용/건강,F01A04,남성미용실,S96111,이용업,11,서울특별시,11680,강남구,1168010800,논현동,"서울특별시 강남구 논현동 37-16","서울특별시 강남구 논현로131길 6",135010,6046,""127.029772362403"",""37.5146283124407""
20613530,은하노래광장주점,,Q,음식,Q09,유흥주점,Q09A10,룸살롱/단란주점,I56211,"일반유흥 주점업",11,서울특별시,11140,중구,1114016500,황학동,"서울특별시 중구 황학동 632","서울특별시 중구 퇴계로87길 15-12",100869,4576,""127.020489191168"",""37.5662358257675""
20789250,파파존스,센텀시티점,F,생활서비스,F12,광고/인쇄,F12A01,인쇄종합,C18119,"기타 인쇄업",26,부산광역시,26350,해운대구,2635010500,우동,"부산광역시 해운대구 우동 1488","부산광역시 해운대구 센텀동로 25",612897,48059,""129.131457070193"",""35.1719247156101""
20687960,자연의선물,,D,소매,D02,선물/팬시/기념품,D02A01,선물용품판매,G47842,"관광 민예품 및 선물용품 소매업",11,서울특별시,11680,강남구,1168010100,역삼동,"서울특별시 강남구 역삼동 736-55","서울특별시 강남구 테헤란로26길 10",135080,6236,""127.035824788941"",""37.4996302661116""
20689719,해성집,,Q,음식,Q01,한식,Q01A01,한식/백반/한정식,I56111,"한식 음식점업",26,부산광역시,26140,서구,2614010600,서대신동3가,"부산광역시 서구 서대신동3가 7-98","부산광역시 서구 꽃마을로 164-51",602821,49200,""129.008243113075"",""35.1274292538902""
20622823,인덕기름집,,D,소매,D01,음/식료품소매,D01A01,식료품점,G47219,"기타 식료품 소매업",11,서울특별시,11350,노원구,1135010200,월계동,"서울특별시 노원구 월계동 285-1","서울특별시 노원구 월계로53길 1",139050,1879,""127.058711909543"",""37.6303405636469""
20515164,벌떼식당,,Q,음식,Q01,한식,Q01A01,한식/백반/한정식,I56111,"한식 음식점업",11,서울특별시,11440,마포구,1144011000,노고산동,"서울특별시 마포구 노고산동 31-23","서울특별시 마포구 신촌로20길 12",121806,4102,""126.938168799831"",""37.5546035151768""
20769711,정아트,,R,학문/교육,R05,학원-음악미술무용,R05A01,서예/서화/미술,P85620,"예술 학원",11,서울특별시,11500,강서구,1150010100,염창동,"서울특별시 강서구 염창동 184-8","서울특별시 강서구 양천로73가길 21",157861,7541,""126.873645320909"",""37.5509240520728""
20808534,코원성형외과,,S,의료,S01,병원,S01B08,정형/성형외과,Q86201,"일반 의원",11,서울특별시,11680,강남구,1168010700,신사동,"서울특별시 강남구 신사동 592-4","서울특별시 강남구 논현로 826",135893,6025,""127.028531416718"",""37.5222229928703""
20516216,카페필로네,,Q,음식,Q12,커피점/카페,Q12A01,커피전문점/카페/다방,I56220,"비알콜 음료점업",11,서울특별시,11650,서초구,1165010800,서초동,"서울특별시 서초구 서초동 1366-4","서울특별시 서초구 남부순환로 2583",137070,6735,""127.032940495121"",""37.4847482687652""
20694527,김가네우면네이처힐,,Q,음식,Q04,분식,Q04A01,라면김밥분식,I56194,"분식 및 김밥 전문점",11,서울특별시,11650,서초구,1165010300,우면동,"서울특별시 서초구 우면동 721-1","서울특별시 서초구 태봉로 70",137140,6764,""127.025570605719"",""37.4645310346132""
20603925,경성양꼬치,,Q,음식,Q09,유흥주점,Q09A01,호프/맥주,I56219,"기타 주점업",26,부산광역시,26410,금정구,2641010900,부곡동,"부산광역시 금정구 부곡동 391-1","부산광역시 금정구 오시게로54번길 2",609320,46306,""129.088016321968"",""35.2219979519414""
20887860,경찰태권도,,R,학문/교육,R07,학원-예능취미체육,R07A20,태권도장,P85611,"스포츠 교육기관",11,서울특별시,11290,성북구,1129013400,길음동,"서울특별시 성북구 길음동 1283-4","서울특별시 성북구 길음로 20",136110,2725,""127.023019608341"",""37.6047492990606""
20911036,옐로우캡익스프레스,,F,생활서비스,F04,운송/배달/택배,F04A06,종합이삿짐대행,H49311,"일반 화물자동차 운송업",11,서울특별시,11350,노원구,1135010400,하계동,"서울특별시 노원구 하계동 168-9","서울특별시 노원구 공릉로58나길 9",139230,1809,""127.073392455342"",""37.6359981524784""
20911441,경기전화번호부,,F,생활서비스,F12,광고/인쇄,F12A08,광고대행-전화번호부,M71310,"광고 대행업",11,서울특별시,11350,노원구,1135010500,상계동,"서울특별시 노원구 상계동 707-3","서울특별시 노원구 노해로75길 14-25",139200,1689,""127.058743735397"",""37.6547588847578""
20819907,서울과학기술대학교제2학생식당,,Q,음식,Q14,기타음식업,Q14A01,구내식당/자급식음식점,I56120,기관구내식당업,11,서울특별시,11350,노원구,1135010300,공릉동,"서울특별시 노원구 공릉동 172","서울특별시 노원구 공릉로 232",139743,1811,""127.076771103452"",""37.6330692342399""
20923088,화랑공인중개사사무소,,L,부동산,L01,부동산중개,L01A01,부동산중개,L68221,"부동산 자문 및 중개업",11,서울특별시,11350,노원구,1135010300,공릉동,"서울특별시 노원구 공릉동 111","서울특별시 노원구 화랑로51길 17",139729,1800,""127.089344568068"",""37.6230662934616""
20821938,초밥&참치전문점연,,Q,음식,Q03,일식/수산물,Q03A04,참치전문점,I56113,"일식 음식점업",11,서울특별시,11215,광진구,1121510700,화양동,"서울특별시 광진구 화양동 111-118","서울특별시 광진구 능동로 179",143915,5009,""127.073492584691"",""37.5466333613569""
20916395,이태형한의원,,S,의료,S01,병원,S01B06,한의원,Q86203,한의원,11,서울특별시,11350,노원구,1135010600,중계동,"서울특별시 노원구 중계동 506","서울특별시 노원구 동일로203가길 29",139880,1779,""127.064245152134"",""37.6399175500813""
20842524,파파야노래연습장,,N,관광/여가/오락,N02,무도/유흥/가무,N02A01,노래방,R91223,"노래연습장 운영업",26,부산광역시,26260,동래구,2626010800,온천동,"부산광역시 동래구 온천동 1412-5","부산광역시 동래구 아시아드대로228번길 8",607060,47837,""129.067567864622"",""35.2038909393289""
20924451,아트인스튜디오,,R,학문/교육,R05,학원-음악미술무용,R05A01,서예/서화/미술,P85620,"예술 학원",11,서울특별시,11680,강남구,1168010100,역삼동,"서울특별시 강남구 역삼동 818-1","서울특별시 강남구 강남대로96길 12",135080,6129,""127.028053870075"",""37.4997287739928""
20852234,괴산주유소,,F,생활서비스,F16,주유소/충전소,F16A01,주유소,G47711,"차량용 주유소 운영업",11,서울특별시,11740,강동구,1174010100,명일동,"서울특별시 강동구 명일동 38","서울특별시 강동구 명일로 376",134070,5268,""127.150455650943"",""37.5517715076151""
20890643,신호상사,,D,소매,D21,철물/난방/건설자재소매,D21A08,셔터/새시판매,G47511,"철물 및 난방용구 소매업",11,서울특별시,11470,양천구,1147010100,신정동,"서울특별시 양천구 신정동 934-4","서울특별시 양천구 신정중앙로 8",158070,7941,""126.852497978684"",""37.5277530156532""
21108045,초원사랑유치원,,R,학문/교육,R08,유아교육,R08A02,어린이집,Q87210,"보육시설 운영업",26,부산광역시,26230,부산진구,2623010900,당감동,"부산광역시 부산진구 당감동 123","부산광역시 부산진구 가야대로 635-13",614759,47274,""129.041129951767"",""35.1562122299599""
21074019,대성설비,,F,생활서비스,F15,주택수리,F15A03,배관난방보일러,F42201,"배관 및 냉·난방 공사업",26,부산광역시,26380,사하구,2638010100,괴정동,"부산광역시 사하구 괴정동 544-21","부산광역시 사하구 괴정로232번길 15",604812,49385,""128.986723354043"",""35.0961563126275""
20877810,가야애드현수막,,F,생활서비스,F12,광고/인쇄,F12A02,간판제작종합,C33910,"간판 및 광고물 제조업",11,서울특별시,11740,강동구,1174010800,성내동,"서울특별시 강동구 성내동 550-4","서울특별시 강동구 성내로 40",134030,5399,""127.124557257353"",""37.5288847473699""
20878275,샹제리제식품,,D,소매,D01,음/식료품소매,D01A24,냉동식품판매,G47219,"기타 식료품 소매업",11,서울특별시,11680,강남구,1168010600,대치동,"서울특별시 강남구 대치동 889-5","서울특별시 강남구 테헤란로 406",135712,6192,""127.049946352687"",""37.5044121531044""
20899768,삼일공구,,D,소매,D21,철물/난방/건설자재소매,D21A06,철물/건설자재소매,G47511,"철물 및 난방용구 소매업",11,서울특별시,11740,강동구,1174010800,성내동,"서울특별시 강동구 성내동 112-69","서울특별시 강동구 올림픽로 602",134030,5385,""127.122525267415"",""37.5352581569548""
20825907,델리스타,,Q,음식,Q07,패스트푸드,Q07A04,패스트푸드,I56199,"그외 기타 음식점업",26,부산광역시,26170,동구,2617010400,범일동,"부산광역시 동구 범일동 62-5","부산광역시 동구 범일로 125",601718,48735,""129.058596888446"",""35.1413230864786""
20912401,아미가성형외과,,S,의료,S01,병원,S01B08,정형/성형외과,Q86201,"일반 의원",11,서울특별시,11650,서초구,1165010100,방배동,"서울특별시 서초구 방배동 902-1","서울특별시 서초구 방배로20길 4",137060,6664,""126.995333811418"",""37.4854977050385""
21075202,무성인테리어,,D,소매,D07,가정/주방/인테리어,D07A01,인테리어/욕실용품/커튼,G47599,"그외 기타 분류안된 가정용품 소매업",26,부산광역시,26410,금정구,2641010800,장전동,"부산광역시 금정구 장전동 618-1","부산광역시 금정구 식물원로 47",609842,46300,""129.083185049286"",""35.2246192252633""
20854472,리치노래방,,N,관광/여가/오락,N02,무도/유흥/가무,N02A01,노래방,R91223,"노래연습장 운영업",11,서울특별시,11215,광진구,1121510400,광장동,"서울특별시 광진구 광장동 323-2","서울특별시 광진구 아차산로78길 182",143808,4969,""127.107894941802"",""37.5476101190551""
20869718,씨앤미치과,,S,의료,S01,병원,S01B04,치과의원,Q86202,"치과 의원",11,서울특별시,11740,강동구,1174010900,천호동,"서울특별시 강동구 천호동 447","서울특별시 강동구 천호대로 1097",134020,5339,""127.133509195332"",""37.5355104617519""
20870076,동아조명,,D,소매,D07,가정/주방/인테리어,D07A10,조명기구/전기용품,G47591,"전기용품 및 조명장치 소매업",11,서울특별시,11170,용산구,1117012800,한강로3가,"서울특별시 용산구 한강로3가 1-3","서울특별시 용산구 청파로 101",140877,4366,""126.962150115407"",""37.5334530100537""
20870378,오리진,,S,의료,S01,병원,S01B02,일반병원,Q86102,"일반 병원",11,서울특별시,11680,강남구,1168010700,신사동,"서울특별시 강남구 신사동 570-3","서울특별시 강남구 논현로167길 15",135891,6031,""127.026817064414"",""37.5244344758789""
20870484,오피스알파,문구길동역점,D,소매,D08,사무/문구/컴퓨터,D08A01,사무/문구용품,G47612,"문구용품 소매업",11,서울특별시,11740,강동구,1174010500,길동,"서울특별시 강동구 길동 411-1","서울특별시 강동구 양재대로 1466",134880,5352,""127.139853942807"",""37.5367552507466""
21110636,혜성공인중개사,,L,부동산,L01,부동산중개,L01A01,부동산중개,L68221,"부동산 자문 및 중개업",26,부산광역시,26350,해운대구,2635010700,좌동,"부산광역시 해운대구 좌동 1274","부산광역시 해운대구 대천로 56",612795,48082,""129.171304510782"",""35.1726005646526""
20927403,삼익피아노강동대리점,강동대리점,R,학문/교육,R05,학원-음악미술무용,R05A02,피아노/바이올린/기타,P85620,"예술 학원",11,서울특별시,11740,강동구,1174010900,천호동,"서울특별시 강동구 천호동 410-105","서울특별시 강동구 진황도로 18",134020,5335,""127.129075332597"",""37.5392622806945""
20855710,진흥약국,,S,의료,S02,약국/한약방,S02A01,약국,G47811,"의약품 및 의료용품 소매업",11,서울특별시,11740,강동구,1174010600,둔촌동,"서울특별시 강동구 둔촌동 630","서울특별시 강동구 명일로 172",134767,5360,""127.145054912829"",""37.5341348997734""
20907491,파랑새어린이집,,R,학문/교육,R08,유아교육,R08A02,어린이집,Q87210,"보육시설 운영업",11,서울특별시,11320,도봉구,1132010700,창동,"서울특별시 도봉구 창동 374","서울특별시 도봉구 덕릉로 329",132040,1424,""127.045486496025"",""37.6448310888622""
20966240,설악피아노학원,,R,학문/교육,R05,학원-음악미술무용,R05A02,피아노/바이올린/기타,P85620,"예술 학원",11,서울특별시,11650,서초구,1165010600,잠원동,"서울특별시 서초구 잠원동 50-2","서울특별시 서초구 잠원로14길 29",137723,6515,""127.015432033716"",""37.5178435355565""
20901887,구진렌트카,,F,생활서비스,F07,물품기기대여,F07A11,렌트카,L69110,"자동차 임대업",11,서울특별시,11260,중랑구,1126010500,망우동,"서울특별시 중랑구 망우동 349-29","서울특별시 중랑구 망우로71길 60",131230,2060,""127.102285008764"",""37.6029820912576""
20846187,반석공인중개사사무소,,L,부동산,L01,부동산중개,L01A01,부동산중개,L68221,"부동산 자문 및 중개업",11,서울특별시,11740,강동구,1174010100,명일동,"서울특별시 강동구 명일동 15","서울특별시 강동구 고덕로 210",134756,5267,""127.147048586973"",""37.5538013497357""
20846411,해동카센타,,F,생활서비스,F14,자동차/이륜차,F14A01,자동차정비/카센타,,,11,서울특별시,11680,강남구,1168010600,대치동,"서울특별시 강남구 대치동 936-17","서울특별시 강남구 도곡로63길 13",135280,6206,""127.054011166871"",""37.4977859678661""
20846680,삼성라지에타,,D,소매,D23,자동차/자동차용품,D23A06,자동차부품판매,G45219,"기타 자동차신품 부품 및 내장품 판매업",11,서울특별시,11740,강동구,1174010300,상일동,"서울특별시 강동구 상일동 19-4","서울특별시 강동구 조정대로31번길 14",134834,5286,""127.181919258021"",""37.5496149029964""
20872409,서광카센타,,F,생활서비스,F14,자동차/이륜차,F14A01,자동차정비/카센타,,,11,서울특별시,11680,강남구,1168010400,청담동,"서울특별시 강남구 청담동 2-19","서울특별시 강남구 도산대로 418",135948,6062,""127.041283234256"",""37.5229399099487""
20968054,강변공인중개사사무소,,L,부동산,L01,부동산중개,L01A01,부동산중개,L68221,"부동산 자문 및 중개업",11,서울특별시,11650,서초구,1165010600,잠원동,"서울특별시 서초구 잠원동 53","서울특별시 서초구 잠원로12길 4",137907,6517,""127.012702043909"",""37.5181271039685""
20857327,Mr박의돈워리,,Q,음식,Q01,한식,Q01A01,한식/백반/한정식,I56111,"한식 음식점업",11,서울특별시,11200,성동구,1120010200,하왕십리동,"서울특별시 성동구 하왕십리동 258","서울특별시 성동구 무학로 50",133773,4703,""127.032689053817"",""37.5690665836916""
20882530,영진자동차매매상사,,D,소매,D23,자동차/자동차용품,D23A02,중고자동차판매,G45120,"중고 자동차 판매업",11,서울특별시,11740,강동구,1174010600,둔촌동,"서울특별시 강동구 둔촌동 609-6","서울특별시 강동구 천호대로 1210",134060,5360,""127.145645606966"",""37.5349230946017""
20903064,부동산명가공인중개사사무소,,L,부동산,L01,부동산중개,L01A01,부동산중개,L68221,"부동산 자문 및 중개업",11,서울특별시,11710,송파구,1171010600,삼전동,"서울특별시 송파구 삼전동 45","서울특별시 송파구 삼전로6길 18",138838,5592,""127.089033814624"",""37.5026205920814""
21111875,동일타일,,D,소매,D07,가정/주방/인테리어,D07A01,인테리어/욕실용품/커튼,G47599,"그외 기타 분류안된 가정용품 소매업",26,부산광역시,26350,해운대구,2635010500,우동,"부산광역시 해운대구 우동 639-6","부산광역시 해운대구 해운대로 600",612020,48094,""129.157008487283"",""35.1623089881507""
20872893,수피디톡스,,D,소매,D10,건강/미용식품,D10A01,다이어트상품판매,G47216,"건강보조식품 소매업",26,부산광역시,26530,사상구,2653010400,괘법동,"부산광역시 사상구 괘법동 522-11","부산광역시 사상구 광장로37번길 67",617808,46962,""128.980881255157"",""35.1659993945683""
20872995,고운나라성형외과,,S,의료,S01,병원,S01B08,정형/성형외과,Q86201,"일반 의원",11,서울특별시,11740,강동구,1174010800,성내동,"서울특별시 강동구 성내동 9-5","서울특별시 강동구 천호대로 1032",134030,5379,""127.126506567983"",""37.5373330695593""
20894528,에덴피아노음악학원,,R,학문/교육,R05,학원-음악미술무용,R05A02,피아노/바이올린/기타,P85620,"예술 학원",11,서울특별시,11350,노원구,1135010300,공릉동,"서울특별시 노원구 공릉동 269-6","서울특별시 노원구 공릉로32길 24",139240,1825,""127.08049049093"",""37.621772214375""
20848680,밀양가구할인마트,,D,소매,D15,가구소매,D15A01,일반가구소매,G47520,"가구 소매업",26,부산광역시,26530,사상구,2653010500,감전동,"부산광역시 사상구 감전동 121-1","부산광역시 사상구 괘감로 86",617800,46981,""128.984028087879"",""35.1575007250742""
20849789,제일전자보수,,F,생활서비스,F03,개인/가정용품수리,F03A01,개인/가정용품수리-종합,S95399,"그외 기타 개인 및 가정용품 수리업",11,서울특별시,11680,강남구,1168010600,대치동,"서울특별시 강남구 대치동 626","서울특별시 강남구 남부순환로 2917",135280,6280,""127.059147069334"",""37.4931595049826""
20874307,월당,,Q,음식,Q03,일식/수산물,Q03A02,음식점-일식,I56113,"일식 음식점업",11,서울특별시,11170,용산구,1117013100,한남동,"서울특별시 용산구 한남동 683-42","서울특별시 용산구 이태원로42길 42",140892,4400,""127.000806682355"",""37.5363994566234""
20883281,중앙부동산,,L,부동산,L01,부동산중개,L01A01,부동산중개,L68221,"부동산 자문 및 중개업",11,서울특별시,11650,서초구,1165010700,반포동,"서울특별시 서초구 반포동 2-8","서울특별시 서초구 신반포로15길 29",137040,6503,""126.994681807611"",""37.5054594982065""
20894676,핸디페어에코,신내점,D,소매,D07,가정/주방/인테리어,D07A01,인테리어/욕실용품/커튼,G47599,"그외 기타 분류안된 가정용품 소매업",11,서울특별시,11260,중랑구,1126010600,신내동,"서울특별시 중랑구 신내동 409-4","서울특별시 중랑구 봉화산로54길 32",131130,2067,""127.09793057252"",""37.6062557199937""
20861438,이엠학원,,R,학문/교육,R01,학원-보습교습입시,R01A01,학원-입시,P85501,"일반 교과 학원",11,서울특별시,11215,광진구,1121510900,군자동,"서울특별시 광진구 군자동 48-24","서울특별시 광진구 군자로 141",143837,4999,""127.074812371712"",""37.5543026393001""
21115256,상신가스,,D,소매,D25,기타판매업,D25A12,LPG판매,G47723,"가정용 가스연료 소매업",26,부산광역시,26440,강서구,2644010400,명지동,"부산광역시 강서구 명지동 2-757","부산광역시 강서구 경등중앙길 159",618813,46717,""128.928695698922"",""35.118600089334""
20862261,플라이웍스,,F,생활서비스,F12,광고/인쇄,F12A01,인쇄종합,C18119,"기타 인쇄업",11,서울특별시,11170,용산구,1117013000,이태원동,"서울특별시 용산구 이태원동 183-1","서울특별시 용산구 이태원로 145",140200,4351,""126.989889624723"",""37.5345765684078""
20816709,이즈타워약,,S,의료,S02,약국/한약방,S02A01,약국,G47811,"의약품 및 의료용품 소매업",11,서울특별시,11680,강남구,1168010100,역삼동,"서울특별시 강남구 역삼동 821","서울특별시 강남구 테헤란로 101",135080,6134,""127.028022534124"",""37.4986562606686""
21079757,자미온하우스,,D,소매,D07,가정/주방/인테리어,D07A03,침구/수예품,G47411,"가정용 직물제품 소매업",26,부산광역시,26350,해운대구,2635010500,우동,"부산광역시 해운대구 우동 1496","부산광역시 해운대구 센텀남대로 59",612020,48058,""129.131099324358"",""35.1698729034813""
21080049,사하공인중개사사무소,,L,부동산,L01,부동산중개,L01A01,부동산중개,L68221,"부동산 자문 및 중개업",26,부산광역시,26380,사하구,2638010100,괴정동,"부산광역시 사하구 괴정동 552-14","부산광역시 사하구 괴정로 219",604813,49402,""128.985523092843"",""35.0975812852608""
21080380,세잔미술학원,,R,학문/교육,R05,학원-음악미술무용,R05A01,서예/서화/미술,P85620,"예술 학원",26,부산광역시,26380,사하구,2638010200,당리동,"부산광역시 사하구 당리동 313-9","부산광역시 사하구 제석로 33",604713,49326,""128.972426314968"",""35.1048712598202""
21065376,금색상회,,D,소매,D16,화장품소매,D16A01,화장품판매점,G47813,"화장품 및 방향제 소매업",26,부산광역시,26380,사하구,2638010300,하단동,"부산광역시 사하구 하단동 485-6","부산광역시 사하구 낙동대로575번길 52",604851,49307,""128.961366217527"",""35.1120445402727""
21010835,수목공인중개사사무소,,L,부동산,L01,부동산중개,L01A01,부동산중개,L68221,"부동산 자문 및 중개업",26,부산광역시,26230,부산진구,2623010300,부전동,"부산광역시 부산진구 부전동 525-8","부산광역시 부산진구 신천대로102번길 37",614030,47284,""129.05578249205"",""35.1536696969535""
21070432,엘지자동펌프서비스센터,,F,생활서비스,F03,개인/가정용품수리,F03A02,가전제품수리,S95310,"가전제품 수리업",26,부산광역시,26260,동래구,2626010500,복천동,"부산광역시 동래구 복천동 500-1","부산광역시 동래구 복천로5번길 34",607751,47803,""129.087262775427"",""35.205851969101""
21140768,팔레드시즈웨딩하우스,,F,생활서비스,F17,예식/의례/관혼상제,F17A01,예식장/예식서비스,S96991,예식장업,26,부산광역시,26350,해운대구,2635010600,중동,"부산광역시 해운대구 중동 1124-2","부산광역시 해운대구 해운대해변로298번길 24",612010,48099,""129.166604817644"",""35.1602158913492""
21058660,암행어사온돌침대,,D,소매,D15,가구소매,D15A08,가구판매-돌침대,G47520,"가구 소매업",26,부산광역시,26440,강서구,2644010100,대저1동,"부산광역시 강서구 대저1동 2323","부산광역시 강서구 체육공원로6번길 211",618803,46703,""128.98236016099"",""35.2104532328619""
21058878,동남무도장,,N,관광/여가/오락,N02,무도/유흥/가무,N02A06,무도장,R91291,"무도장 운영업",26,부산광역시,26470,연제구,2647010200,연산동,"부산광역시 연제구 연산동 708-6","부산광역시 연제구 월드컵대로111번길 6-3",611080,47596,""129.081998674618"",""35.1840495621605""
21128898,다사랑요양병원,,S,의료,S01,병원,S01B17,노인/치매병원,Q86102,"일반 병원",26,부산광역시,26320,북구,2632010300,만덕동,"부산광역시 북구 만덕동 136-2","부산광역시 북구 덕천로 339",616110,46610,""129.040772964856"",""35.2091539574761""
21013731,세종언어치료센터,,S,의료,S03,유사의료업,S03B07,언어치료,Q86902,"유사 의료업",26,부산광역시,26410,금정구,2641010700,구서동,"부산광역시 금정구 구서동 84-1","부산광역시 금정구 중앙대로 1817-11",609310,46273,""129.091662218015"",""35.2465276774802""
21033621,제일철물,,D,소매,D21,철물/난방/건설자재소매,D21A06,철물/건설자재소매,G47511,"철물 및 난방용구 소매업",26,부산광역시,26260,동래구,2626010600,수안동,"부산광역시 동래구 수안동 39-50","부산광역시 동래구 수안로8번길 3",607823,47884,""129.08806288341"",""35.1950281835553""
21048580,현대자동차부산중부트럭지점,부산중부트럭지점,D,소매,D23,자동차/자동차용품,D23A01,자동차판매,G45110,"자동차 신품 판매업",26,부산광역시,26290,남구,2629010800,용당동,"부산광역시 남구 용당동 128-9","부산광역시 남구 신선로 340",608829,48560,""129.095999056637"",""35.1170676103847""
21118702,합천카서비스,,D,소매,D23,자동차/자동차용품,D23A07,자동차장식품판매,G45219,"기타 자동차신품 부품 및 내장품 판매업",26,부산광역시,26260,동래구,2626010100,명장동,"부산광역시 동래구 명장동 133-6","부산광역시 동래구 명장로 32-1",607110,47773,""129.104524626717"",""35.2048754763408""
21067020,엘리제음악학원,,R,학문/교육,R05,학원-음악미술무용,R05A02,피아노/바이올린/기타,P85620,"예술 학원",26,부산광역시,26380,사하구,2638010500,장림동,"부산광역시 사하구 장림동 532","부산광역시 사하구 장평로41번길 19",604771,49491,""128.972614773697"",""35.0690116278262""
21068260,괴정공인중개사무소,,L,부동산,L01,부동산중개,L01A01,부동산중개,L68221,"부동산 자문 및 중개업",26,부산광역시,26380,사하구,2638010100,괴정동,"부산광역시 사하구 괴정동 740-1","부산광역시 사하구 낙동대로 261",604855,49379,""128.98856667209"",""35.098944675682""
21014213,키즈북렌탈목동점,목동점,D,소매,D05,의복의류,D05A05,아동복판매,G47416,"셔츠 및 기타 의복 소매업",11,서울특별시,11470,양천구,1147010200,목동,"서울특별시 양천구 목동 907-17","서울특별시 양천구 목동동로 379",158050,7983,""126.878695955912"",""37.5356004295454""
21014558,제일중앙보습학원,,R,학문/교육,R09,학원기타,R09A01,학원(종합),P85501,"일반 교과 학원",11,서울특별시,11350,노원구,1135010500,상계동,"서울특별시 노원구 상계동 693","서울특별시 노원구 동일로 1426",139200,1694,""127.060530750824"",""37.655944474372""
21055207,삼성수학,,R,학문/교육,R01,학원-보습교습입시,R01A01,학원-입시,P85501,"일반 교과 학원",11,서울특별시,11680,강남구,1168010600,대치동,"서울특별시 강남구 대치동 975-16","서울특별시 강남구 삼성로64길 27",135280,6190,""127.062606954082"",""37.5004405240869""
21062450,백운철학관,,F,생활서비스,F11,개인서비스,F11A02,운명감정작명,S96992,"점술 및 유사 서비스업",26,부산광역시,26230,부산진구,2623010900,당감동,"부산광역시 부산진구 당감동 818-89","부산광역시 부산진구 가야대로 687-1",614100,47262,""129.046868182863"",""35.1569109404506""
21062789,기장주공어린이집,,R,학문/교육,R08,유아교육,R08A02,어린이집,Q87210,"보육시설 운영업",26,부산광역시,26710,기장군,2671025025,기장읍,"부산광역시 기장군 기장읍 서부리 101","부산광역시 기장군 기장읍 차성서로 123",619703,46059,""129.209488794465"",""35.2447043907399""
21036229,엘지,,F,생활서비스,F03,개인/가정용품수리,F03A05,에어컨수리/설치,S95310,"가전제품 수리업",26,부산광역시,26260,동래구,2626010100,명장동,"부산광역시 동래구 명장동 145-37","부산광역시 동래구 명장로 60-5",607110,47775,""129.107470614628"",""35.2042716831541""
21051685,청실홍실금은시계,,D,소매,D26,시계/귀금속소매,D26A01,시계/귀금속,G47830,"시계 및 귀금속 소매업",11,서울특별시,11680,강남구,1168010600,대치동,"서울특별시 강남구 대치동 629","서울특별시 강남구 남부순환로 2913",135280,6280,""127.058507747737"",""37.492739924937""
21057275,웅진코웨이렌탈사업부,,D,소매,D07,가정/주방/인테리어,D07A05,정수기연수기,G47320,"가전제품 소매업",26,부산광역시,26710,기장군,2671025624,정관읍,"부산광역시 기장군 정관읍 월평리 138-1","부산광역시 기장군 정관읍 월평1길 7",619962,46000,""129.140027928609"",""35.3584636815708""
21037602,지에스칼텍스오토오아시스부산점,오토오아시스부산점,F,생활서비스,F14,자동차/이륜차,F14A01,자동차정비/카센타,,,26,부산광역시,26500,수영구,2650010400,광안동,"부산광역시 수영구 광안동 164-1","부산광역시 수영구 수영로 554",613100,48298,""129.112874531441"",""35.1551958799727""
21064044,인테리어,,D,소매,D21,철물/난방/건설자재소매,D21A02,보일러/냉난방용품,G47511,"철물 및 난방용구 소매업",26,부산광역시,26380,사하구,2638010100,괴정동,"부산광역시 사하구 괴정동 654-17","부산광역시 사하구 장평로443번길 130",604813,49399,""128.978865657383"",""35.09942000501""
21042840,카스전자저울,,D,소매,D18,사진/광학/정밀기기소매,D18A06,저울판매,G47829,"기타 광학 및 정밀 기기 소매업",26,부산광역시,26440,강서구,2644010900,송정동,"부산광역시 강서구 송정동 1631-6","부산광역시 강서구 녹산산단335로 24-8",618819,46754,""128.854821320191"",""35.0904874807441""
21038810,참조은부동산,,L,부동산,L01,부동산중개,L01A01,부동산중개,L68221,"부동산 자문 및 중개업",26,부산광역시,26230,부산진구,2623011100,개금동,"부산광역시 부산진구 개금동 618-2","부산광역시 부산진구 복지로 70",614771,47387,""129.019662280679"",""35.1474709763083""
21038905,청용카,,F,생활서비스,F14,자동차/이륜차,F14A01,자동차정비/카센타,,,26,부산광역시,26410,금정구,2641010400,남산동,"부산광역시 금정구 남산동 17-1","부산광역시 금정구 금강로 740",609812,46218,""129.08916589324"",""35.2734742247778""
21060731,신라부동산공인중개사사무소,,L,부동산,L01,부동산중개,L01A01,부동산중개,L68221,"부동산 자문 및 중개업",26,부산광역시,26350,해운대구,2635010700,좌동,"부산광역시 해운대구 좌동 1323","부산광역시 해운대구 좌동순환로 280",612794,48110,""129.182345609333"",""35.1709158837773""
21504717,BASE스튜디오,,F,생활서비스,F06,사진,F06A01,사진관,M73301,"인물사진 및 행사용비디오 촬영업",11,서울특별시,11170,용산구,1117013100,한남동,"서울특별시 용산구 한남동 1-253","서울특별시 용산구 유엔빌리지길 151",140884,4420,""127.012681716645"",""37.5351207345098""
21682397,이우복영어문화원,,R,학문/교육,R04,학원-어학,R04A01,학원-외국어/어학,P85502,외국어학원,26,부산광역시,26380,사하구,2638010100,괴정동,"부산광역시 사하구 괴정동 534-3","부산광역시 사하구 괴정로 256",604812,49386,""128.989287163537"",""35.0968475332585""
21701053,월드태국황실마사지,,N,관광/여가/오락,N05,요가/단전/마사지,N05A06,스포츠마사지,S96122,마사지업,26,부산광역시,26350,해운대구,2635010600,중동,"부산광역시 해운대구 중동 1398-16","부산광역시 해운대구 해운대해변로 315",612010,48095,""129.164545995126"",""35.1620835303785""
21638112,다나한의원,,S,의료,S01,병원,S01B06,한의원,Q86203,한의원,11,서울특별시,11410,서대문구,1141011100,홍제동,"서울특별시 서대문구 홍제동 158-33","서울특별시 서대문구 통일로 413",120711,3646,""126.946416264529"",""37.5861686964285""
21638129,월드탑공인중개사사무소,,L,부동산,L01,부동산중개,L01A01,부동산중개,L68221,"부동산 자문 및 중개업",11,서울특별시,11545,금천구,1154510200,독산동,"서울특별시 금천구 독산동 903-10","서울특별시 금천구 남부순환로128길 21",153010,8548,""126.907429438501"",""37.4793742634476""
21552558,구몬학습중랑지국,,R,학문/교육,R13,학문교육기타,R13A01,학습지보급,P85503,"방문 교육 학원",11,서울특별시,11260,중랑구,1126010400,묵동,"서울특별시 중랑구 묵동 250-23","서울특별시 중랑구 동일로 847",131140,2013,""127.078307009812"",""37.605941904842""
21552886,명작양화점,양화점,D,소매,D06,가방/신발/액세서리,D06A02,구두제화/캐주얼화,G47420,"신발 소매업",26,부산광역시,26140,서구,2614012000,충무동1가,"부산광역시 서구 충무동1가 7-15","부산광역시 서구 구덕로 96",602011,49247,""129.02526586325"",""35.0972156732686""
21491957,화인에너지천일주유소,,F,생활서비스,F16,주유소/충전소,F16A01,주유소,G47711,"차량용 주유소 운영업",26,부산광역시,26170,동구,2617010100,초량동,"부산광역시 동구 초량동 1211-9","부산광역시 동구 중앙대로 168",601010,48822,""129.038784029757"",""35.1123793709858""
21640125,삼성공인중개사,,L,부동산,L01,부동산중개,L01A01,부동산중개,L68221,"부동산 자문 및 중개업",26,부산광역시,26230,부산진구,2623010700,초읍동,"부산광역시 부산진구 초읍동 269-59","부산광역시 부산진구 새싹로 200",614871,47127,""129.049336515936"",""35.1739078700939""
21674498,대산국제국내웨딩,,F,생활서비스,F17,예식/의례/관혼상제,F17A01,예식장/예식서비스,S96991,예식장업,11,서울특별시,11215,광진구,1121510700,화양동,"서울특별시 광진구 화양동 48-3","서울특별시 광진구 아차산로 213",143917,5019,""127.067186933902"",""37.5413666303843""
21701225,스킨러브,,N,관광/여가/오락,N05,요가/단전/마사지,N05A06,스포츠마사지,S96122,마사지업,26,부산광역시,26470,연제구,2647010200,연산동,"부산광역시 연제구 연산동 709-7","부산광역시 연제구 월드컵대로 113",611080,47596,""129.082289600044"",""35.1844616003581""
21702616,보경화이나,,F,생활서비스,F06,사진,F06A01,사진관,M73301,"인물사진 및 행사용비디오 촬영업",11,서울특별시,11620,관악구,1162010100,봉천동,"서울특별시 관악구 봉천동 951-25","서울특별시 관악구 은천로 28",151050,8749,""126.938361515567"",""37.4859185601308""
21544237,한국샷시,,D,소매,D21,철물/난방/건설자재소매,D21A08,셔터/새시판매,G47511,"철물 및 난방용구 소매업",26,부산광역시,26140,서구,2614012400,암남동,"부산광역시 서구 암남동 387","부산광역시 서구 암남로94번길 11-5",602831,49270,""129.014204317051"",""35.0763509960908""
21435051,창신상회,,D,소매,D06,가방/신발/액세서리,D06A01,신발소매,G47420,"신발 소매업",26,부산광역시,26170,동구,2617010400,범일동,"부산광역시 동구 범일동 830-24","부산광역시 동구 조방로 48",601703,48739,""129.061061577534"",""35.1409860421032""
21675599,시사주니어부산가야지국,부산가야지국,F,생활서비스,F11,개인서비스,F11A02,운명감정작명,S96992,"점술 및 유사 서비스업",26,부산광역시,26230,부산진구,2623011000,가야동,"부산광역시 부산진구 가야동 275-6","부산광역시 부산진구 가야대로588번길 17",614010,47330,""129.03579879234"",""35.1538512004375""
21683903,럭키사진관,,F,생활서비스,F06,사진,F06A01,사진관,M73301,"인물사진 및 행사용비디오 촬영업",26,부산광역시,26380,사하구,2638010200,당리동,"부산광역시 사하구 당리동 325-30","부산광역시 사하구 낙동대로 395",604830,49411,""128.974794111476"",""35.1029052031039""
21677279,조은유학원,,F,생활서비스,F08,대행업,F08A07,이민유학알선,S96999,"그외 기타 달리 분류되지 않은 개인 서비스업",11,서울특별시,11110,종로구,1111013500,관철동,"서울특별시 종로구 관철동 11-1","서울특별시 종로구 삼일대로15길 13",110111,3190,""126.98672255071"",""37.568771097397""
21645478,우정가스석유상사,,F,생활서비스,F15,주택수리,F15A05,가스설비,F42201,"배관 및 냉·난방 공사업",26,부산광역시,26170,동구,2617010100,초량동,"부산광역시 동구 초량동 647-8","부산광역시 동구 홍곡로 29",601010,48800,""129.039254645205"",""35.1226603116299""
21498541,대성오토바이부속상사,,F,생활서비스,F14,자동차/이륜차,F14A03,오토바이판매/수리,,,11,서울특별시,11530,구로구,1153010300,가리봉동,"서울특별시 구로구 가리봉동 107-44","서울특별시 구로구 우마1길 51",152800,8384,""126.889349440449"",""37.4840352995821""
21698889,소망공인중개사사무소,,L,부동산,L01,부동산중개,L01A01,부동산중개,L68221,"부동산 자문 및 중개업",11,서울특별시,11470,양천구,1147010100,신정동,"서울특별시 양천구 신정동 1259","서울특별시 양천구 신정로 293",158785,8078,""126.855022903655"",""37.514297984481""
21649513,여원전인방,,D,소매,D08,사무/문구/컴퓨터,D08A10,인장/도장,G47612,"문구용품 소매업",11,서울특별시,11305,강북구,1130510300,수유동,"서울특별시 강북구 수유동 293-3","서울특별시 강북구 인수봉로78길 31",142070,1030,""127.012732352947"",""37.6444353844648""
21776509,금성공인중개사사무소,,L,부동산,L01,부동산중개,L01A01,부동산중개,L68221,"부동산 자문 및 중개업",11,서울특별시,11230,동대문구,1123010900,휘경동,"서울특별시 동대문구 휘경동 312-65","서울특별시 동대문구 망우로6길 8",130090,2493,""127.055132048833"",""37.5873503390119""
21778334,재윤건축인테리어,,D,소매,D07,가정/주방/인테리어,D07A01,인테리어/욕실용품/커튼,G47599,"그외 기타 분류안된 가정용품 소매업",11,서울특별시,11215,광진구,1121510100,중곡동,"서울특별시 광진구 중곡동 39-38","서울특별시 광진구 긴고랑로 71",143220,4937,""127.083924315261"",""37.5616091192303""
21607296,협동이삿짐센터,,F,생활서비스,F04,운송/배달/택배,F04A06,종합이삿짐대행,H49311,"일반 화물자동차 운송업",11,서울특별시,11545,금천구,1154510200,독산동,"서울특별시 금천구 독산동 332-1","서울특별시 금천구 범안로15길 41",153010,8586,""126.892419825298"",""37.4682957784861""
21797536,한일철물,,D,소매,D21,철물/난방/건설자재소매,D21A06,철물/건설자재소매,G47511,"철물 및 난방용구 소매업",11,서울특별시,11260,중랑구,1126010300,중화동,"서울특별시 중랑구 중화동 332-95","서울특별시 중랑구 동일로143길 75",131120,2015,""127.074335061677"",""37.6047574831589""
21798411,왕수학이화학원,,R,학문/교육,R01,학원-보습교습입시,R01A01,학원-입시,P85501,"일반 교과 학원",11,서울특별시,11230,동대문구,1123010700,청량리동,"서울특별시 동대문구 청량리동 205-562","서울특별시 동대문구 회기로8길 42",130868,2468,""127.041341832243"",""37.5908072711423""
21832062,중앙해수랜드,,F,생활서비스,F09,대중목욕탕/휴게,F09A03,목욕업-찜질방,S96121,욕탕업,26,부산광역시,26290,남구,2629010700,용호동,"부산광역시 남구 용호동 170","부산광역시 남구 용호로 64",608090,48523,""129.110661814424"",""35.125623566133""
21793686,이수부동산공인중개사사무소,,L,부동산,L01,부동산중개,L01A01,부동산중개,L68221,"부동산 자문 및 중개업",11,서울특별시,11290,성북구,1129010300,돈암동,"서울특별시 성북구 돈암동 636","서울특별시 성북구 북악산로 844",136793,2828,""127.019299750646"",""37.5973749762377""
21812677,영진자동차매매상사,,D,소매,D23,자동차/자동차용품,D23A02,중고자동차판매,G45120,"중고 자동차 판매업",11,서울특별시,11380,은평구,1138010400,갈현동,"서울특별시 은평구 갈현동 448-14","서울특별시 은평구 갈현로31길 13-7",122050,3321,""126.914188953388"",""37.6199085808764""
21589838,신세계약국,,S,의료,S02,약국/한약방,S02A01,약국,G47811,"의약품 및 의료용품 소매업",11,서울특별시,11260,중랑구,1126010600,신내동,"서울특별시 중랑구 신내동 646","서울특별시 중랑구 신내로 211",131130,2024,""127.092597215517"",""37.6164236455441""
21779062,일흥부동산,,L,부동산,L01,부동산중개,L01A01,부동산중개,L68221,"부동산 자문 및 중개업",11,서울특별시,11350,노원구,1135010300,공릉동,"서울특별시 노원구 공릉동 502-1","서울특별시 노원구 동일로190길 30",139240,1844,""127.074902823407"",""37.625666082771""
21779852,개전리구판장,,D,소매,D03,종합소매점,D03B06,구판장/직판장,G47129,"기타 음·식료품 위주 종합 소매업",11,서울특별시,11410,서대문구,1141011300,대신동,"서울특별시 서대문구 대신동 126-25","서울특별시 서대문구 봉원사길 22",120160,3721,""126.946495373006"",""37.5676981325846""
21798483,하이렌터카,,F,생활서비스,F07,물품기기대여,F07A11,렌트카,L69110,"자동차 임대업",11,서울특별시,11305,강북구,1130510200,번동,"서울특별시 강북구 번동 428-3","서울특별시 강북구 한천로 924-12",142060,1136,""127.037401746585"",""37.6347098514117""
21798563,미스미스노래짱,,N,관광/여가/오락,N02,무도/유흥/가무,N02A01,노래방,R91223,"노래연습장 운영업",11,서울특별시,11410,서대문구,1141011000,북아현동,"서울특별시 서대문구 북아현동 1-1183","서울특별시 서대문구 북아현로22나길 13-25",120866,3747,""126.953216092035"",""37.5671181787203""
21794165,가정의상실,,D,소매,D05,의복의류,D05A06,맞춤양장/양장점,G47413,"남녀용 정장 소매업",11,서울특별시,11290,성북구,1129010100,성북동,"서울특별시 성북구 성북동 185-9","서울특별시 성북구 성북로 47",136875,2880,""127.002715011919"",""37.5918838299787""
21704562,대우동삼아파트관리사무소,,Q,음식,Q04,분식,Q04A04,우동전문점,I56194,"분식 및 김밥 전문점",26,부산광역시,26350,해운대구,2635010500,우동,"부산광역시 해운대구 우동 1007-16","부산광역시 해운대구 해운대로452번길 18",612770,48089,""129.140304832627"",""35.1632605853461""
21780042,성호아이디,,D,소매,D07,가정/주방/인테리어,D07A01,인테리어/욕실용품/커튼,G47599,"그외 기타 분류안된 가정용품 소매업",11,서울특별시,11290,성북구,1129013800,장위동,"서울특별시 성북구 장위동 74-295","서울특별시 성북구 장위로 140-1",136140,2770,""127.052294025304"",""37.6138182079252""
21707036,한국외환은행,,Q,음식,Q14,기타음식업,Q14A01,구내식당/자급식음식점,I56120,기관구내식당업,26,부산광역시,26380,사하구,2638010200,당리동,"부산광역시 사하구 당리동 304-1","부산광역시 사하구 낙동대로 448",604829,49326,""128.969798316761"",""35.1052528738587""
21591640,창동학원,,R,학문/교육,R09,학원기타,R09A01,학원(종합),P85501,"일반 교과 학원",11,서울특별시,11320,도봉구,1132010700,창동,"서울특별시 도봉구 창동 750-2","서울특별시 도봉구 도봉로136가길 4",132040,1401,""127.041555881102"",""37.6588283071496""
21582706,대성종합설비,,F,생활서비스,F15,주택수리,F15A03,배관난방보일러,F42201,"배관 및 냉·난방 공사업",11,서울특별시,11530,구로구,1153010100,신도림동,"서울특별시 구로구 신도림동 406-1","서울특별시 구로구 경인로 577",152887,8212,""126.880898201104"",""37.5040668669735""
21591900,KCC페인트성림상사,,D,소매,D22,페인트/유리제품소매,D22A01,페인트/유리제품소매,G47519,"페인트, 유리 및 기타 건설자재 소매업",26,부산광역시,26200,영도구,2620010400,대평동2가,"부산광역시 영도구 대평동2가 152","부산광역시 영도구 대평로 46",606022,49039,""129.033170282443"",""35.0926054991098""
21801175,스카이부동산공인중개사사무소,,L,부동산,L01,부동산중개,L01A01,부동산중개,L68221,"부동산 자문 및 중개업",11,서울특별시,11410,서대문구,1141011700,연희동,"서울특별시 서대문구 연희동 739","서울특별시 서대문구 연희로 38-20",120733,3781,""126.92855476802"",""37.5620853878364""
21820147,올인노래연습장,,N,관광/여가/오락,N02,무도/유흥/가무,N02A01,노래방,R91223,"노래연습장 운영업",26,부산광역시,26470,연제구,2647010200,연산동,"부산광역시 연제구 연산동 307-33","부산광역시 연제구 과정로 326-1",611080,47561,""129.092188888202"",""35.1898982216445""
21724703,빨간펜수학의달인,,R,학문/교육,R13,학문교육기타,R13A01,학습지보급,P85503,"방문 교육 학원",11,서울특별시,11290,성북구,1129013800,장위동,"서울특별시 성북구 장위동 316-3","서울특별시 성북구 월계로40길 7",136140,2759,""127.048395632063"",""37.6228602945652""
21802545,큰기와집한정식,,Q,음식,Q01,한식,Q01A04,한정식전문,I56111,"한식 음식점업",11,서울특별시,11110,종로구,1111014200,소격동,"서울특별시 종로구 소격동 122-3","서울특별시 종로구 북촌로5길 62",110200,3053,""126.981612508427"",""37.5799270599489""
21803585,중랑구박현무용학원,,R,학문/교육,R05,학원-음악미술무용,R05A05,학원-무용,P85620,"예술 학원",11,서울특별시,11260,중랑구,1126010300,중화동,"서울특별시 중랑구 중화동 284-8","서울특별시 중랑구 동일로 820",131120,2050,""127.079343432829"",""37.6036343149533""
21708536,삼모스포렉스볼링쎈타,,N,관광/여가/오락,N01,PC/오락/당구/볼링등,N01A06,볼링장,R91134,"볼링장 운영업",11,서울특별시,11620,관악구,1162010200,신림동,"서울특별시 관악구 신림동 1638-32","서울특별시 관악구 신림로59길 23",151730,8776,""126.928567965206"",""37.4828476728647""
21784062,한전석유,,D,소매,D25,기타판매업,D25A08,유류판매,G47722,"가정용 액체연료 소매업",11,서울특별시,11215,광진구,1121510100,중곡동,"서울특별시 광진구 중곡동 150-212","서울특별시 광진구 긴고랑로 96-1",143220,4922,""127.086048917585"",""37.5600307272983""
21743015,안경나라신도림테크노마트,,D,소매,D18,사진/광학/정밀기기소매,D18A04,안경원,G47822,"안경 소매업",11,서울특별시,11530,구로구,1153010200,구로동,"서울특별시 구로구 구로동 3-25","서울특별시 구로구 새말로 97",152725,8288,""126.89020763235"",""37.5070380397769""
21822936,안국승복,,D,소매,D05,의복의류,D05A15,법복(승복)판매,G47416,"셔츠 및 기타 의복 소매업",11,서울특별시,11110,종로구,1111018700,무악동,"서울특별시 종로구 무악동 63-9","서울특별시 종로구 통일로 266",110814,3030,""126.956772882531"",""37.5758717219093""
21727056,꼬마동산어린이집,,R,학문/교육,R08,유아교육,R08A02,어린이집,Q87210,"보육시설 운영업",26,부산광역시,26230,부산진구,2623011000,가야동,"부산광역시 부산진구 가야동 588","부산광역시 부산진구 가야공원로 39",614795,47383,""129.030302667657"",""35.149697557297""
21585804,개별용달,,F,생활서비스,F04,운송/배달/택배,F04A06,종합이삿짐대행,H49311,"일반 화물자동차 운송업",11,서울특별시,11380,은평구,1138010400,갈현동,"서울특별시 은평구 갈현동 520-5","서울특별시 은평구 갈현로23길 19",122050,3325,""126.912065447518"",""37.6171589039291""
21784850,부흥공인중개사사무소,,L,부동산,L01,부동산중개,L01A01,부동산중개,L68221,"부동산 자문 및 중개업",11,서울특별시,11320,도봉구,1132010600,방학동,"서울특별시 도봉구 방학동 646-3","서울특별시 도봉구 도당로19길 44",132020,1352,""127.039520623968"",""37.6690114257561""
21785066,약수학원,,R,학문/교육,R01,학원-보습교습입시,R01A01,학원-입시,P85501,"일반 교과 학원",11,서울특별시,11320,도봉구,1132010600,방학동,"서울특별시 도봉구 방학동 446-13","서울특별시 도봉구 시루봉로 130",132020,1359,""127.027727474584"",""37.6624093631103""
21805270,장안자원,,D,소매,D24,중고품소매/교환,D24A02,재활용/고물수집,G47869,"기타 중고상품 소매업",11,서울특별시,11230,동대문구,1123010600,장안동,"서울특별시 동대문구 장안동 409-9","서울특별시 동대문구 한천로2길 39",130100,2632,""127.060646429925"",""37.5630030402384""
21786586,제천공인중개사,,L,부동산,L01,부동산중개,L01A01,부동산중개,L68221,"부동산 자문 및 중개업",11,서울특별시,11260,중랑구,1126010100,면목동,"서울특별시 중랑구 면목동 370-5","서울특별시 중랑구 면목로29길 16",131200,2244,""127.084949545506"",""37.5758806670206""
21787201,LOOKOPTCAL,,D,소매,D18,사진/광학/정밀기기소매,D18A04,안경원,G47822,"안경 소매업",11,서울특별시,11200,성동구,1120010700,행당동,"서울특별시 성동구 행당동 19-54","서울특별시 성동구 마조로 17",133070,4760,""127.040452117273"",""37.5595518167192""
21826310,에이원상사,,D,소매,D03,종합소매점,D03A03,잡화점,G47190,"그외 기타 종합 소매업",11,서울특별시,11170,용산구,1117013000,이태원동,"서울특별시 용산구 이태원동 119-11","서울특별시 용산구 이태원로 171",140200,4350,""126.993102164077"",""37.5346400457222""
21596937,청솔어린이집,,R,학문/교육,R08,유아교육,R08A02,어린이집,Q87210,"보육시설 운영업",11,서울특별시,11530,구로구,1153010200,구로동,"서울특별시 구로구 구로동 429-40","서울특별시 구로구 가마산로20라길 20-16",152050,8307,""126.887627759691"",""37.4911013252262""
21613320,현대피아노,,R,학문/교육,R05,학원-음악미술무용,R05A02,피아노/바이올린/기타,P85620,"예술 학원",11,서울특별시,11200,성동구,1120011400,성수동1가,"서울특별시 성동구 성수동1가 676-5","서울특별시 성동구 서울숲길 25",133110,4766,""127.040628488321"",""37.5484433316258""
21624172,진성고물상,,D,소매,D24,중고품소매/교환,D24A02,재활용/고물수집,G47869,"기타 중고상품 소매업",26,부산광역시,26260,동래구,2626010800,온천동,"부산광역시 동래구 온천동 1378-27","부산광역시 동래구 여고북로73번길 46",607060,47838,""129.068923097062"",""35.2025539474874""
21787995,LG에어컨,,F,생활서비스,F03,개인/가정용품수리,F03A05,에어컨수리/설치,S95310,"가전제품 수리업",11,서울특별시,11320,도봉구,1132010700,창동,"서울특별시 도봉구 창동 807","서울특별시 도봉구 마들로 551",132792,1410,""127.048019361107"",""37.6594573086209""
21745773,타임교육,,R,학문/교육,R01,학원-보습교습입시,R01A01,학원-입시,P85501,"일반 교과 학원",11,서울특별시,11470,양천구,1147010200,목동,"서울특별시 양천구 목동 408-216","서울특별시 양천구 목동서로 258",158050,8003,""126.869156024175"",""37.5244627245364""
21614026,팔도공인중개사,,L,부동산,L01,부동산중개,L01A01,부동산중개,L68221,"부동산 자문 및 중개업",11,서울특별시,11740,강동구,1174010100,명일동,"서울특별시 강동구 명일동 294","서울특별시 강동구 양재대로 1656",134781,5266,""127.145651254562"",""37.5512863150877""
21807804,프로싸인,,F,생활서비스,F12,광고/인쇄,F12A02,간판제작종합,C33910,"간판 및 광고물 제조업",11,서울특별시,11380,은평구,1138010800,역촌동,"서울특별시 은평구 역촌동 48-23","서울특별시 은평구 역말로 31",122900,3416,""126.913758751748"",""37.6058755883464""
21847753,한마음공인중개사사무소,,L,부동산,L01,부동산중개,L01A01,부동산중개,L68221,"부동산 자문 및 중개업",11,서울특별시,11560,영등포구,1156012100,문래동3가,"서울특별시 영등포구 문래동3가 36-6","서울특별시 영등포구 문래로 149",150834,7293,""126.898506452255"",""37.5187932428946""
21847808,반포우체국,,F,생활서비스,F04,운송/배달/택배,F04B08,우체국/우편물취급소,J61100,우편업,11,서울특별시,11650,서초구,1165010700,반포동,"서울특별시 서초구 반포동 4-13","서울특별시 서초구 신반포로19길 40",137040,6504,""126.99469425143"",""37.5045315207525""
21605806,알토란비즈,,D,소매,D08,사무/문구/컴퓨터,D08A02,사무용기기소매,G47821,"사무용 기기 소매업",11,서울특별시,11230,동대문구,1123010900,휘경동,"서울특별시 동대문구 휘경동 289-2","서울특별시 동대문구 망우로18길 67-2",130090,2498,""127.062892028464"",""37.5870427743676""
21606051,만물수리,,F,생활서비스,F03,개인/가정용품수리,F03A02,가전제품수리,S95310,"가전제품 수리업",26,부산광역시,26470,연제구,2647010200,연산동,"부산광역시 연제구 연산동 312-38","부산광역시 연제구 연동로 4-1",611080,47552,""129.093369516309"",""35.1886887272335""
21789656,부동산타워,,L,부동산,L01,부동산중개,L01A01,부동산중개,L68221,"부동산 자문 및 중개업",11,서울특별시,11470,양천구,1147010200,목동,"서울특별시 양천구 목동 750-4","서울특별시 양천구 목동중앙본로 36",158050,7975,""126.869301096459"",""37.5395835346876""
21809068,퀸플라워꽃배달전국,체인본부,D,소매,D02,선물/팬시/기념품,D02A02,꽃집/꽃배달,G47851,"화초 및 산식물 소매업",11,서울특별시,11215,광진구,1121510100,중곡동,"서울특별시 광진구 중곡동 257-27","서울특별시 광진구 능동로43길 37",143220,4915,""127.079407607782"",""37.561646070738""
21713884,한국발레하우스,,R,학문/교육,R05,학원-음악미술무용,R05A05,학원-무용,P85620,"예술 학원",11,서울특별시,11650,서초구,1165010100,방배동,"서울특별시 서초구 방배동 978-32","서울특별시 서초구 효령로 81",137060,6688,""126.993085714414"",""37.4802884896971""
21626465,한국귀금속도매상가,,D,소매,D26,시계/귀금속소매,D26A01,시계/귀금속,G47830,"시계 및 귀금속 소매업",26,부산광역시,26230,부산진구,2623010400,범천동,"부산광역시 부산진구 범천동 727-6","부산광역시 부산진구 골드테마길 25",614020,47365,""129.059944058077"",""35.1428166389927""
21775614,아인피아노,,R,학문/교육,R05,학원-음악미술무용,R05A02,피아노/바이올린/기타,P85620,"예술 학원",11,서울특별시,11410,서대문구,1141011000,북아현동,"서울특별시 서대문구 북아현동 109","서울특별시 서대문구 신촌로37길 17-2",120820,3757,""126.957270486337"",""37.5580445399383""
21775826,우리공인중개사,,L,부동산,L01,부동산중개,L01A01,부동산중개,L68221,"부동산 자문 및 중개업",11,서울특별시,11380,은평구,1138010300,불광동,"서울특별시 은평구 불광동 484-88","서울특별시 은평구 통일로88길 12",122040,3341,""126.921076396514"",""37.6238101419824""
21795682,일진건설인력공급,,F,생활서비스,F05,인력/고용/용역알선,F05A02,인력공급/고용알선,,,11,서울특별시,11290,성북구,1129013800,장위동,"서울특별시 성북구 장위동 233-249","서울특별시 성북구 장위로 88",136140,2745,""127.046234918839"",""37.6137603813873""
21796046,메카부동산,,L,부동산,L01,부동산중개,L01A01,부동산중개,L68221,"부동산 자문 및 중개업",11,서울특별시,11380,은평구,1138010200,녹번동,"서울특별시 은평구 녹번동 35-21","서울특별시 은평구 통일로 635",122827,3382,""126.934608927672"",""37.6034977199038""
21843567,대명인쇄사,,F,생활서비스,F12,광고/인쇄,F12A01,인쇄종합,C18119,"기타 인쇄업",11,서울특별시,11560,영등포구,1156011900,문래동1가,"서울특별시 영등포구 문래동1가 60-1","서울특별시 영등포구 경인로78길 3-10",150091,7371,""126.895001817398"",""37.5117413823695""
21791357,삼천리주차장,,F,생활서비스,F14,자동차/이륜차,F14A07,주차장운영,H52915,"주차장 운영업",11,서울특별시,11380,은평구,1138010100,수색동,"서울특별시 은평구 수색동 72-1","서울특별시 은평구 수색로 245",122873,3504,""126.896948642628"",""37.5807701034943""
21791595,성래,,F,생활서비스,F15,주택수리,F15A05,가스설비,F42201,"배관 및 냉·난방 공사업",11,서울특별시,11410,서대문구,1141011000,북아현동,"서울특별시 서대문구 북아현동 1009","서울특별시 서대문구 이화여대8길 62",120795,3769,""126.950716393779"",""37.5597164708192""
21714259,시너지텔레콤,,D,소매,D18,사진/광학/정밀기기소매,D18A02,핸드폰소매,G47312,"통신기기 소매업",11,서울특별시,11305,강북구,1130510100,미아동,"서울특별시 강북구 미아동 52-1","서울특별시 강북구 월계로7나길 4",142100,1218,""127.033695359367"",""37.6129465458575""
21715033,라코스테광복점,광복점,D,소매,D05,의복의류,D05A02,캐쥬얼/스포츠의류,G47416,"셔츠 및 기타 의복 소매업",26,부산광역시,26110,중구,2611013400,광복동2가,"부산광역시 중구 광복동2가 21","부산광역시 중구 광복로 71",600032,48952,""129.032866377688"",""35.0989449570131""
22223418,홍성카인테리어,,D,소매,D23,자동차/자동차용품,D23A07,자동차장식품판매,G45219,"기타 자동차신품 부품 및 내장품 판매업",26,부산광역시,26260,동래구,2626010200,안락동,"부산광역시 동래구 안락동 419-2","부산광역시 동래구 충렬사로 36-1",607100,47754,""129.097988590167"",""35.2023028880304""
22223675,하나이엔티,,D,소매,D07,가정/주방/인테리어,D07A10,조명기구/전기용품,G47591,"전기용품 및 조명장치 소매업",26,부산광역시,26470,연제구,2647010200,연산동,"부산광역시 연제구 연산동 706-10","부산광역시 연제구 중앙대로1076번길 26",611080,47596,""129.081296314322"",""35.1832445871871""
22149076,컴119,,F,생활서비스,F03,개인/가정용품수리,F03A07,컴퓨터수리,S95121,"컴퓨터 및 사무용 기기 수리업",26,부산광역시,26320,북구,2632010500,구포동,"부산광역시 북구 구포동 1206-12","부산광역시 북구 팽나무로 32",616090,46598,""129.007730251327"",""35.2050707546119""
22149655,꿈나무종합팻트,,D,소매,D09,애견/애완/동물,D09A01,애견/애완/동물사육판매,G47852,"애완용 동물 및 관련용품 소매업",26,부산광역시,26440,강서구,2644010700,죽동동,"부산광역시 강서구 죽동동 536-678","부산광역시 강서구 봉죽길243번길 62",618320,46708,""128.887506148496"",""35.1848106562151""
21859520,새롬성형외과,,S,의료,S01,병원,S01B08,정형/성형외과,Q86201,"일반 의원",11,서울특별시,11560,영등포구,1156010500,영등포동4가,"서울특별시 영등포구 영등포동4가 425-37","서울특별시 영등포구 경인로 835",150034,7305,""126.905646844423"",""37.5163096686555""
21691813,김한규치과의원,,S,의료,S01,병원,S01B04,치과의원,Q86202,"치과 의원",26,부산광역시,26110,중구,2611010700,중앙동4가,"부산광역시 중구 중앙동4가 84-2","부산광역시 중구 충장대로9번길 23-2",600816,48938,""129.037516712125"",""35.107594769458""
21988997,지리산광천수동구,진구대리점,D,소매,D01,음/식료품소매,D01A19,생수판매,G47221,"음료 소매업",26,부산광역시,26170,동구,2617010300,좌천동,"부산광역시 동구 좌천동 851-8","부산광역시 동구 좌천로 26",601050,48771,""129.047463634737"",""35.1340013422284""
21940786,파사드통상,,D,소매,D21,철물/난방/건설자재소매,D21A06,철물/건설자재소매,G47511,"철물 및 난방용구 소매업",11,서울특별시,11440,마포구,1144010600,토정동,"서울특별시 마포구 토정동 138","서울특별시 마포구 토정로32길 11",121060,4164,""126.940947302284"",""37.5398063371614""
21880741,대신건축,,D,소매,D07,가정/주방/인테리어,D07A01,인테리어/욕실용품/커튼,G47599,"그외 기타 분류안된 가정용품 소매업",11,서울특별시,11500,강서구,1150010900,방화동,"서울특별시 강서구 방화동 884","서울특별시 강서구 방화대로40길 66",157220,7597,""126.819964669663"",""37.571249578594""
21989209,장수지공인중개사사무소,,L,부동산,L01,부동산중개,L01A01,부동산중개,L68221,"부동산 자문 및 중개업",26,부산광역시,26230,부산진구,2623010900,당감동,"부산광역시 부산진구 당감동 760-10","부산광역시 부산진구 당감서로 101",614100,47146,""129.035468038954"",""35.1684566115943""
21990033,최시열한의원,,S,의료,S01,병원,S01B06,한의원,Q86203,한의원,26,부산광역시,26230,부산진구,2623010400,범천동,"부산광역시 부산진구 범천동 870-21","부산광역시 부산진구 중앙대로 611",614020,47351,""129.058533132809"",""35.147417068562""
22044119,런던빠,,Q,음식,Q09,유흥주점,Q09A06,관광/유흥주점,I56211,"일반유흥 주점업",26,부산광역시,26170,동구,2617010100,초량동,"부산광역시 동구 초량동 1207-16","부산광역시 동구 대영로243번길 92",601010,48816,""129.039596590806"",""35.1158968811307""
22044179,롯데가스보일러,송파대리점,D,소매,D21,철물/난방/건설자재소매,D21A02,보일러/냉난방용품,G47511,"철물 및 난방용구 소매업",11,서울특별시,11710,송파구,1171010800,문정동,"서울특별시 송파구 문정동 40-1","서울특별시 송파구 동남로4길 34",138200,5806,""127.124636614578"",""37.4872203159801""
22044204,비젼부동산,,L,부동산,L01,부동산중개,L01A01,부동산중개,L68221,"부동산 자문 및 중개업",26,부산광역시,26170,동구,2617010100,초량동,"부산광역시 동구 초량동 448-1","부산광역시 동구 중앙대로195번가길 26",601010,48816,""129.038231864607"",""35.1164133619951""
22044424,부산혜민요양병원,,S,의료,S01,병원,S01B01,종합병원,Q86101,"종합 병원",26,부산광역시,26170,동구,2617010400,범일동,"부산광역시 동구 범일동 62-744","부산광역시 동구 중앙대로 524",601060,48726,""129.056956082646"",""35.1400303865971""
21910142,월드태권도,,R,학문/교육,R09,학원기타,R09A11,학원-기타,P85699,"그외 기타 분류안된 교육기관",11,서울특별시,11710,송파구,1171011300,거여동,"서울특별시 송파구 거여동 290-2","서울특별시 송파구 양산로4길 9",138110,5779,""127.144347235958"",""37.4900859260928""
21953791,광명부동산중개인영업소,,L,부동산,L01,부동산중개,L01A01,부동산중개,L68221,"부동산 자문 및 중개업",11,서울특별시,11440,마포구,1144012300,망원동,"서울특별시 마포구 망원동 418-17","서울특별시 마포구 희우정로 128",121230,4007,""126.89971672972"",""37.5557651789414""
21863966,아우성노래연습장,,N,관광/여가/오락,N02,무도/유흥/가무,N02A01,노래방,R91223,"노래연습장 운영업",11,서울특별시,11740,강동구,1174010800,성내동,"서울특별시 강동구 성내동 9-14","서울특별시 강동구 천호대로 1034",134030,5379,""127.126745744678"",""37.5371996800846""
21890223,홍선생미술잠실지사,잠실지사,R,학문/교육,R05,학원-음악미술무용,R05A01,서예/서화/미술,P85620,"예술 학원",11,서울특별시,11710,송파구,1171010200,신천동,"서울특별시 송파구 신천동 11-10","서울특별시 송파구 오금로 58",138922,5510,""127.105389605001"",""37.5167119999205""
21883171,김찬영어전문학원,,R,학문/교육,R04,학원-어학,R04A01,학원-외국어/어학,P85502,외국어학원,11,서울특별시,11500,강서구,1150010300,화곡동,"서울특별시 강서구 화곡동 981-1","서울특별시 강서구 화곡로 292",157010,7663,""126.848757193059"",""37.5503055677773""
21906872,연세가정의원,,S,의료,S01,병원,S01B99,기타병원,,,11,서울특별시,11620,관악구,1162010100,봉천동,"서울특별시 관악구 봉천동 952-11","서울특별시 관악구 은천로 35",151050,8717,""126.93921414209"",""37.4863947651086""
21992007,영도조은약국,,S,의료,S02,약국/한약방,S02A01,약국,G47811,"의약품 및 의료용품 소매업",26,부산광역시,26200,영도구,2620010200,대교동2가,"부산광역시 영도구 대교동2가 111-1","부산광역시 영도구 태종로 102",606012,49052,""129.041980530356"",""35.091168988965""
22014151,경남인삼,,D,소매,D10,건강/미용식품,D10A05,인삼제품판매,G47216,"건강보조식품 소매업",26,부산광역시,26230,부산진구,2623010300,부전동,"부산광역시 부산진구 부전동 573-3","부산광역시 부산진구 중앙대로783번길 23",614030,47251,""129.061044261268"",""35.1633227091776""
21865966,태남기업사,,L,부동산,L01,부동산중개,L01A01,부동산중개,L68221,"부동산 자문 및 중개업",11,서울특별시,11680,강남구,1168010100,역삼동,"서울특별시 강남구 역삼동 831-36","서울특별시 강남구 역삼로3길 15",135080,6242,""127.031062139256"",""37.4944823121732""
21947807,서부피아노조율센타,,R,학문/교육,R05,학원-음악미술무용,R05A02,피아노/바이올린/기타,P85620,"예술 학원",11,서울특별시,11440,마포구,1144012500,성산동,"서울특별시 마포구 성산동 216","서울특별시 마포구 월드컵로30나길 29",121250,3970,""126.908202626469"",""37.5613673155173""
21948142,한겨레신문,,D,소매,D13,책/서적/도서,D13A06,잡지/신문소매,G47611,"서적 및 잡지류 소매업",11,서울특별시,11470,양천구,1147010200,목동,"서울특별시 양천구 목동 711-2","서울특별시 양천구 목동중앙남로14가길 49",158050,7955,""126.864746474081"",""37.5422069019154""
21885827,제2노량진메가스터디입시학원,,R,학문/교육,R01,학원-보습교습입시,R01A01,학원-입시,P85501,"일반 교과 학원",11,서울특별시,11590,동작구,1159010400,본동,"서울특별시 동작구 본동 42-11","서울특별시 동작구 노량진로32길 72-3",156060,6908,""126.956489882643"",""37.5109220201745""
21907909,리빙인테리어,,D,소매,D07,가정/주방/인테리어,D07A01,인테리어/욕실용품/커튼,G47599,"그외 기타 분류안된 가정용품 소매업",11,서울특별시,11350,노원구,1135010600,중계동,"서울특별시 노원구 중계동 360-15","서울특별시 노원구 노원로22길 71",139790,1744,""127.075865569905"",""37.6485509724185""
21908297,연대문구,,D,소매,D08,사무/문구/컴퓨터,D08A01,사무/문구용품,G47612,"문구용품 소매업",11,서울특별시,11710,송파구,1171010400,송파동,"서울특별시 송파구 송파동 95-39","서울특별시 송파구 가락로 137",138170,5668,""127.11095548216"",""37.502382134614""
21752688,대봉공인중개사사무소,,L,부동산,L01,부동산중개,L01A01,부동산중개,L68221,"부동산 자문 및 중개업",11,서울특별시,11380,은평구,1138010300,불광동,"서울특별시 은평구 불광동 635","서울특별시 은평구 불광로2길 33",122741,3366,""126.935622443237"",""37.6126433308376""
21891391,일월서예,,R,학문/교육,R05,학원-음악미술무용,R05A01,서예/서화/미술,P85620,"예술 학원",11,서울특별시,11620,관악구,1162010100,봉천동,"서울특별시 관악구 봉천동 1708","서울특별시 관악구 봉천로 387",151782,8750,""126.942688881589"",""37.4837497922457""
21941580,디어유몰,,D,소매,D05,의복의류,D05A01,일반의류,G47416,"셔츠 및 기타 의복 소매업",11,서울특별시,11470,양천구,1147010200,목동,"서울특별시 양천구 목동 405-300","서울특별시 양천구 오목로54길 1",158050,8006,""126.873447144802"",""37.5242334240895""
22015528,선이고운성형외과,,S,의료,S01,병원,S01B08,정형/성형외과,Q86201,"일반 의원",26,부산광역시,26230,부산진구,2623010300,부전동,"부산광역시 부산진구 부전동 194-1","부산광역시 부산진구 신천대로50번길 79",614030,47296,""129.059774480641"",""35.1542838478082""
21867091,지엔비화곡외국어학원,,R,학문/교육,R04,학원-어학,R04A01,학원-외국어/어학,P85502,외국어학원,11,서울특별시,11500,강서구,1150010300,화곡동,"서울특별시 강서구 화곡동 24-322","서울특별시 강서구 화곡로 232",157010,7679,""126.845150334715"",""37.5456930917332""
21892998,푸른숲분식,,Q,음식,Q13,음식배달서비스,Q13A02,국/찌개배달,I56132,"이동 음식업",11,서울특별시,11530,구로구,1153010200,구로동,"서울특별시 구로구 구로동 314","서울특별시 구로구 구로중앙로7길 28",152050,8312,""126.889592027751"",""37.4913270451925""
21893131,테디클럽,,D,소매,D02,선물/팬시/기념품,D02A07,공예품판매,G47842,"관광 민예품 및 선물용품 소매업",11,서울특별시,11500,강서구,1150010300,화곡동,"서울특별시 강서구 화곡동 348-2","서울특별시 강서구 강서로17길 7",157010,7770,""126.845275172783"",""37.5331969551465""
22140958,한성부동산,,L,부동산,L01,부동산중개,L01A01,부동산중개,L68221,"부동산 자문 및 중개업",26,부산광역시,26350,해운대구,2635010200,석대동,"부산광역시 해운대구 석대동 231-33","부산광역시 해운대구 반송로 612-1",612070,48003,""129.129299337256"",""35.2198802178691""
21995697,영도선경익스프레스,,F,생활서비스,F04,운송/배달/택배,F04A06,종합이삿짐대행,H49311,"일반 화물자동차 운송업",26,부산광역시,26200,영도구,2620011100,영선동4가,"부산광역시 영도구 영선동4가 226-10","부산광역시 영도구 남항새싹길 203",606817,49078,""129.043007266364"",""35.0805055631594""
21996315,동서고시원,,R,학문/교육,R10,도서관/독서실,R10A02,고시원,R90212,"독서실 운영업",26,부산광역시,26230,부산진구,2623010100,양정동,"부산광역시 부산진구 양정동 406-32","부산광역시 부산진구 동평로 407",614050,47210,""129.069624236699"",""35.1739377389729""
22189012,열쇠차키전문,,D,소매,D21,철물/난방/건설자재소매,D21A07,열쇠판매/수리,G47511,"철물 및 난방용구 소매업",26,부산광역시,26470,연제구,2647010100,거제동,"부산광역시 연제구 거제동 23-6","부산광역시 연제구 월드컵대로 180",611800,47521,""129.076858257624"",""35.1880524626336""
21972518,관악퓨리스생수,,D,소매,D01,음/식료품소매,D01A19,생수판매,G47221,"음료 소매업",11,서울특별시,11545,금천구,1154510100,가산동,"서울특별시 금천구 가산동 34-17","서울특별시 금천구 벚꽃로46길 11",153800,8508,""126.883214565031"",""37.482950273846""
21869066,한국미술교육학회,,R,학문/교육,R05,학원-음악미술무용,R05A01,서예/서화/미술,P85620,"예술 학원",11,서울특별시,11530,구로구,1153010200,구로동,"서울특별시 구로구 구로동 685-70","서울특별시 구로구 구일로4길 46",152730,8325,""126.87785916963"",""37.4932615512188""
21869067,구일서점,,D,소매,D13,책/서적/도서,D13A01,서점,G47611,"서적 및 잡지류 소매업",11,서울특별시,11530,구로구,1153010200,구로동,"서울특별시 구로구 구로동 689-20","서울특별시 구로구 서부샛길 822",152050,8326,""126.873113401429"",""37.4884949021106""
21895288,부동산플러스,석계점,L,부동산,L01,부동산중개,L01A01,부동산중개,L68221,"부동산 자문 및 중개업",11,서울특별시,11350,노원구,1135010200,월계동,"서울특별시 노원구 월계동 18","서울특별시 노원구 마들로 31",139956,1913,""127.06705958757"",""37.618720389304""
22210907,큐플러스멀티방,,N,관광/여가/오락,N01,PC/오락/당구/볼링등,N01A02,비디오감상실,J59142,"비디오물 감상실 운영업",11,서울특별시,11110,종로구,1111013500,관철동,"서울특별시 종로구 관철동 43-5","서울특별시 종로구 종로10길 14",110111,3189,""126.9842916818"",""37.5693899471391""
22141901,나이키,2001아울렛해운대점,D,소매,D05,의복의류,D05A02,캐쥬얼/스포츠의류,G47416,"셔츠 및 기타 의복 소매업",26,부산광역시,26350,해운대구,2635010700,좌동,"부산광역시 해운대구 좌동 1467-4","부산광역시 해운대구 해운대로 813",612030,48106,""129.177093805183"",""35.1705974675265""
21869982,소망한의원,,S,의료,S01,병원,S01B06,한의원,Q86203,한의원,11,서울특별시,11740,강동구,1174010600,둔촌동,"서울특별시 강동구 둔촌동 51","서울특별시 강동구 천호대로 1200",134060,5361,""127.144642879281"",""37.5345464025386""
21870221,대화미싱,,D,소매,D25,기타판매업,D25A14,미싱판매,G47599,"그외 기타 분류안된 가정용품 소매업",11,서울특별시,11530,구로구,1153010800,오류동,"서울특별시 구로구 오류동 145-4","서울특별시 구로구 오류로8바길 27",152896,8340,""126.847207600218"",""37.4929033417052""
22190841,남천주차장,,F,생활서비스,F14,자동차/이륜차,F14A07,주차장운영,H52915,"주차장 운영업",26,부산광역시,26260,동래구,2626010500,복천동,"부산광역시 동래구 복천동 276-1","부산광역시 동래구 동래로136번길 10",607020,47809,""129.085586114443"",""35.2052991422472""
21957543,신흥전파사,,F,생활서비스,F03,개인/가정용품수리,F03A02,가전제품수리,S95310,"가전제품 수리업",11,서울특별시,11620,관악구,1162010200,신림동,"서울특별시 관악구 신림동 1631-7","서울특별시 관악구 문성로 232",151901,8843,""126.929188138831"",""37.4790058098196""
22020478,웅진씽크빅학습지,,R,학문/교육,R13,학문교육기타,R13A01,학습지보급,P85503,"방문 교육 학원",26,부산광역시,26230,부산진구,2623010300,부전동,"부산광역시 부산진구 부전동 341-5","부산광역시 부산진구 중앙대로775번길 5",614781,47251,""129.061406500649"",""35.161633934157""
22041225,우리자산관리첫마을3단지,,L,부동산,L01,부동산중개,L01A01,부동산중개,L68221,"부동산 자문 및 중개업",11,서울특별시,11650,서초구,1165010800,서초동,"서울특별시 서초구 서초동 1317-23","서울특별시 서초구 서초대로 411",137070,6615,""127.025903621913"",""37.4980981742341""
21975776,신화전기,,D,소매,D07,가정/주방/인테리어,D07A10,조명기구/전기용품,G47591,"전기용품 및 조명장치 소매업",11,서울특별시,11530,구로구,1153010100,신도림동,"서울특별시 구로구 신도림동 406-1","서울특별시 구로구 경인로 577",152887,8212,""126.880898201104"",""37.5040668669735""
21998297,조일공사,,F,생활서비스,F12,광고/인쇄,F12A03,광고물제작,C33910,"간판 및 광고물 제조업",26,부산광역시,26230,부산진구,2623010200,전포동,"부산광역시 부산진구 전포동 312-12","부산광역시 부산진구 전포대로 206-2",614040,47304,""129.065711540304"",""35.155079079323""
21999275,희망약국,,S,의료,S02,약국/한약방,S02A01,약국,G47811,"의약품 및 의료용품 소매업",26,부산광역시,26200,영도구,2620012100,동삼동,"부산광역시 영도구 동삼동 1123-7","부산광역시 영도구 상리로 35",606083,49089,""129.068183632738"",""35.0846852582349""
22191843,보생원,,S,의료,S03,유사의료업,S03B03,침구원,Q86902,"유사 의료업",11,서울특별시,11110,종로구,1111018600,신영동,"서울특별시 종로구 신영동 105-25","서울특별시 종로구 세검정로6다길 3",110830,3019,""126.961867974385"",""37.6019115551777""
22035666,현대상회,,D,소매,D24,중고품소매/교환,D24A02,재활용/고물수집,G47869,"기타 중고상품 소매업",26,부산광역시,26230,부산진구,2623011100,개금동,"부산광역시 부산진구 개금동 408","부산광역시 부산진구 개금본동로66번길 55",614811,47167,""129.018261656394"",""35.1583716294374""
21918630,한돌바둑교실,,R,학문/교육,R07,학원-예능취미체육,R07A16,학원-바둑,P85612,"레크레이션 교육기관",11,서울특별시,11260,중랑구,1126010600,신내동,"서울특별시 중랑구 신내동 650","서울특별시 중랑구 신내로19길 42",131786,2028,""127.091626451845"",""37.6161458642623""
22212012,아이원,부산대리점,F,생활서비스,F03,개인/가정용품수리,F03A06,정보통신기기수리,S95122,"통신장비 수리업",26,부산광역시,26470,연제구,2647010200,연산동,"부산광역시 연제구 연산동 677-3","부산광역시 연제구 중앙대로1120번길 13-8",611080,47520,""129.082391936333"",""35.1880391874722""
21983757,케이에이취피코스메틱,,D,소매,D16,화장품소매,D16A01,화장품판매점,G47813,"화장품 및 방향제 소매업",11,서울특별시,11500,강서구,1150010400,가양동,"서울특별시 강서구 가양동 116-2","서울특별시 강서구 강서로74길 28",157200,7573,""126.842420410761"",""37.5670839001726""
21920032,오천주유소,,F,생활서비스,F16,주유소/충전소,F16A01,주유소,G47711,"차량용 주유소 운영업",11,서울특별시,11680,강남구,1168010500,삼성동,"서울특별시 강남구 삼성동 71-9","서울특별시 강남구 봉은사로 503",135090,6086,""127.053779056657"",""37.5134895123225""
22143908,코리아세븐하단제휴점,,D,소매,D03,종합소매점,D03A01,편의점,G47122,"체인화 편의점",26,부산광역시,26380,사하구,2638010300,하단동,"부산광역시 사하구 하단동 529-16","부산광역시 사하구 낙동대로 474",604020,49325,""128.968208427579"",""35.1071585390814""
21977977,태영상사,,D,소매,D07,가정/주방/인테리어,D07A10,조명기구/전기용품,G47591,"전기용품 및 조명장치 소매업",11,서울특별시,11410,서대문구,1141011800,홍은동,"서울특별시 서대문구 홍은동 189-33","서울특별시 서대문구 연희로41길 137",120100,3649,""126.934146699515"",""37.5946183677437""
22219354,닥터마틴,롯데백화점동래점,D,소매,D05,의복의류,D05A02,캐쥬얼/스포츠의류,G47416,"셔츠 및 기타 의복 소매업",26,부산광역시,26260,동래구,2626010800,온천동,"부산광역시 동래구 온천동 502-3","부산광역시 동래구 중앙대로 1393",607716,47727,""129.077500271184"",""35.2117261185445""
22145820,한일공인중개사사무소,,L,부동산,L01,부동산중개,L01A01,부동산중개,L68221,"부동산 자문 및 중개업",26,부산광역시,26350,해운대구,2635010700,좌동,"부산광역시 해운대구 좌동 1274","부산광역시 해운대구 대천로 56",612795,48082,""129.171304510782"",""35.1726005646526""
22006270,청룡내동공사,,F,생활서비스,F03,개인/가정용품수리,F03A02,가전제품수리,S95310,"가전제품 수리업",11,서울특별시,11650,서초구,1165010100,방배동,"서울특별시 서초구 방배동 767-1","서울특별시 서초구 방배중앙로27길 17",137060,6555,""126.984847258669"",""37.4950313137942""
21979282,세양공인중개사,,L,부동산,L01,부동산중개,L01A01,부동산중개,L68221,"부동산 자문 및 중개업",11,서울특별시,11620,관악구,1162010100,봉천동,"서울특별시 관악구 봉천동 1707-1","서울특별시 관악구 인헌12길 46-1",151780,8797,""126.964545234532"",""37.4706528269576""
22002692,동의대학교한방병원,,S,의료,S01,병원,S01B05,한방병원,Q86104,"한방 병원",26,부산광역시,26230,부산진구,2623010100,양정동,"부산광역시 부산진구 양정동 산45-1","부산광역시 부산진구 양정로 52-57",614710,47227,""129.076761494548"",""35.1690610886438""
21922055,매일경제신문,신목동지국,D,소매,D13,책/서적/도서,D13A06,잡지/신문소매,G47611,"서적 및 잡지류 소매업",11,서울특별시,11470,양천구,1147010200,목동,"서울특별시 양천구 목동 764-2","서울특별시 양천구 목동중앙로3길 13",158050,7962,""126.869614627807"",""37.5360544699976""
22147510,불꽃나이트,,N,관광/여가/오락,N02,무도/유흥/가무,N02A02,나이트클럽,I56212,"무도유흥 주점업",26,부산광역시,26380,사하구,2638010100,괴정동,"부산광역시 사하구 괴정동 1012-5","부산광역시 사하구 사하로198번길 2",604811,49356,""128.993990238973"",""35.0993870927948""
22007581,대우헤어아카데미,,R,학문/교육,R03,학원-자격/국가고시,R03A25,학원-이용,P85659,"기타 기술 및 직업훈련학원",26,부산광역시,26230,부산진구,2623010300,부전동,"부산광역시 부산진구 부전동 267-17","부산광역시 부산진구 중앙대로 757",614030,47251,""129.060695295248"",""35.1601168112578""
21902950,늘푸른상사,,D,소매,D25,기타판매업,D25A21,안전보호구판매,G47599,"그외 기타 분류안된 가정용품 소매업",11,서울특별시,11260,중랑구,1126010500,망우동,"서울특별시 중랑구 망우동 335-11","서울특별시 중랑구 용마산로 674-30",131230,2057,""127.101752199419"",""37.6115019113642""
22148630,장미침구,,D,소매,D07,가정/주방/인테리어,D07A03,침구/수예품,G47411,"가정용 직물제품 소매업",26,부산광역시,26380,사하구,2638010300,하단동,"부산광역시 사하구 하단동 145-3","부산광역시 사하구 낙동대로451번길 18",604020,49409,""128.969512060348"",""35.104236571832""
22173728,해광에너지,,D,소매,D21,철물/난방/건설자재소매,D21A02,보일러/냉난방용품,G47511,"철물 및 난방용구 소매업",26,부산광역시,26260,동래구,2626010800,온천동,"부산광역시 동래구 온천동 1449-6","부산광역시 동래구 충렬대로86번길 75",607060,47827,""129.07027360451"",""35.2033712917777""
22125770,삼성에어컨서비스,,F,생활서비스,F03,개인/가정용품수리,F03A05,에어컨수리/설치,S95310,"가전제품 수리업",26,부산광역시,26380,사하구,2638010100,괴정동,"부산광역시 사하구 괴정동 563-22","부산광역시 사하구 괴정로 216",604813,49403,""128.985036218985"",""35.0972246785046""
22340466,임기샷시,,D,소매,D21,철물/난방/건설자재소매,D21A08,셔터/새시판매,G47511,"철물 및 난방용구 소매업",11,서울특별시,11290,성북구,1129013900,석관동,"서울특별시 성북구 석관동 189-20","서울특별시 성북구 한천로81길 10-4",136818,2783,""127.060835524597"",""37.6119312380095""
22121381,동서이삿짐보관,,F,생활서비스,F04,운송/배달/택배,F04A06,종합이삿짐대행,H49311,"일반 화물자동차 운송업",26,부산광역시,26290,남구,2629010600,대연동,"부산광역시 남구 대연동 238-30","부산광역시 남구 황령대로 329-15",608020,48428,""129.095216735295"",""35.1487676317502""
22121866,한라종합건재,,D,소매,D21,철물/난방/건설자재소매,D21A06,철물/건설자재소매,G47511,"철물 및 난방용구 소매업",26,부산광역시,26380,사하구,2638010300,하단동,"부산광역시 사하구 하단동 597-13","부산광역시 사하구 하신중앙로313번길 66",604850,49425,""128.961342521388"",""35.1053562762288""
22056378,우리공인중개사사무소,,L,부동산,L01,부동산중개,L01A01,부동산중개,L68221,"부동산 자문 및 중개업",26,부산광역시,26320,북구,2632010400,덕천동,"부산광역시 북구 덕천동 414-20","부산광역시 북구 덕천2길 69",616100,46577,""129.008943137887"",""35.209901117784""
22080523,동일부동산,,L,부동산,L01,부동산중개,L01A01,부동산중개,L68221,"부동산 자문 및 중개업",26,부산광역시,26230,부산진구,2623010800,부암동,"부산광역시 부산진구 부암동 335-2","부산광역시 부산진구 동평로 121",614090,47138,""129.042719408768"",""35.1663752917913""
22115551,드림플란트드림화이트치과,,S,의료,S01,병원,S01B04,치과의원,Q86202,"치과 의원",26,부산광역시,26350,해운대구,2635010600,중동,"부산광역시 해운대구 중동 1502-6","부산광역시 해운대구 달맞이길 135",612010,48117,""129.17741130343"",""35.156830323647""
22074481,영주태권도,,R,학문/교육,R07,학원-예능취미체육,R07A20,태권도장,P85611,"스포츠 교육기관",26,부산광역시,26110,중구,2611011900,대청동4가,"부산광역시 중구 대청동4가 79-1","부산광역시 중구 중구로 81",600800,48968,""129.029683135674"",""35.1048491823255""
22075005,사랑지압원,,N,관광/여가/오락,N05,요가/단전/마사지,N05A04,지압원,Q86902,"유사 의료업",26,부산광역시,26410,금정구,2641011000,서동,"부산광역시 금정구 서동 167-1","부산광역시 금정구 서부로 39",609400,46318,""129.101943955414"",""35.2170766372422""
22370034,유항희이비인후과의원,,S,의료,S01,병원,S01B14,이비인후과의원,Q86201,"일반 의원",11,서울특별시,11215,광진구,1121510500,자양동,"서울특별시 광진구 자양동 553-502","서울특별시 광진구 뚝섬로 558",143190,5091,""127.071848218926"",""37.534131868626""
22197763,영스포츠마사지,,N,관광/여가/오락,N05,요가/단전/마사지,N05A06,스포츠마사지,S96122,마사지업,26,부산광역시,26260,동래구,2626010900,사직동,"부산광역시 동래구 사직동 78-42","부산광역시 동래구 사직북로13번길 12",607120,47865,""129.059999436964"",""35.1969897180963""
22122585,꿈있는부동산공인중개사사무소,,L,부동산,L01,부동산중개,L01A01,부동산중개,L68221,"부동산 자문 및 중개업",26,부산광역시,26350,해운대구,2635010400,재송동,"부산광역시 해운대구 재송동 1119-1","부산광역시 해운대구 재반로84번길 16",612050,48053,""129.126256412062"",""35.1864493824661""
22081534,아이템플날개달기강북미아지점,강북미아지점,R,학문/교육,R13,학문교육기타,R13A01,학습지보급,P85503,"방문 교육 학원",11,서울특별시,11320,도봉구,1132010700,창동,"서울특별시 도봉구 창동 804","서울특별시 도봉구 덕릉로59아길 17",132784,1469,""127.037988660043"",""37.6419139075448""
22103561,우성카오디오,,D,소매,D23,자동차/자동차용품,D23A03,카오디오전문,G45219,"기타 자동차신품 부품 및 내장품 판매업",26,부산광역시,26290,남구,2629010600,대연동,"부산광역시 남구 대연동 700-2","부산광역시 남구 신선로 466",608810,48518,""129.10142166339"",""35.1262757666583""
22180365,깡통,,D,소매,D06,가방/신발/액세서리,D06A07,양품점,G47419,"기타 섬유, 직물 및 의복액세서리 소매업",26,부산광역시,26320,북구,2632010300,만덕동,"부산광역시 북구 만덕동 927-1","부산광역시 북구 덕천로259번길 30",616756,46565,""129.035150748014"",""35.2118251913206""
22181042,삼선플라워,,D,소매,D02,선물/팬시/기념품,D02A02,꽃집/꽃배달,G47851,"화초 및 산식물 소매업",26,부산광역시,26530,사상구,2653010600,주례동,"부산광역시 사상구 주례동 193-5","부산광역시 사상구 가야대로 326",617718,47007,""129.007832081273"",""35.1501659793805""
22199643,일광종합티비,,D,소매,D12,가전제품소매,D12A01,일반가전제품,G47320,"가전제품 소매업",26,부산광역시,26260,동래구,2626010800,온천동,"부산광역시 동래구 온천동 46-6","부산광역시 동래구 금강로 160-1",607831,47708,""129.081785558996"",""35.2226306752508""
22124335,금사현대모터스자동차,,D,소매,D23,자동차/자동차용품,D23A02,중고자동차판매,G45120,"중고 자동차 판매업",26,부산광역시,26410,금정구,2641011100,금사동,"부산광역시 금정구 금사동 104-3","부산광역시 금정구 개좌로 30",609809,46333,""129.109768872895"",""35.2165995399797""
22098934,프리미에쥬르,롯데센텀점,D,소매,D11,유아용품,D11A01,유아/임부복,,,26,부산광역시,26350,해운대구,2635010500,우동,"부산광역시 해운대구 우동 1496","부산광역시 해운대구 센텀남대로 59",612020,48058,""129.131099324358"",""35.1698729034813""
22099783,윤선생영어숲광안어학원,,R,학문/교육,R04,학원-어학,R04A01,학원-외국어/어학,P85502,외국어학원,26,부산광역시,26500,수영구,2650010400,광안동,"부산광역시 수영구 광안동 117-4","부산광역시 수영구 수영로 628",613100,48291,""129.114312092701"",""35.1616185668013""
22118912,승민사큐큐미싱,,D,소매,D25,기타판매업,D25A14,미싱판매,G47599,"그외 기타 분류안된 가정용품 소매업",26,부산광역시,26290,남구,2629010900,문현동,"부산광역시 남구 문현동 513-25","부산광역시 남구 전포대로78번길 11",608826,48411,""129.067573837686"",""35.1438854156133""
22379158,영광전기,,D,소매,D07,가정/주방/인테리어,D07A10,조명기구/전기용품,G47591,"전기용품 및 조명장치 소매업",11,서울특별시,11380,은평구,1138011400,진관동,"서울특별시 은평구 진관동 105","서울특별시 은평구 진관2로 60",122733,3310,""126.922777153591"",""37.6339081854043""
22324203,튼튼영어용산이촌지사,,R,학문/교육,R13,학문교육기타,R13A01,학습지보급,P85503,"방문 교육 학원",11,서울특별시,11170,용산구,1117012900,이촌동,"서울특별시 용산구 이촌동 300-15","서울특별시 용산구 이촌로 280",140030,4426,""126.977855901528"",""37.5184433892109""
22182611,태백산보살,,F,생활서비스,F11,개인서비스,F11A02,운명감정작명,S96992,"점술 및 유사 서비스업",11,서울특별시,11110,종로구,1111017400,창신동,"서울특별시 종로구 창신동 81-1","서울특별시 종로구 지봉로7길 7",110540,3103,""127.015317929129"",""37.5746986575486""
22200762,안경OK,,D,소매,D18,사진/광학/정밀기기소매,D18A04,안경원,G47822,"안경 소매업",11,서울특별시,11620,관악구,1162010200,신림동,"서울특별시 관악구 신림동 409-83","서울특별시 관악구 신림로 257",151867,8844,""126.93250671764"",""37.4778014001027""
22105208,남영카센타,,F,생활서비스,F14,자동차/이륜차,F14A01,자동차정비/카센타,,,26,부산광역시,26290,남구,2629010600,대연동,"부산광역시 남구 대연동 233-1","부산광역시 남구 황령대로 342",608806,48431,""129.095281575597"",""35.1470544045627""
22129314,청룡상회,,D,소매,D03,종합소매점,D03A03,잡화점,G47190,"그외 기타 종합 소매업",26,부산광역시,26500,수영구,2650010500,남천동,"부산광역시 수영구 남천동 556","부산광역시 수영구 광안해변로15번길 77",613010,48313,""129.109068212561"",""35.1391770499134""
22365111,프라임공인중개사사무소,,L,부동산,L01,부동산중개,L01A01,부동산중개,L68221,"부동산 자문 및 중개업",11,서울특별시,11215,광진구,1121510300,구의동,"서울특별시 광진구 구의동 631-1","서울특별시 광진구 광나루로56길 29",143761,5119,""127.098416365212"",""37.5387438473645""
22359069,타미힐피거,,D,소매,D05,의복의류,D05A02,캐쥬얼/스포츠의류,G47416,"셔츠 및 기타 의복 소매업",11,서울특별시,11560,영등포구,1156010100,영등포동,"서울특별시 영등포구 영등포동 618-496","서울특별시 영등포구 경인로 846",150899,7306,""126.907647192475"",""37.51566141404""
22225223,스타노래방,,N,관광/여가/오락,N02,무도/유흥/가무,N02A01,노래방,R91223,"노래연습장 운영업",26,부산광역시,26470,연제구,2647010200,연산동,"부산광역시 연제구 연산동 1867-1","부산광역시 연제구 연수로 177",611080,47592,""129.09015926314"",""35.1744036625628""
22156274,삼정상가부동산중개사무소,,L,부동산,L01,부동산중개,L01A01,부동산중개,L68221,"부동산 자문 및 중개업",26,부산광역시,26530,사상구,2653010200,모라동,"부산광역시 사상구 모라동 334","부산광역시 사상구 백양대로934번길 20",617818,46928,""128.992938198358"",""35.1889138037842""
22059913,대창난방,,F,생활서비스,F15,주택수리,F15A03,배관난방보일러,F42201,"배관 및 냉·난방 공사업",26,부산광역시,26290,남구,2629010700,용호동,"부산광역시 남구 용호동 364-29","부산광역시 남구 용호로123번길 63-1",608090,48578,""129.114268156497"",""35.1229674152095""
22348000,더플러스,,F,생활서비스,F12,광고/인쇄,F12A03,광고물제작,C33910,"간판 및 광고물 제조업",11,서울특별시,11320,도봉구,1132010700,창동,"서울특별시 도봉구 창동 676-78","서울특별시 도봉구 도봉로110길 95",132040,1456,""127.038789362905"",""37.6466058113109""
22370731,롯데캐논강동서비스센타,,F,생활서비스,F03,개인/가정용품수리,F03A02,가전제품수리,S95310,"가전제품 수리업",11,서울특별시,11215,광진구,1121510500,자양동,"서울특별시 광진구 자양동 224-25","서울특별시 광진구 아차산로 315",143190,5028,""127.077999751267"",""37.5381086471014""
22202009,일진카인테리어,,D,소매,D23,자동차/자동차용품,D23A07,자동차장식품판매,G45219,"기타 자동차신품 부품 및 내장품 판매업",26,부산광역시,26470,연제구,2647010200,연산동,"부산광역시 연제구 연산동 489-5","부산광역시 연제구 고분로236번길 38",611812,47570,""129.107794175007"",""35.1828068139176""
22156641,경남산소상사,,D,소매,D25,기타판매업,D25A12,LPG판매,G47723,"가정용 가스연료 소매업",26,부산광역시,26470,연제구,2647010200,연산동,"부산광역시 연제구 연산동 1290-1","부산광역시 연제구 중앙대로1075번길 62",611080,47539,""129.077222560365"",""35.1857056185779""
22105802,우암이삿짐센터,,F,생활서비스,F04,운송/배달/택배,F04A06,종합이삿짐대행,H49311,"일반 화물자동차 운송업",26,부산광역시,26290,남구,2629010900,문현동,"부산광역시 남구 문현동 407-5","부산광역시 남구 수영로13번길 19",608824,48415,""129.069857720614"",""35.1381143812168""
22061419,G.MAX,,F,생활서비스,F03,개인/가정용품수리,F03A07,컴퓨터수리,S95121,"컴퓨터 및 사무용 기기 수리업",11,서울특별시,11710,송파구,1171010800,문정동,"서울특별시 송파구 문정동 65","서울특별시 송파구 송파대로18길 16",138200,5807,""127.125499360378"",""37.4849920677246""
22061963,한화공인중개사사무소,,L,부동산,L01,부동산중개,L01A01,부동산중개,L68221,"부동산 자문 및 중개업",11,서울특별시,11350,노원구,1135010600,중계동,"서울특별시 노원구 중계동 43-36","서울특별시 노원구 중계로8길 7",139220,1726,""127.082402941205"",""37.6458898828774""
22313153,진광학,,D,소매,D18,사진/광학/정밀기기소매,D18A04,안경원,G47822,"안경 소매업",11,서울특별시,11140,중구,1114011800,남대문로5가,"서울특별시 중구 남대문로5가 243","서울특별시 중구 세종대로4길 28",100802,4527,""126.975147819192"",""37.5576244097712""
22372037,삼익부동산,,L,부동산,L01,부동산중개,L01A01,부동산중개,L68221,"부동산 자문 및 중개업",11,서울특별시,11380,은평구,1138010700,응암동,"서울특별시 은평구 응암동 72-6","서울특별시 은평구 은평로16길 12",122010,3471,""126.929954639289"",""37.6003110071189""
22157651,센텀두산공인중개사사무소,,L,부동산,L01,부동산중개,L01A01,부동산중개,L68221,"부동산 자문 및 중개업",26,부산광역시,26350,해운대구,2635010500,우동,"부산광역시 해운대구 우동 1090-18","부산광역시 해운대구 해운대로 381-1",612020,48062,""129.138437819763"",""35.1694886729921""
22203120,재화이브자리,,D,소매,D07,가정/주방/인테리어,D07A03,침구/수예품,G47411,"가정용 직물제품 소매업",26,부산광역시,26410,금정구,2641010900,부곡동,"부산광역시 금정구 부곡동 225-72","부산광역시 금정구 중앙대로 1701",609320,46277,""129.091538175247"",""35.2364514026721""
22204360,까소엔,,D,소매,D15,가구소매,D15A01,일반가구소매,G47520,"가구 소매업",26,부산광역시,26470,연제구,2647010100,거제동,"부산광역시 연제구 거제동 129-5","부산광역시 연제구 명륜로 3",611803,47513,""129.081252384634"",""35.1965043585853""
22106816,미래공인중개사,,L,부동산,L01,부동산중개,L01A01,부동산중개,L68221,"부동산 자문 및 중개업",26,부산광역시,26410,금정구,2641011100,금사동,"부산광역시 금정구 금사동 84-29","부산광역시 금정구 금사로 58-13",609809,46330,""129.109824088791"",""35.2174283020955""
22107446,테즈락학생복서동지점,서동지점,D,소매,D05,의복의류,D05A16,교복판매,G47416,"셔츠 및 기타 의복 소매업",26,부산광역시,26410,금정구,2641011000,서동,"부산광역시 금정구 서동 520-295","부산광역시 금정구 서동로79번길 2-4",609400,46319,""129.09585174322"",""35.217357281471""
22348461,사랑가득어린이집,,R,학문/교육,R08,유아교육,R08A02,어린이집,Q87210,"보육시설 운영업",11,서울특별시,11320,도봉구,1132010500,쌍문동,"서울특별시 도봉구 쌍문동 53","서울특별시 도봉구 해등로 242-11",132749,1388,""127.029572735107"",""37.6582257540673""
22327743,중부쌀상회,,D,소매,D01,음/식료품소매,D01A14,미곡상,G47211,"곡물 소매업",11,서울특별시,11140,중구,1114015400,오장동,"서울특별시 중구 오장동 148-12","서울특별시 중구 마른내로 113",100310,4547,""127.00049733406"",""37.5646536235772""
22185675,박성기소아청소년과의원,,S,의료,S01,병원,S01B11,소아과,Q86201,"일반 의원",26,부산광역시,26380,사하구,2638010300,하단동,"부산광역시 사하구 하단동 1175","부산광역시 사하구 하신번영로 233",604762,49430,""128.957990989379"",""35.1010920959685""
22185708,합동안마센터안마지압스포츠마사지출장전문,,N,관광/여가/오락,N05,요가/단전/마사지,N05A06,스포츠마사지,S96122,마사지업,26,부산광역시,26350,해운대구,2635010500,우동,"부산광역시 해운대구 우동 1505","부산광역시 해운대구 센텀3로 20",612020,48060,""129.132838324273"",""35.1678285408056""
22185767,한마음공인중개사사무소,,L,부동산,L01,부동산중개,L01A01,부동산중개,L68221,"부동산 자문 및 중개업",26,부산광역시,26350,해운대구,2635010700,좌동,"부산광역시 해운대구 좌동 1319","부산광역시 해운대구 대천로 225",612784,48110,""129.179970336581"",""35.1691092483478""
22185936,명품공인중개사사무소,,L,부동산,L01,부동산중개,L01A01,부동산중개,L68221,"부동산 자문 및 중개업",26,부산광역시,26350,해운대구,2635010600,중동,"부산광역시 해운대구 중동 1754-3","부산광역시 해운대구 좌동순환로 5",612891,48084,""129.167293892335"",""35.1669605913499""
22064491,BMWMINI바바리안모터스,,D,소매,D23,자동차/자동차용품,D23A02,중고자동차판매,G45120,"중고 자동차 판매업",11,서울특별시,11470,양천구,1147010100,신정동,"서울특별시 양천구 신정동 318-12","서울특별시 양천구 목동동로 177",158070,8011,""126.870432036009"",""37.5216186404237""
22089199,하정숙수채화교습소,,R,학문/교육,R05,학원-음악미술무용,R05A01,서예/서화/미술,P85620,"예술 학원",26,부산광역시,26500,수영구,2650010400,광안동,"부산광역시 수영구 광안동 1075-10","부산광역시 수영구 수영로665번길 28",613100,48243,""129.1134246323"",""35.1657640877398""
22108004,우성명판,,F,생활서비스,F12,광고/인쇄,F12A01,인쇄종합,C18119,"기타 인쇄업",26,부산광역시,26530,사상구,2653010700,학장동,"부산광역시 사상구 학장동 732-8","부산광역시 사상구 학장로 87",617843,47026,""128.977406137467"",""35.1397696791968""
22350142,아이비씨에듀케이션,,R,학문/교육,R06,학원-컴퓨터,R06A01,컴퓨터학원,P85691,"컴퓨터 학원",11,서울특별시,11380,은평구,1138010300,불광동,"서울특별시 은평구 불광동 272-2","서울특별시 은평구 불광로 51",122040,3358,""126.930695625778"",""37.6134187273238""
22350222,불꽃메,,D,소매,D01,음/식료품소매,D01A13,청과물소매,G47214,"과실 및 채소 소매업",11,서울특별시,11410,서대문구,1141011300,대신동,"서울특별시 서대문구 대신동 124-19","서울특별시 서대문구 성산로 567",120160,3721,""126.946405690717"",""37.5668323347991""
22350575,호남석유,,D,소매,D25,기타판매업,D25A08,유류판매,G47722,"가정용 액체연료 소매업",11,서울특별시,11320,도봉구,1132010500,쌍문동,"서울특별시 도봉구 쌍문동 714","서울특별시 도봉구 도봉로137길 38",132030,1392,""127.040001636849"",""37.6607078350983""
22350582,근정비니루,,F,생활서비스,F14,자동차/이륜차,F14A01,자동차정비/카센타,,,11,서울특별시,11290,성북구,1129013300,정릉동,"서울특별시 성북구 정릉동 120-1","서울특별시 성북구 북악산로 825-22",136100,2818,""127.016896484162"",""37.6001482042153""
22350822,신신사진관,,F,생활서비스,F06,사진,F06A01,사진관,M73301,"인물사진 및 행사용비디오 촬영업",11,서울특별시,11290,성북구,1129013300,정릉동,"서울특별시 성북구 정릉동 260-10","서울특별시 성북구 보국문로20길 49-23",136100,2711,""127.009140044349"",""37.6137340585937""
22345520,풀무원샘물종로지점,종로지점,D,소매,D01,음/식료품소매,D01A19,생수판매,G47221,"음료 소매업",11,서울특별시,11380,은평구,1138010800,역촌동,"서울특별시 은평구 역촌동 187-35","서울특별시 은평구 갈현로3가길 16",122904,3432,""126.907698751825"",""37.6020623555853""
22328077,동성인쇄,,F,생활서비스,F12,광고/인쇄,F12A01,인쇄종합,C18119,"기타 인쇄업",11,서울특별시,11140,중구,1114016000,인현동1가,"서울특별시 중구 인현동1가 133-13","서울특별시 중구 마른내로4길 19",100281,4556,""126.993756106412"",""37.5634340131054""
22186288,롯데캐슬리버,,D,소매,D03,종합소매점,D03A02,수퍼마켓,G47121,슈퍼마켓,26,부산광역시,26530,사상구,2653010800,엄궁동,"부산광역시 사상구 엄궁동 726","부산광역시 사상구 엄궁북로 62",617030,47038,""128.974521252843"",""35.1278943834358""
22226312,유나당구장,,N,관광/여가/오락,N01,PC/오락/당구/볼링등,N01A03,당구장,R91135,"당구장 운영업",26,부산광역시,26470,연제구,2647010100,거제동,"부산광역시 연제구 거제동 42-26","부산광역시 연제구 명륜로2번길 32",611800,47514,""129.080512685576"",""35.1945459425392""
22227222,연제뷔페예식장,,F,생활서비스,F17,예식/의례/관혼상제,F17A01,예식장/예식서비스,S96991,예식장업,26,부산광역시,26470,연제구,2647010200,연산동,"부산광역시 연제구 연산동 478-9","부산광역시 연제구 고분로 233",611080,47569,""129.107724482044"",""35.1849527442491""
22227236,금강웨딩홀,,F,생활서비스,F17,예식/의례/관혼상제,F17A01,예식장/예식서비스,S96991,예식장업,26,부산광역시,26260,동래구,2626010800,온천동,"부산광역시 동래구 온천동 1387","부산광역시 동래구 충렬대로 63",607837,47724,""129.068465681764"",""35.2087144400079""
22134808,남선유일샷시,,D,소매,D21,철물/난방/건설자재소매,D21A08,셔터/새시판매,G47511,"철물 및 난방용구 소매업",26,부산광역시,26380,사하구,2638010300,하단동,"부산광역시 사하구 하단동 1187-4","부산광역시 사하구 하신번영로201번길 28",604020,49430,""128.956795791477"",""35.0992446288163""
22134812,대진이삿짐센터,,F,생활서비스,F04,운송/배달/택배,F04A06,종합이삿짐대행,H49311,"일반 화물자동차 운송업",26,부산광역시,26380,사하구,2638010500,장림동,"부산광역시 사하구 장림동 1033-20","부산광역시 사하구 하신중앙로54번길 46",604843,49473,""128.969814664111"",""35.0844031327399""
22135168,삼창공인중개사,,L,부동산,L01,부동산중개,L01A01,부동산중개,L68221,"부동산 자문 및 중개업",26,부산광역시,26440,강서구,2644010800,봉림동,"부산광역시 강서구 봉림동 448","부산광역시 강서구 호계로57번길 38",618350,46708,""128.895648029912"",""35.1953602281384""
22369606,승리고시텔,,R,학문/교육,R10,도서관/독서실,R10A02,고시원,R90212,"독서실 운영업",11,서울특별시,11215,광진구,1121510100,중곡동,"서울특별시 광진구 중곡동 16","서울특별시 광진구 용마산로 163",143220,4932,""127.085857646973"",""37.5682738468473""
22346470,헬스쇼핑,,F,생활서비스,F07,물품기기대여,F07A01,가정용가구/기기임대,L69299,"그외 기타 개인 및 가정용품 임대업",11,서울특별시,11215,광진구,1121510400,광장동,"서울특별시 광진구 광장동 383","서울특별시 광진구 광장로1가길 49",143811,4966,""127.099771113474"",""37.5484134731812""
22363590,한일부동산,,L,부동산,L01,부동산중개,L01A01,부동산중개,L68221,"부동산 자문 및 중개업",11,서울특별시,11215,광진구,1121510900,군자동,"서울특별시 광진구 군자동 130-52","서울특별시 광진구 군자로 111",143839,5001,""127.072124097286"",""37.5529570003963""
22160737,경부애드,,F,생활서비스,F12,광고/인쇄,F12A02,간판제작종합,C33910,"간판 및 광고물 제조업",26,부산광역시,26530,사상구,2653010800,엄궁동,"부산광역시 사상구 엄궁동 474-2","부산광역시 사상구 낙동대로 767",617829,47032,""128.97049342634"",""35.1296483858792""
22160752,석대푸른화원,,D,소매,D02,선물/팬시/기념품,D02A02,꽃집/꽃배달,G47851,"화초 및 산식물 소매업",26,부산광역시,26350,해운대구,2635010200,석대동,"부산광역시 해운대구 석대동 506","부산광역시 해운대구 반송로 560",612070,48031,""129.124290824234"",""35.2183043581909""
22090490,동원부동산,,L,부동산,L01,부동산중개,L01A01,부동산중개,L68221,"부동산 자문 및 중개업",26,부산광역시,26290,남구,2629010600,대연동,"부산광역시 남구 대연동 1272-2","부산광역시 남구 못골로41번길 13",608020,48452,""129.086363941801"",""35.1358312316867""
22109458,에바다토탈디자인,,D,소매,D07,가정/주방/인테리어,D07A01,인테리어/욕실용품/커튼,G47599,"그외 기타 분류안된 가정용품 소매업",11,서울특별시,11650,서초구,1165011100,신원동,"서울특별시 서초구 신원동 17-8","서울특별시 서초구 새정2길 9",137160,6802,""127.069779404224"",""37.435494569222""
22110045,부경공인중개사,,L,부동산,L01,부동산중개,L01A01,부동산중개,L68221,"부동산 자문 및 중개업",26,부산광역시,26320,북구,2632010100,금곡동,"부산광역시 북구 금곡동 1224-2","부산광역시 북구 금곡대로 432",616813,46511,""129.013204253009"",""35.2469936412903""
22139394,온누리부동산,,L,부동산,L01,부동산중개,L01A01,부동산중개,L68221,"부동산 자문 및 중개업",26,부산광역시,26320,북구,2632010200,화명동,"부산광역시 북구 화명동 732","부산광역시 북구 화명대로 97-26",616798,46532,""129.017360298476"",""35.2366469410578""
22139921,SK네트웍스행복가득셀프주유소,,F,생활서비스,F16,주유소/충전소,F16A01,주유소,G47711,"차량용 주유소 운영업",26,부산광역시,26350,해운대구,2635010100,반송동,"부산광역시 해운대구 반송동 15-9","부산광역시 해운대구 반송로 936",612080,48004,""129.155729113342"",""35.2331964355775""
22334732,에이스공인중개사사무소,,L,부동산,L01,부동산중개,L01A01,부동산중개,L68221,"부동산 자문 및 중개업",11,서울특별시,11410,서대문구,1141012000,남가좌동,"서울특별시 서대문구 남가좌동 5-168","서울특별시 서대문구 명지대3길 6",120120,3672,""126.923418902806"",""37.582330007882""
22352050,오토바이서비스,,F,생활서비스,F14,자동차/이륜차,F14A03,오토바이판매/수리,,,11,서울특별시,11290,성북구,1129010100,성북동,"서울특별시 성북구 성북동 100-1","서울특별시 성북구 성북로 106",136823,2837,""126.997184559051"",""37.5930713941041""
22372685,선물포인트,,D,소매,D02,선물/팬시/기념품,D02A01,선물용품판매,G47842,"관광 민예품 및 선물용품 소매업",11,서울특별시,11410,서대문구,1141011100,홍제동,"서울특별시 서대문구 홍제동 286-8","서울특별시 서대문구 간호대로2길 20",120090,3617,""126.94904378853"",""37.5973919926103""
22373508,오산부동산,,L,부동산,L01,부동산중개,L01A01,부동산중개,L68221,"부동산 자문 및 중개업",11,서울특별시,11170,용산구,1117013600,보광동,"서울특별시 용산구 보광동 217-22","서울특별시 용산구 장문로 89-1",140823,4394,""126.999618839558"",""37.5262165652315""
22329466,삼부부동산중개,,L,부동산,L01,부동산중개,L01A01,부동산중개,L68221,"부동산 자문 및 중개업",11,서울특별시,11620,관악구,1162010200,신림동,"서울특별시 관악구 신림동 99-3","서울특별시 관악구 복은길 53",151855,8835,""126.938815258772"",""37.4746234529096""
22329499,대성건재,,D,소매,D21,철물/난방/건설자재소매,D21A06,철물/건설자재소매,G47511,"철물 및 난방용구 소매업",11,서울특별시,11560,영등포구,1156012800,양평동4가,"서울특별시 영등포구 양평동4가 101-3","서울특별시 영등포구 양평로 117-11",150867,7208,""126.894011031743"",""37.5374838687358""
22329825,눈높이대교신림동부지점,대교신림동부지점,R,학문/교육,R13,학문교육기타,R13A01,학습지보급,P85503,"방문 교육 학원",11,서울특별시,11620,관악구,1162010200,신림동,"서울특별시 관악구 신림동 507-40","서울특별시 관악구 남부순환로 1517-1",151872,8762,""126.919237888342"",""37.4829789439324""
22329972,승진카센타,,F,생활서비스,F14,자동차/이륜차,F14A01,자동차정비/카센타,,,11,서울특별시,11230,동대문구,1123011000,이문동,"서울특별시 동대문구 이문동 86-47","서울특별시 동대문구 외대역동로 86-1",130080,2426,""127.065408919191"",""37.5958388961433""
22206864,대영약국,,S,의료,S02,약국/한약방,S02A01,약국,G47811,"의약품 및 의료용품 소매업",26,부산광역시,26260,동래구,2626010100,명장동,"부산광역시 동래구 명장동 489-2","부산광역시 동래구 서동중심로 4",607110,47760,""129.104233886039"",""35.2101692317795""
22206915,이지엘부산분원,부산분원,F,생활서비스,F13,기타서비스업,F13A07,보석감정,M73904,"물품감정, 계량 및 견본 추출업",26,부산광역시,26410,금정구,2641010700,구서동,"부산광역시 금정구 구서동 470-5","부산광역시 금정구 금강로 394",609806,46244,""129.086922906284"",""35.2429648281601""
22161016,미지트부곡점,부곡점,D,소매,D15,가구소매,D15A01,일반가구소매,G47520,"가구 소매업",26,부산광역시,26410,금정구,2641010900,부곡동,"부산광역시 금정구 부곡동 295-15","부산광역시 금정구 부곡로 122",609320,46271,""129.092242804753"",""35.2267281884164""
22140159,롯데종합열쇠,,D,소매,D21,철물/난방/건설자재소매,D21A07,열쇠판매/수리,G47511,"철물 및 난방용구 소매업",26,부산광역시,26350,해운대구,2635010500,우동,"부산광역시 해운대구 우동 938","부산광역시 해운대구 해운대로483번길 10",612742,48065,""129.147639930324"",""35.1634617334204""
22110680,인쇄.인장흥문당,,F,생활서비스,F12,광고/인쇄,F12A01,인쇄종합,C18119,"기타 인쇄업",26,부산광역시,26380,사하구,2638010200,당리동,"부산광역시 사하구 당리동 317-71","부산광역시 사하구 낙동대로398번길 5",604828,49328,""128.974848283247"",""35.1037701193802""
22336347,태산인테리어,,D,소매,D07,가정/주방/인테리어,D07A01,인테리어/욕실용품/커튼,G47599,"그외 기타 분류안된 가정용품 소매업",11,서울특별시,11440,마포구,1144010200,공덕동,"서울특별시 마포구 공덕동 111-127","서울특별시 마포구 임정로 81",121801,4186,""126.959788952535"",""37.5462270609412""
22230803,현대공인중개사,,L,부동산,L01,부동산중개,L01A01,부동산중개,L68221,"부동산 자문 및 중개업",26,부산광역시,26260,동래구,2626010200,안락동,"부산광역시 동래구 안락동 245-24","부산광역시 동래구 안남로 119",607100,47896,""129.105049285506"",""35.1925307736697""
22230999,월드메르디앙공인중개사,,L,부동산,L01,부동산중개,L01A01,부동산중개,L68221,"부동산 자문 및 중개업",26,부산광역시,26470,연제구,2647010100,거제동,"부산광역시 연제구 거제동 1468-1","부산광역시 연제구 거제천로 233",611772,47515,""129.082976670545"",""35.1923876504204""
22189009,도화주점,,Q,음식,Q09,유흥주점,Q09A07,기타일반유흥주점,I56211,"일반유흥 주점업",26,부산광역시,26470,연제구,2647010200,연산동,"부산광역시 연제구 연산동 728-1","부산광역시 연제구 반송로 16",611080,47549,""129.082980330847"",""35.1868711398978""
22207426,영남분식,,Q,음식,Q04,분식,Q04A01,라면김밥분식,I56194,"분식 및 김밥 전문점",26,부산광역시,26470,연제구,2647010200,연산동,"부산광역시 연제구 연산동 1328-15","부산광역시 연제구 중앙대로 1030-1",611080,47599,""129.077681458618"",""35.1805456039158""
22207582,동일부동산,,L,부동산,L01,부동산중개,L01A01,부동산중개,L68221,"부동산 자문 및 중개업",26,부산광역시,26260,동래구,2626010500,복천동,"부산광역시 동래구 복천동 41-19","부산광역시 동래구 동래로157번길 32",607020,47802,""129.088554316525"",""35.2055248807769""
22068023,부산오토밋션,,F,생활서비스,F14,자동차/이륜차,F14A01,자동차정비/카센타,,,26,부산광역시,26170,동구,2617010100,초량동,"부산광역시 동구 초량동 889-51","부산광역시 동구 망양로 461",601010,48717,""129.03324130308"",""35.1156177013302""
22352501,앰투어OA정보기술,,D,소매,D08,사무/문구/컴퓨터,D08A04,컴퓨터/주변기기,G47311,"컴퓨터 및 주변장치, 소프트웨어 소매업",11,서울특별시,11200,성동구,1120010200,하왕십리동,"서울특별시 성동구 하왕십리동 1061","서울특별시 성동구 난계로 84",133737,4712,""127.024057131449"",""37.5591200858019""
22352931,일성상회,,D,소매,D01,음/식료품소매,D01A13,청과물소매,G47214,"과실 및 채소 소매업",11,서울특별시,11230,동대문구,1123010700,청량리동,"서울특별시 동대문구 청량리동 769-1","서울특별시 동대문구 경동시장로2길 46",130870,2573,""127.04357211571"",""37.5802200861215""
22318339,화성진열장,,D,소매,D21,철물/난방/건설자재소매,D21A05,진열장판매,G47519,"페인트, 유리 및 기타 건설자재 소매업",11,서울특별시,11140,중구,1114013500,예관동,"서울특별시 중구 예관동 56-10","서울특별시 중구 창경궁로 21",100290,4548,""126.997986902629"",""37.5644701552967""
22337641,광명카센타,,F,생활서비스,F14,자동차/이륜차,F14A01,자동차정비/카센타,,,11,서울특별시,11170,용산구,1117013600,보광동,"서울특별시 용산구 보광동 85","서울특별시 용산구 보광로 4",140823,4416,""127.001972594838"",""37.5253264198921""
22353916,벤츠용답전시장,,D,소매,D23,자동차/자동차용품,D23A09,수입자동차판매,G45110,"자동차 신품 판매업",11,서울특별시,11200,성동구,1120012200,용답동,"서울특별시 성동구 용답동 238-9","서울특별시 성동구 가람길 277",133851,4808,""127.06863060157"",""37.5590295987674""
22272219,가보건강침대,,F,생활서비스,F12,광고/인쇄,F12A01,인쇄종합,C18119,"기타 인쇄업",26,부산광역시,26350,해운대구,2635010500,우동,"부산광역시 해운대구 우동 1496","부산광역시 해운대구 센텀남대로 59",612020,48058,""129.131099324358"",""35.1698729034813""
22293216,천가가스,,F,생활서비스,F16,주유소/충전소,F16A02,차량가스충전소,G47712,"차량용 가스 충전업",26,부산광역시,26440,강서구,2644011800,동선동,"부산광역시 강서구 동선동 290","부산광역시 강서구 동선길 99-21",618420,46769,""128.833509254378"",""35.0535151764091""
22112565,삼일슈퍼,,D,소매,D03,종합소매점,D03A02,수퍼마켓,G47121,슈퍼마켓,26,부산광역시,26380,사하구,2638010300,하단동,"부산광역시 사하구 하단동 1168","부산광역시 사하구 하신번영로 256",604858,49428,""128.958714222456"",""35.1038446930406""
22113171,이삿짐센타,,F,생활서비스,F04,운송/배달/택배,F04A06,종합이삿짐대행,H49311,"일반 화물자동차 운송업",26,부산광역시,26350,해운대구,2635010400,재송동,"부산광역시 해운대구 재송동 474","부산광역시 해운대구 재반로 57-14",612050,48056,""129.125745817973"",""35.1836598469652""
22355115,아이엔지아이에스,,F,생활서비스,F13,기타서비스업,F13A17,지도제작,M72924,지도제작업,11,서울특별시,11290,성북구,1129012000,동선동5가,"서울특별시 성북구 동선동5가 2","서울특별시 성북구 아리랑로4길 5",136055,2829,""127.016414811513"",""37.5945847767749""
22378459,그림마당미술,,R,학문/교육,R05,학원-음악미술무용,R05A01,서예/서화/미술,P85620,"예술 학원",11,서울특별시,11350,노원구,1135010500,상계동,"서울특별시 노원구 상계동 720-7","서울특별시 노원구 노원로 421",139200,1752,""127.066955595767"",""37.6542204305422""
22273363,백포사무실,,F,생활서비스,F11,개인서비스,F11A02,운명감정작명,S96992,"점술 및 유사 서비스업",26,부산광역시,26470,연제구,2647010200,연산동,"부산광역시 연제구 연산동 726-17","부산광역시 연제구 중앙대로 1108",611080,47520,""129.081882609548"",""35.1868899648156""
22294668,한성컴퓨터,,F,생활서비스,F03,개인/가정용품수리,F03A07,컴퓨터수리,S95121,"컴퓨터 및 사무용 기기 수리업",11,서울특별시,11170,용산구,1117011300,원효로2가,"서울특별시 용산구 원효로2가 23-17","서울특별시 용산구 원효로 194",140905,4368,""126.963997292451"",""37.5365147620797""
22235300,스마트부동산중개,,L,부동산,L01,부동산중개,L01A01,부동산중개,L68221,"부동산 자문 및 중개업",26,부산광역시,26710,기장군,2671025621,정관읍,"부산광역시 기장군 정관읍 방곡리 422-6","부산광역시 기장군 정관읍 구연방곡로 44",619961,46022,""129.185242936039"",""35.3233716898949""
22101516,한솔화물,,F,생활서비스,F04,운송/배달/택배,F04A06,종합이삿짐대행,H49311,"일반 화물자동차 운송업",26,부산광역시,26530,사상구,2653010500,감전동,"부산광역시 사상구 감전동 170-4","부산광역시 사상구 낙동대로 994",617804,47027,""128.971811022118"",""35.1491171513105""
22101698,남구용호가사원,,F,생활서비스,F05,인력/고용/용역알선,F05A01,가사도우미알선,N75110,고용알선업,26,부산광역시,26290,남구,2629010700,용호동,"부산광역시 남구 용호동 467","부산광역시 남구 이기대공원로26번길 45-3",608770,48577,""129.115063786182"",""35.1225815136351""
22071114,중앙주차장,,F,생활서비스,F14,자동차/이륜차,F14A07,주차장운영,H52915,"주차장 운영업",26,부산광역시,26110,중구,2611010200,대창동1가,"부산광역시 중구 대창동1가 23-21","부산광역시 중구 중앙대로 123-4",600101,48924,""129.036566712836"",""35.1088017603017""
22071834,금호놀이방,,R,학문/교육,R08,유아교육,R08A01,놀이방,Q87210,"보육시설 운영업",11,서울특별시,11470,양천구,1147010300,신월동,"서울특별시 양천구 신월동 197-2","서울특별시 양천구 남부순환로56길 9",158090,7914,""126.829799203921"",""37.531611963502""
22114258,에어컨앵글집,,F,생활서비스,F03,개인/가정용품수리,F03A05,에어컨수리/설치,S95310,"가전제품 수리업",26,부산광역시,26500,수영구,2650010400,광안동,"부산광역시 수영구 광안동 1033-29","부산광역시 수영구 망미번영로 30",613100,48241,""129.10903891749"",""35.1701760392621""
22319925,양평슈퍼,,D,소매,D03,종합소매점,D03A02,수퍼마켓,G47121,슈퍼마켓,11,서울특별시,11215,광진구,1121510900,군자동,"서울특별시 광진구 군자동 349-9","서울특별시 광진구 동일로36길 23",143840,5002,""127.07003971426"",""37.5512916803243""
22339721,아웃트라인,,D,소매,D05,의복의류,D05A02,캐쥬얼/스포츠의류,G47416,"셔츠 및 기타 의복 소매업",11,서울특별시,11290,성북구,1129013600,하월곡동,"서울특별시 성북구 하월곡동 38-61","서울특별시 성북구 월곡로18길 27",136130,2793,""127.043047046996"",""37.6017777741243""
22256385,갤러리디지털랩,,F,생활서비스,F06,사진,F06A01,사진관,M73301,"인물사진 및 행사용비디오 촬영업",11,서울특별시,11140,중구,1114013600,묵정동,"서울특별시 중구 묵정동 24-13","서울특별시 중구 퇴계로50가길 2",100380,4618,""127.001253069794"",""37.5614613145153""
22274837,삼신커텐인테리어,,D,소매,D07,가정/주방/인테리어,D07A01,인테리어/욕실용품/커튼,G47599,"그외 기타 분류안된 가정용품 소매업",26,부산광역시,26470,연제구,2647010100,거제동,"부산광역시 연제구 거제동 129-5","부산광역시 연제구 명륜로 3",611803,47513,""129.081252384634"",""35.1965043585853""
22487555,대한민국공인중개사사무소,,L,부동산,L01,부동산중개,L01A01,부동산중개,L68221,"부동산 자문 및 중개업",11,서울특별시,11470,양천구,1147010100,신정동,"서울특별시 양천구 신정동 86-7","서울특별시 양천구 신목로 85",158070,8010,""126.87424299398"",""37.5224659645064""
22488206,예스공인중개사무소,,L,부동산,L01,부동산중개,L01A01,부동산중개,L68221,"부동산 자문 및 중개업",11,서울특별시,11500,강서구,1150010300,화곡동,"서울특별시 강서구 화곡동 425-13","서울특별시 강서구 곰달래로 77",157010,7772,""126.841279888758"",""37.5303555978228""
22424458,영신상사,,F,생활서비스,F12,광고/인쇄,F12A01,인쇄종합,C18119,"기타 인쇄업",11,서울특별시,11200,성동구,1120011500,성수동2가,"서울특별시 성동구 성수동2가 299-39","서울특별시 성동구 광나루로4가길 24",133120,4792,""127.054859160087"",""37.5489185179754""
22445314,우리공인중개사,,L,부동산,L01,부동산중개,L01A01,부동산중개,L68221,"부동산 자문 및 중개업",11,서울특별시,11200,성동구,1120011300,옥수동,"서울특별시 성동구 옥수동 4","서울특별시 성동구 독서당로40길 25",133767,4739,""127.019283795328"",""37.543339246883""
22224495,고려한약국,,S,의료,S02,약국/한약방,S02A02,한약방,G47811,"의약품 및 의료용품 소매업",26,부산광역시,26260,동래구,2626010900,사직동,"부산광역시 동래구 사직동 103-6","부산광역시 동래구 여고로12번길 14",607120,47876,""129.065533376572"",""35.1944262830689""
22224808,홍포토,,F,생활서비스,F06,사진,F06A01,사진관,M73301,"인물사진 및 행사용비디오 촬영업",11,서울특별시,11110,종로구,1111016500,이화동,"서울특별시 종로구 이화동 12-2","서울특별시 종로구 율곡로19길 19",110500,3100,""127.005888714"",""37.5763225975703""
22224861,IVY클럽학생복,,D,소매,D05,의복의류,D05A16,교복판매,G47416,"셔츠 및 기타 의복 소매업",26,부산광역시,26410,금정구,2641010900,부곡동,"부산광역시 금정구 부곡동 322-4","부산광역시 금정구 동현로39번길 32",609320,46305,""129.09336224426"",""35.2241942211227""
22521024,동현보수,,F,생활서비스,F15,주택수리,F15A01,주택수리종합,S95399,"그외 기타 개인 및 가정용품 수리업",11,서울특별시,11680,강남구,1168010800,논현동,"서울특별시 강남구 논현동 105","서울특별시 강남구 언주로146길 18",135820,6057,""127.03748311886"",""37.5202148546511""
22300729,화성부속,,D,소매,D21,철물/난방/건설자재소매,D21A08,셔터/새시판매,G47511,"철물 및 난방용구 소매업",26,부산광역시,26710,기장군,2671025027,기장읍,"부산광역시 기장군 기장읍 청강리 286-8","부산광역시 기장군 기장읍 기장대로 442-4",619906,46081,""129.217581355511"",""35.2348073911345""
22237679,희망부동산,,L,부동산,L01,부동산중개,L01A01,부동산중개,L68221,"부동산 자문 및 중개업",26,부산광역시,26440,강서구,2644011700,신호동,"부산광역시 강서구 신호동 304-1","부산광역시 강서구 신호산단1로98번길 105-26",618210,46760,""128.876063379339"",""35.0811594249188""
22479173,토니모리,,D,소매,D16,화장품소매,D16A01,화장품판매점,G47813,"화장품 및 방향제 소매업",11,서울특별시,11680,강남구,1168010100,역삼동,"서울특별시 강남구 역삼동 825-26","서울특별시 강남구 강남대로84길 13",135080,6232,""127.029537948953"",""37.4969116618539""
22496024,세화부동산,,L,부동산,L01,부동산중개,L01A01,부동산중개,L68221,"부동산 자문 및 중개업",11,서울특별시,11530,구로구,1153010700,개봉동,"서울특별시 구로구 개봉동 255-36","서울특별시 구로구 개봉로2길 133-27",152090,8329,""126.860426303512"",""37.4914637813932""
22471881,롯데캐논OA서비스센타,,F,생활서비스,F03,개인/가정용품수리,F03A02,가전제품수리,S95310,"가전제품 수리업",11,서울특별시,11680,강남구,1168010800,논현동,"서울특별시 강남구 논현동 124-24","서울특별시 강남구 학동로8길 9",135010,6111,""127.02444253005"",""37.5113045788378""
22489789,주영상회,,D,소매,D03,종합소매점,D03A03,잡화점,G47190,"그외 기타 종합 소매업",11,서울특별시,11620,관악구,1162010200,신림동,"서울특별시 관악구 신림동 354-27","서울특별시 관악구 양지11길 4-5",151015,8846,""126.928246057599"",""37.4697614909661""
22516943,홈타운공인중개사사무소,,L,부동산,L01,부동산중개,L01A01,부동산중개,L68221,"부동산 자문 및 중개업",11,서울특별시,11530,구로구,1153011200,항동,"서울특별시 구로구 항동 233","서울특별시 구로구 연동로13길 25",152140,8360,""126.819558213283"",""37.4850345175792""
22517498,하나은행,,Q,음식,Q14,기타음식업,Q14A01,구내식당/자급식음식점,I56120,기관구내식당업,11,서울특별시,11620,관악구,1162010100,봉천동,"서울특별시 관악구 봉천동 853-1","서울특별시 관악구 남부순환로 1836",151050,8788,""126.953724330588"",""37.4805231537532""
22517938,금화전기,,D,소매,D07,가정/주방/인테리어,D07A10,조명기구/전기용품,G47591,"전기용품 및 조명장치 소매업",11,서울특별시,11530,구로구,1153010100,신도림동,"서울특별시 구로구 신도림동 406-1","서울특별시 구로구 경인로 577",152887,8212,""126.880898201104"",""37.5040668669735""
22480507,칠성공인중개사사무소,,L,부동산,L01,부동산중개,L01A01,부동산중개,L68221,"부동산 자문 및 중개업",11,서울특별시,11560,영등포구,1156011000,여의도동,"서울특별시 영등포구 여의도동 41-2","서울특별시 영등포구 여의대방로 417",150889,7340,""126.934289126061"",""37.5210497807193""
22531553,윤선생재송영어숲,,R,학문/교육,R13,학문교육기타,R13A01,학습지보급,P85503,"방문 교육 학원",26,부산광역시,26350,해운대구,2635010400,재송동,"부산광역시 해운대구 재송동 1060-6","부산광역시 해운대구 재반로 111-1",612050,48054,""129.126405654445"",""35.1885121572189""
22392464,용진설비,,F,생활서비스,F15,주택수리,F15A03,배관난방보일러,F42201,"배관 및 냉·난방 공사업",11,서울특별시,11305,강북구,1130510300,수유동,"서울특별시 강북구 수유동 341-9","서울특별시 강북구 삼양로117길 14",142070,1030,""127.015427595092"",""37.6437010418191""
22427071,오토테크,,F,생활서비스,F14,자동차/이륜차,F14A01,자동차정비/카센타,,,11,서울특별시,11410,서대문구,1141011800,홍은동,"서울특별시 서대문구 홍은동 265-5","서울특별시 서대문구 연희로 339",120100,3651,""126.934876260771"",""37.5871283460419""
22260543,코리아위크커뮤니케이션,,F,생활서비스,F11,개인서비스,F11A05,번역/통역서비스,M73902,"번역 및 통역서비스업",11,서울특별시,11215,광진구,1121510900,군자동,"서울특별시 광진구 군자동 1-11","서울특별시 광진구 능동로 275",143837,4997,""127.077706789302"",""37.5545415361136""
22518529,훼밀리마트,신사중앙점,D,소매,D03,종합소매점,D03A02,수퍼마켓,G47121,슈퍼마켓,11,서울특별시,11680,강남구,1168010700,신사동,"서울특별시 강남구 신사동 588-14","서울특별시 강남구 논현로152길 38",135893,6026,""127.031232578429"",""37.5215513704072""
22531749,윤이바지,,F,생활서비스,F17,예식/의례/관혼상제,F17A04,폐백전문,I56131,"출장 음식 서비스업",11,서울특별시,11680,강남구,1168010600,대치동,"서울특별시 강남구 대치동 937","서울특별시 강남구 도곡로 401",135704,6206,""127.053252565617"",""37.496959928714""
22474292,인용전기,,D,소매,D07,가정/주방/인테리어,D07A10,조명기구/전기용품,G47591,"전기용품 및 조명장치 소매업",11,서울특별시,11470,양천구,1147010100,신정동,"서울특별시 양천구 신정동 969-8","서울특별시 양천구 오목로24길 19-12",158070,8026,""126.853335999119"",""37.5225261252561""
22451468,천지인부동산,,L,부동산,L01,부동산중개,L01A01,부동산중개,L68221,"부동산 자문 및 중개업",11,서울특별시,11215,광진구,1121510400,광장동,"서울특별시 광진구 광장동 565","서울특별시 광진구 아차산로 522",143754,4974,""127.098967962476"",""37.5418026292856""
22410238,핑거,,Q,음식,Q09,유흥주점,Q09A06,관광/유흥주점,I56211,"일반유흥 주점업",11,서울특별시,11290,성북구,1129013500,종암동,"서울특별시 성북구 종암동 3-1237","서울특별시 성북구 종암로 120",136859,2797,""127.034415964619"",""37.6010136726609""
22305035,대성,,D,소매,D09,애견/애완/동물,D09A01,애견/애완/동물사육판매,G47852,"애완용 동물 및 관련용품 소매업",26,부산광역시,26710,기장군,2671025027,기장읍,"부산광역시 기장군 기장읍 청강리 158-6","부산광역시 기장군 기장읍 기장대로 460-21",619906,46080,""129.219107037856"",""35.2354500292216""
22464278,굿모닝공인중개사,,L,부동산,L01,부동산중개,L01A01,부동산중개,L68221,"부동산 자문 및 중개업",11,서울특별시,11545,금천구,1154510300,시흥동,"서울특별시 금천구 시흥동 264-18","서울특별시 금천구 금하로 755",153030,8656,""126.91357295821"",""37.4501827781151""
22464675,하은의상실입니다~숙녀복맞춤및남녀수,,D,소매,D05,의복의류,D05A03,여성의류전문점,,,11,서울특별시,11380,은평구,1138010900,신사동,"서울특별시 은평구 신사동 164-1","서울특별시 은평구 증산로15나길 1-1",122080,3444,""126.906121279666"",""37.5906857361614""
22459362,21세기종합공사,,F,생활서비스,F15,주택수리,F15A02,미장타일도배도장,,,11,서울특별시,11215,광진구,1121510100,중곡동,"서울특별시 광진구 중곡동 159-48","서울특별시 광진구 능동로40길 23",143220,4928,""127.081434135421"",""37.5579224993476""
22260991,알콜정신전문병원,,S,의료,S01,병원,S01B99,기타병원,,,11,서울특별시,11170,용산구,1117013300,서빙고동,"서울특별시 용산구 서빙고동 169-1","서울특별시 용산구 녹사평대로11길 38",140240,4384,""126.993423469582"",""37.5216767003895""
22262176,현대문화인쇄사,,F,생활서비스,F12,광고/인쇄,F12A01,인쇄종합,C18119,"기타 인쇄업",11,서울특별시,11140,중구,1114013400,인현동2가,"서울특별시 중구 인현동2가 175","서울특별시 중구 마른내로10길 30",100282,4558,""126.996772330137"",""37.5630361921647""
22520210,필이네분식,,Q,음식,Q04,분식,Q04A01,라면김밥분식,I56194,"분식 및 김밥 전문점",11,서울특별시,11215,광진구,1121510100,중곡동,"서울특별시 광진구 중곡동 150-152","서울특별시 광진구 긴고랑로29길 48",143220,4935,""127.086510935325"",""37.5620526543006""
22520387,동서정비공업사,,F,생활서비스,F14,자동차/이륜차,F14A04,세차장,S95213,"자동차 세차업",11,서울특별시,11530,구로구,1153010600,고척동,"서울특별시 구로구 고척동 183-11","서울특별시 구로구 목동남로 6",152080,8218,""126.860950660389"",""37.5068226006467""
22482636,우영커뮤니케이션,,D,소매,D08,사무/문구/컴퓨터,D08A04,컴퓨터/주변기기,G47311,"컴퓨터 및 주변장치, 소프트웨어 소매업",11,서울특별시,11560,영등포구,1156011800,도림동,"서울특별시 영등포구 도림동 193","서울특별시 영등포구 도영로 63",150832,7364,""126.898901212632"",""37.5111740993735""
22491905,삼성이삿짐센타,,F,생활서비스,F04,운송/배달/택배,F04A06,종합이삿짐대행,H49311,"일반 화물자동차 운송업",26,부산광역시,26170,동구,2617010100,초량동,"부산광역시 동구 초량동 673","부산광역시 동구 고관로13번길 76",601827,48800,""129.038173644156"",""35.1222008478747""
22492536,메가마트물류센터,,D,소매,D03,종합소매점,D03A02,수퍼마켓,G47121,슈퍼마켓,11,서울특별시,11545,금천구,1154510300,시흥동,"서울특별시 금천구 시흥동 984-33","서울특별시 금천구 시흥대로27길 32",153030,8639,""126.901560678823"",""37.4407908874052""
22455501,칸투칸,,D,소매,D14,운동/경기용품소매,D14A08,등산용품판매,G47631,"운동 및 경기용품 소매업",11,서울특별시,11380,은평구,1138010300,불광동,"서울특별시 은평구 불광동 281-92","서울특별시 은평구 통일로 730",122040,3368,""126.930076069062"",""37.6108091316433""
22242730,송정주차장,,F,생활서비스,F14,자동차/이륜차,F14A07,주차장운영,H52915,"주차장 운영업",26,부산광역시,26440,강서구,2644010900,송정동,"부산광역시 강서구 송정동 1190-4","부산광역시 강서구 송정길 96",618816,46732,""128.843600697844"",""35.1010045107292""
22483219,홀리카홀리카,,D,소매,D16,화장품소매,D16A01,화장품판매점,G47813,"화장품 및 방향제 소매업",11,서울특별시,11440,마포구,1144012500,성산동,"서울특별시 마포구 성산동 515","서울특별시 마포구 월드컵로 240",121250,3932,""126.897257447574"",""37.5682756452677""
22500636,꾀꼬리피아노학원,,R,학문/교육,R05,학원-음악미술무용,R05A02,피아노/바이올린/기타,P85620,"예술 학원",11,서울특별시,11530,구로구,1153010700,개봉동,"서울특별시 구로구 개봉동 309-32","서울특별시 구로구 서해안로34가길 19",152090,8339,""126.848402608956"",""37.493879112318""
22522801,보은기연구원,,R,학문/교육,R09,학원기타,R09A11,학원-기타,P85699,"그외 기타 분류안된 교육기관",11,서울특별시,11680,강남구,1168010600,대치동,"서울특별시 강남구 대치동 994-9","서울특별시 강남구 영동대로 217",135280,6283,""127.068369499069"",""37.4981433609313""
22476100,희아놀이방,,R,학문/교육,R08,유아교육,R08A01,놀이방,Q87210,"보육시설 운영업",11,서울특별시,11620,관악구,1162010100,봉천동,"서울특별시 관악구 봉천동 1717","서울특별시 관악구 관악로30길 27",151764,8734,""126.960628907645"",""37.4889548721917""
22395082,신일공업사,,D,소매,D21,철물/난방/건설자재소매,D21A08,셔터/새시판매,G47511,"철물 및 난방용구 소매업",11,서울특별시,11230,동대문구,1123010200,용두동,"서울특별시 동대문구 용두동 193-61","서울특별시 동대문구 무학로44길 4-8",130823,2577,""127.030067898108"",""37.5808938041267""
22395381,서진무역,,D,소매,D23,자동차/자동차용품,D23A06,자동차부품판매,G45219,"기타 자동차신품 부품 및 내장품 판매업",11,서울특별시,11200,성동구,1120011500,성수동2가,"서울특별시 성동구 성수동2가 309-52","서울특별시 성동구 성수이로7가길 12",133120,4781,""127.055284876117"",""37.5411909154001""
22412563,명약국,,S,의료,S02,약국/한약방,S02A01,약국,G47811,"의약품 및 의료용품 소매업",11,서울특별시,11230,동대문구,1123010900,휘경동,"서울특별시 동대문구 휘경동 286-121","서울특별시 동대문구 망우로18나길 3",130090,2498,""127.060555695671"",""37.5873485784611""
22413208,한솔공인중개사사무소,,L,부동산,L01,부동산중개,L01A01,부동산중개,L68221,"부동산 자문 및 중개업",11,서울특별시,11500,강서구,1150010900,방화동,"서울특별시 강서구 방화동 564-94","서울특별시 강서구 양천로14길 35",157220,7609,""126.810100383833"",""37.5715289906552""
22483281,한진학원,,R,학문/교육,R09,학원기타,R09A01,학원(종합),P85501,"일반 교과 학원",11,서울특별시,11680,강남구,1168010800,논현동,"서울특별시 강남구 논현동 211-12","서울특별시 강남구 언주로125길 8",135010,6105,""127.03458813155"",""37.5131089507113""
22483863,현대공인중개사사무소,,L,부동산,L01,부동산중개,L01A01,부동산중개,L68221,"부동산 자문 및 중개업",11,서울특별시,11470,양천구,1147010300,신월동,"서울특별시 양천구 신월동 537-3","서울특별시 양천구 신월로15길 10",158090,8030,""126.841936932043"",""37.5193243393758""
22456282,H팩토리,,F,생활서비스,F06,사진,F06A01,사진관,M73301,"인물사진 및 행사용비디오 촬영업",11,서울특별시,11680,강남구,1168010800,논현동,"서울특별시 강남구 논현동 247-11","서울특별시 강남구 학동로42길 25",135010,6098,""127.036714791184"",""37.5139823146512""
22396555,중고자동차매매,,D,소매,D23,자동차/자동차용품,D23A02,중고자동차판매,G45120,"중고 자동차 판매업",11,서울특별시,11230,동대문구,1123010600,장안동,"서울특별시 동대문구 장안동 138-17","서울특별시 동대문구 한천로30길 22",130100,2529,""127.068127417902"",""37.5739830201292""
22396996,E.T문방구,,D,소매,D08,사무/문구/컴퓨터,D08A01,사무/문구용품,G47612,"문구용품 소매업",11,서울특별시,11290,성북구,1129010100,성북동,"서울특별시 성북구 성북동 100-1","서울특별시 성북구 성북로 106",136823,2837,""126.997184559051"",""37.5930713941041""
22264054,세검정부동산,,L,부동산,L01,부동산중개,L01A01,부동산중개,L68221,"부동산 자문 및 중개업",11,서울특별시,11110,종로구,1111018500,홍지동,"서울특별시 종로구 홍지동 133-1","서울특별시 종로구 자하문로45길 8-7",110020,3021,""126.959071332416"",""37.5986161643126""
22281961,한남우체국,,F,생활서비스,F04,운송/배달/택배,F04B08,우체국/우편물취급소,J61100,우편업,11,서울특별시,11170,용산구,1117013100,한남동,"서울특별시 용산구 한남동 657-44","서울특별시 용산구 대사관로 49",140887,4401,""127.003570704545"",""37.5336115420687""
22476832,21세기신천지약국,,S,의료,S02,약국/한약방,S02A01,약국,G47811,"의약품 및 의료용품 소매업",11,서울특별시,11560,영등포구,1156010400,영등포동3가,"서울특별시 영등포구 영등포동3가 4","서울특별시 영등포구 영등포로 232",150033,7302,""126.907051343725"",""37.5192871064637""
22494099,서울피아노,,R,학문/교육,R05,학원-음악미술무용,R05A02,피아노/바이올린/기타,P85620,"예술 학원",11,서울특별시,11560,영등포구,1156012900,양평동5가,"서울특별시 영등포구 양평동5가 76","서울특별시 영등포구 양평로24길 9",150751,7204,""126.891729347053"",""37.5402737179302""
22431624,삼원체육관,,R,학문/교육,R07,학원-예능취미체육,R07A20,태권도장,P85611,"스포츠 교육기관",11,서울특별시,11305,강북구,1130510300,수유동,"서울특별시 강북구 수유동 318-3","서울특별시 강북구 삼양로124길 8",142070,1039,""127.016215989539"",""37.6449240128341""
22431698,서울음악교습소서울기타음악학원,,R,학문/교육,R05,학원-음악미술무용,R05A02,피아노/바이올린/기타,P85620,"예술 학원",11,서울특별시,11530,구로구,1153010200,구로동,"서울특별시 구로구 구로동 503-4","서울특별시 구로구 구로중앙로31길 18",152050,8280,""126.884185022341"",""37.4990431049832""
22534185,성도장의사,,F,생활서비스,F18,장례/묘지,F18A01,장의사/관련서비스-종합,S96921,"장례식장 및 장의관련 서비스업",11,서울특별시,11620,관악구,1162010200,신림동,"서울특별시 관악구 신림동 319-5","서울특별시 관악구 원신길 278",151015,8848,""126.930097210252"",""37.4612362860719""
22534246,성민장애아동어린이집,,R,학문/교육,R08,유아교육,R08A02,어린이집,Q87210,"보육시설 운영업",11,서울특별시,11620,관악구,1162010200,신림동,"서울특별시 관악구 신림동 300-1","서울특별시 관악구 호암로 549",151015,8846,""126.931227801988"",""37.4667789834856""
22467999,부광상회,,D,소매,D03,종합소매점,D03A03,잡화점,G47190,"그외 기타 종합 소매업",26,부산광역시,26140,서구,2614012300,남부민동,"부산광역시 서구 남부민동 33-34","부산광역시 서구 천마로186번길 18-1",602020,49256,""129.022881513166"",""35.0924763943001""
22484285,남서울부동산,,L,부동산,L01,부동산중개,L01A01,부동산중개,L68221,"부동산 자문 및 중개업",11,서울특별시,11680,강남구,1168010800,논현동,"서울특별시 강남구 논현동 241-3","서울특별시 강남구 학동로 342",135010,6099,""127.040582778587"",""37.5166809152696""
22511716,옥인문화인쇄사,,F,생활서비스,F12,광고/인쇄,F12A01,인쇄종합,C18119,"기타 인쇄업",11,서울특별시,11680,강남구,1168010800,논현동,"서울특별시 강남구 논현동 120-3","서울특별시 강남구 학동로2길 6",135010,6110,""127.022207840132"",""37.5109256796205""
22526455,경희한의원,,S,의료,S01,병원,S01B06,한의원,Q86203,한의원,11,서울특별시,11680,강남구,1168010100,역삼동,"서울특별시 강남구 역삼동 831-18","서울특별시 강남구 강남대로 342",135080,6242,""127.030201826875"",""37.4936733130006""
22414893,신원글로벌,,D,소매,D03,종합소매점,D03A03,잡화점,G47190,"그외 기타 종합 소매업",11,서울특별시,11170,용산구,1117013100,한남동,"서울특별시 용산구 한남동 747-7","서울특별시 용산구 소월로 322",140738,4347,""126.996224334453"",""37.5397575418438""
22283442,굿모닝부동산,,L,부동산,L01,부동산중개,L01A01,부동산중개,L68221,"부동산 자문 및 중개업",11,서울특별시,11140,중구,1114016200,신당동,"서울특별시 중구 신당동 164-29","서울특별시 중구 퇴계로90길 43",100821,4583,""127.021805393251"",""37.5633994373099""
22307409,성심공인중개사사무소,,L,부동산,L01,부동산중개,L01A01,부동산중개,L68221,"부동산 자문 및 중개업",26,부산광역시,26440,강서구,2644011700,신호동,"부산광역시 강서구 신호동 217","부산광역시 강서구 신호산단2로 29",618210,46759,""128.877840293932"",""35.0863207234554""
22246766,정관서적,,D,소매,D13,책/서적/도서,D13A01,서점,G47611,"서적 및 잡지류 소매업",26,부산광역시,26710,기장군,2671025628,정관읍,"부산광역시 기장군 정관읍 용수리 1366-10","부산광역시 기장군 정관읍 정관4로 45",619963,46012,""129.17154545487"",""35.3268402117956""
22484632,베이비시터아기코코,,F,생활서비스,F05,인력/고용/용역알선,F05A01,가사도우미알선,N75110,고용알선업,26,부산광역시,26530,사상구,2653010600,주례동,"부산광역시 사상구 주례동 1010-3","부산광역시 사상구 백양대로 513",617010,46995,""128.99621662759"",""35.1543363612182""
22503455,신대림우드,,D,소매,D21,철물/난방/건설자재소매,D21A03,목제품판매,G47519,"페인트, 유리 및 기타 건설자재 소매업",26,부산광역시,26530,사상구,2653010500,감전동,"부산광역시 사상구 감전동 116-7","부산광역시 사상구 괘감로 131",617724,46982,""128.988779586485"",""35.1565065570831""
22477606,임페리얼,응암점,D,소매,D05,의복의류,D05A01,일반의류,G47416,"셔츠 및 기타 의복 소매업",11,서울특별시,11380,은평구,1138011000,증산동,"서울특별시 은평구 증산동 159-1","서울특별시 은평구 증산로 361",122935,3497,""126.912708236625"",""37.5885661001239""
22495619,다음부동산,,L,부동산,L01,부동산중개,L01A01,부동산중개,L68221,"부동산 자문 및 중개업",11,서울특별시,11470,양천구,1147010200,목동,"서울특별시 양천구 목동 405-292","서울특별시 양천구 목동동로12길 13",158050,8005,""126.872741647209"",""37.5230012781484""
22433281,성신여자대학교우체국,,F,생활서비스,F04,운송/배달/택배,F04B08,우체국/우편물취급소,J61100,우편업,11,서울특별시,11290,성북구,1129010300,돈암동,"서울특별시 성북구 돈암동 173-1","서울특별시 성북구 보문로34다길 2",136060,2844,""127.021990256385"",""37.5916756956202""
22448181,엄마손운동화세탁날,,F,생활서비스,F02,세탁/가사서비스,F02A02,신발세탁,S96912,"가정용 세탁업",26,부산광역시,26380,사하구,2638010600,다대동,"부산광역시 사하구 다대동 120-10","부산광역시 사하구 다대로429번길 20",604757,49519,""128.980128981584"",""35.0638311126736""
22527791,썬라이더프랜차이즈스토어썬로하스,,D,소매,D10,건강/미용식품,D10A04,건강식품판매,G47216,"건강보조식품 소매업",11,서울특별시,11650,서초구,1165010800,서초동,"서울특별시 서초구 서초동 1573-10","서울특별시 서초구 서초중앙로 125",137070,6644,""127.013406047413"",""37.4930026170105""
22469073,타이어뱅크가양점,가양점,D,소매,D23,자동차/자동차용품,D23A04,타이어판매,G45211,"자동차 타이어 및 튜브 판매업",11,서울특별시,11500,강서구,1150010400,가양동,"서울특별시 강서구 가양동 132-2","서울특별시 강서구 양천로 350",157200,7573,""126.841466520039"",""37.5680116146336""
22485152,카렘,,Q,음식,Q06,양식,Q06A07,기타전문서양음식점,I56114,"서양식 음식점업",11,서울특별시,11560,영등포구,1156012500,양평동1가,"서울특별시 영등포구 양평동1가 209-8","서울특별시 영등포구 선유서로26길 26-2",150863,7272,""126.888828300393"",""37.5237844574958""
22495788,신길종합인테리어,,D,소매,D07,가정/주방/인테리어,D07A10,조명기구/전기용품,G47591,"전기용품 및 조명장치 소매업",11,서울특별시,11560,영등포구,1156013200,신길동,"서울특별시 영등포구 신길동 93-2","서울특별시 영등포구 도신로64길 22-1",150050,7351,""126.9197099344"",""37.5122222458374""
22513202,유니코스시스텍,,Q,음식,Q03,일식/수산물,Q03A03,음식점-초밥전문,I56113,"일식 음식점업",11,서울특별시,11530,구로구,1153010200,구로동,"서울특별시 구로구 구로동 611-26","서울특별시 구로구 구로중앙로 207",152710,8216,""126.87694318803"",""37.5045879767054""
22523548,동산,신천지부,L,부동산,L01,부동산중개,L01A01,부동산중개,L68221,"부동산 자문 및 중개업",11,서울특별시,11500,강서구,1150010300,화곡동,"서울특별시 강서구 화곡동 998-6","서울특별시 강서구 화곡로 305",157010,7686,""126.849121964707"",""37.5516066125605""
22418136,우장산레인보우,,D,소매,D06,가방/신발/액세서리,D06A09,우산/우의판매,G47599,"그외 기타 분류안된 가정용품 소매업",11,서울특별시,11260,중랑구,1126010500,망우동,"서울특별시 중랑구 망우동 518-6","서울특별시 중랑구 봉우재로 214",131230,2174,""127.096711053041"",""37.5947130228738""
22248582,천가우체국,,F,생활서비스,F04,운송/배달/택배,F04B08,우체국/우편물취급소,J61100,우편업,26,부산광역시,26440,강서구,2644011900,성북동,"부산광역시 강서구 성북동 102-1","부산광역시 강서구 선창길 68",618410,46769,""128.834181781071"",""35.0625158072304""
22248654,우신공인중개사사무소,,L,부동산,L01,부동산중개,L01A01,부동산중개,L68221,"부동산 자문 및 중개업",26,부산광역시,26320,북구,2632010200,화명동,"부산광역시 북구 화명동 1412-1","부산광역시 북구 금곡대로324번길 6",616120,46531,""129.014509159055"",""35.2370764957131""
22478753,강남솔라,,F,생활서비스,F15,주택수리,F15A03,배관난방보일러,F42201,"배관 및 냉·난방 공사업",11,서울특별시,11560,영등포구,1156013300,대림동,"서울특별시 영등포구 대림동 1123","서울특별시 영등포구 도림천로 431",150070,7448,""126.899676083561"",""37.4876640340721""
22384693,오행철학원,,F,생활서비스,F11,개인서비스,F11A02,운명감정작명,S96992,"점술 및 유사 서비스업",11,서울특별시,11200,성동구,1120011100,금호동3가,"서울특별시 성동구 금호동3가 1387-1","서울특별시 성동구 장터1가길 18",133807,4724,""127.017801466675"",""37.5485079484649""
22384921,바인학원,,R,학문/교육,R01,학원-보습교습입시,R01A01,학원-입시,P85501,"일반 교과 학원",11,서울특별시,11290,성북구,1129013300,정릉동,"서울특별시 성북구 정릉동 289-33","서울특별시 성북구 보국문로 86",136100,2711,""127.008530098292"",""37.6118998309355""
22386221,유화주유소,,F,생활서비스,F16,주유소/충전소,F16A01,주유소,G47711,"차량용 주유소 운영업",11,서울특별시,11230,동대문구,1123010900,휘경동,"서울특별시 동대문구 휘경동 333-5","서울특별시 동대문구 이문로 18",130090,2446,""127.055232330913"",""37.5892703645452""
22452814,지코스모,,D,소매,D05,의복의류,D05A01,일반의류,G47416,"셔츠 및 기타 의복 소매업",11,서울특별시,11560,영등포구,1156010100,영등포동,"서울특별시 영등포구 영등포동 618-496","서울특별시 영등포구 경인로 846",150030,7306,""126.907647192475"",""37.51566141404""
22401285,현대공인중개사무소,,L,부동산,L01,부동산중개,L01A01,부동산중개,L68221,"부동산 자문 및 중개업",11,서울특별시,11440,마포구,1144010700,마포동,"서울특별시 마포구 마포동 35-1","서울특별시 마포구 마포대로 15",121737,4165,""126.94397362005"",""37.5386440637339""
22286498,다모아인쇄소,,F,생활서비스,F12,광고/인쇄,F12A01,인쇄종합,C18119,"기타 인쇄업",11,서울특별시,11140,중구,1114015200,주교동,"서울특별시 중구 주교동 273-11","서울특별시 중구 을지로27가길 8",100330,4546,""126.999516003981"",""37.5677809410943""
22387585,이롬황성주생식,,D,소매,D10,건강/미용식품,D10A02,생식판매,G47216,"건강보조식품 소매업",11,서울특별시,11215,광진구,1121510100,중곡동,"서울특별시 광진구 중곡동 191-138","서울특별시 광진구 동일로74길 28-4",143220,4907,""127.079380028801"",""37.5666466765061""
22388303,메디팜한솔약국,,S,의료,S02,약국/한약방,S02A01,약국,G47811,"의약품 및 의료용품 소매업",11,서울특별시,11200,성동구,1120010700,행당동,"서울특별시 성동구 행당동 346","서울특별시 성동구 행당로 82",133777,4717,""127.027512774894"",""37.5562382207618""
22388334,대한민국노래방,,N,관광/여가/오락,N02,무도/유흥/가무,N02A01,노래방,R91223,"노래연습장 운영업",11,서울특별시,11215,광진구,1121510700,화양동,"서울특별시 광진구 화양동 7-39","서울특별시 광진구 동일로22길 96",143914,5018,""127.069353761939"",""37.5409241910981""
22402049,삼성부동산,,L,부동산,L01,부동산중개,L01A01,부동산중개,L68221,"부동산 자문 및 중개업",11,서울특별시,11290,성북구,1129013300,정릉동,"서울특별시 성북구 정릉동 777-7","서울특별시 성북구 보국문로 154",136100,2701,""127.004184771804"",""37.6166927964557""
22423742,서울남부범죄피해자지원센타,,F,생활서비스,F19,법무세무회계,F19B01,법무관련서비스-종합,,,11,서울특별시,11470,양천구,1147010100,신정동,"서울특별시 양천구 신정동 313-1","서울특별시 양천구 신월로 386",158737,8088,""126.863930482322"",""37.5221509639272""
22424315,삼광기물상사,,D,소매,D07,가정/주방/인테리어,D07A04,그릇판매,G47592,"식탁 및 주방용품 소매업",26,부산광역시,26110,중구,2611013000,신창동4가,"부산광역시 중구 신창동4가 39-1","부산광역시 중구 국제시장2길 29",600064,48945,""129.028330688102"",""35.1019671575551""
22449477,볼치자,,D,소매,D14,운동/경기용품소매,D14A06,골프용품판매,G47631,"운동 및 경기용품 소매업",11,서울특별시,11410,서대문구,1141010200,충정로3가,"서울특별시 서대문구 충정로3가 465","서울특별시 서대문구 서소문로 27",120013,3741,""126.964845533717"",""37.5602736986601""
22419722,청수수족관,,D,소매,D04,취미/오락관련소매,D04A13,수족관,G47852,"애완용 동물 및 관련용품 소매업",11,서울특별시,11500,강서구,1150010200,등촌동,"서울특별시 강서구 등촌동 632-9","서울특별시 강서구 양천로 606",157030,7552,""126.865183393298"",""37.5551860117075""
22626958,비엘정보기술,,F,생활서비스,F03,개인/가정용품수리,F03A06,정보통신기기수리,S95122,"통신장비 수리업",11,서울특별시,11545,금천구,1154510100,가산동,"서울특별시 금천구 가산동 319","서울특별시 금천구 가산디지털1로 70",153711,8590,""126.886097619758"",""37.4723000774277""
22566384,삼성부동산공인중개사사무소,,L,부동산,L01,부동산중개,L01A01,부동산중개,L68221,"부동산 자문 및 중개업",11,서울특별시,11680,강남구,1168010300,개포동,"서울특별시 강남구 개포동 141","서울특별시 강남구 선릉로 7",135805,6322,""127.063043616177"",""37.4799719328461""
22566959,전주분식,,Q,음식,Q04,분식,Q04A01,라면김밥분식,I56194,"분식 및 김밥 전문점",11,서울특별시,11650,서초구,1165010800,서초동,"서울특별시 서초구 서초동 1486-12","서울특별시 서초구 반포대로9길 52",137070,6709,""127.008810572305"",""37.4830525404572""
22422185,학사공인중개사,,L,부동산,L01,부동산중개,L01A01,부동산중개,L68221,"부동산 자문 및 중개업",11,서울특별시,11500,강서구,1150010300,화곡동,"서울특별시 강서구 화곡동 376-9","서울특별시 강서구 월정로 194",157010,7761,""126.834937606922"",""37.5358615941629""
22627410,근화모피롯데영등포점,롯데영등포점,D,소매,D05,의복의류,D05A11,가죽/모피의류,G47416,"셔츠 및 기타 의복 소매업",11,서울특별시,11560,영등포구,1156010100,영등포동,"서울특별시 영등포구 영등포동 618-496","서울특별시 영등포구 경인로 846",150899,7306,""126.907647192475"",""37.51566141404""
22628321,아름다운오케스트라,,N,관광/여가/오락,N03,연극/영화/극장,N03A06,연극/음악/예술관련기타,,,11,서울특별시,11545,금천구,1154510300,시흥동,"서울특별시 금천구 시흥동 977-1","서울특별시 금천구 시흥대로2길 24",153030,8654,""126.904565914939"",""37.434637542083""
22449909,한마음공인중개사사무소,,L,부동산,L01,부동산중개,L01A01,부동산중개,L68221,"부동산 자문 및 중개업",11,서울특별시,11230,동대문구,1123010300,제기동,"서울특별시 동대문구 제기동 1212","서울특별시 동대문구 고산자로 534",130772,2467,""127.039198906676"",""37.5883840636717""
22450681,대흥치과재료상사,,S,의료,S01,병원,S01B04,치과의원,Q86202,"치과 의원",11,서울특별시,11230,동대문구,1123010700,청량리동,"서울특별시 동대문구 청량리동 235-4","서울특별시 동대문구 왕산로 225",130867,2490,""127.047126673875"",""37.5820329004573""
22383536,동성쌀상회,,D,소매,D01,음/식료품소매,D01A14,미곡상,G47211,"곡물 소매업",11,서울특별시,11380,은평구,1138010700,응암동,"서울특별시 은평구 응암동 603-30","서울특별시 은평구 응암로4길 17",122010,3478,""126.916882401499"",""37.5864960597562""
22383897,중앙공인중개사사무소,,L,부동산,L01,부동산중개,L01A01,부동산중개,L68221,"부동산 자문 및 중개업",11,서울특별시,11305,강북구,1130510100,미아동,"서울특별시 강북구 미아동 1356","서울특별시 강북구 오패산로30길 30",142751,1234,""127.035656221293"",""37.616350490241""
22652222,아망떼,,Q,음식,Q12,커피점/카페,Q12A01,커피전문점/카페/다방,I56220,"비알콜 음료점업",26,부산광역시,26320,북구,2632010400,덕천동,"부산광역시 북구 덕천동 400-11","부산광역시 북구 덕천1길 13",616100,46576,""129.006284771153"",""35.209860143747""
22666689,유토피아노래주점,,Q,음식,Q09,유흥주점,Q09A10,룸살롱/단란주점,I56211,"일반유흥 주점업",11,서울특별시,11710,송파구,1171010100,잠실동,"서울특별시 송파구 잠실동 175-9","서울특별시 송파구 올림픽로 82",138220,5556,""127.079674377156"",""37.5114054379016""
22660325,지에스수영광서점,,D,소매,D13,책/서적/도서,D13A01,서점,G47611,"서적 및 잡지류 소매업",26,부산광역시,26500,수영구,2650010400,광안동,"부산광역시 수영구 광안동 715-11","부산광역시 수영구 광서로 36",613100,48246,""129.110841421851"",""35.1646881122508""
22619925,제일모직직매점,,D,소매,D05,의복의류,D05A18,섬유/직물/주단,G47419,"기타 섬유, 직물 및 의복액세서리 소매업",11,서울특별시,11140,중구,1114011300,북창동,"서울특별시 중구 북창동 93-33","서울특별시 중구 남대문로5길 29",100080,4526,""126.9788933753"",""37.5626576488759""
22537519,동양하우징,,L,부동산,L04,평가/개발/관리,L04A06,부동산자문,L68221,"부동산 자문 및 중개업",11,서울특별시,11500,강서구,1150010600,내발산동,"서울특별시 강서구 내발산동 750-7","서울특별시 강서구 수명로 68-11",157937,7635,""126.826533531105"",""37.5522853008257""
22646116,커피빈,코리아선릉역점,Q,음식,Q12,커피점/카페,Q12A01,커피전문점/카페/다방,I56220,"비알콜 음료점업",11,서울특별시,11680,강남구,1168010100,역삼동,"서울특별시 강남구 역삼동 705-19","서울특별시 강남구 테헤란로 335",135080,6150,""127.048222908235"",""37.5047496908904""
22586469,세일,,D,소매,D05,의복의류,D05A18,섬유/직물/주단,G47419,"기타 섬유, 직물 및 의복액세서리 소매업",11,서울특별시,11530,구로구,1153010200,구로동,"서울특별시 구로구 구로동 197-5","서울특별시 구로구 디지털로33길 27",152743,8380,""126.894656689343"",""37.4860493561836""
22561134,위드유편입,,R,학문/교육,R01,학원-보습교습입시,R01A02,학원-편입,P85501,"일반 교과 학원",11,서울특별시,11560,영등포구,1156013200,신길동,"서울특별시 영등포구 신길동 1432","서울특별시 영등포구 여의대방로62길 2",150050,7319,""126.926654994466"",""37.5138083298398""
22549412,미화꽃집,,D,소매,D02,선물/팬시/기념품,D02A02,꽃집/꽃배달,G47851,"화초 및 산식물 소매업",11,서울특별시,11590,동작구,1159010900,신대방동,"서울특별시 동작구 신대방동 341-169","서울특별시 동작구 국사봉2바길 41",156010,7052,""126.929591391826"",""37.494327308431""
22653780,동서울간호학원,강동점,R,학문/교육,R03,학원-자격/국가고시,R03A01,학원-간호조무사,P85659,"기타 기술 및 직업훈련학원",11,서울특별시,11740,강동구,1174010900,천호동,"서울특별시 강동구 천호동 454-15","서울특별시 강동구 천호대로 1027",134020,5329,""127.126373175864"",""37.5380979802092""
22647782,허브다이어트체험관,,D,소매,D10,건강/미용식품,D10A01,다이어트상품판매,G47216,"건강보조식품 소매업",11,서울특별시,11410,서대문구,1141011100,홍제동,"서울특별시 서대문구 홍제동 238-15","서울특별시 서대문구 세무서길 34",120090,3627,""126.945792128176"",""37.5894789357121""
22563279,가나통운,,F,생활서비스,F04,운송/배달/택배,F04A06,종합이삿짐대행,H49311,"일반 화물자동차 운송업",11,서울특별시,11530,구로구,1153010800,오류동,"서울특별시 구로구 오류동 135-57","서울특별시 구로구 서해안로 2328",152896,8341,""126.843066457401"",""37.4930520765142""
22580943,리더스서울외과내과,,S,의료,S01,병원,S01B07,내과/외과,Q86201,"일반 의원",11,서울특별시,11680,강남구,1168010100,역삼동,"서울특별시 강남구 역삼동 826-23","서울특별시 강남구 강남대로 370",135080,6241,""127.029201049664"",""37.4958546587517""
22662734,송정,,Q,음식,Q01,한식,Q01A01,한식/백반/한정식,I56111,"한식 음식점업",11,서울특별시,11680,강남구,1168010500,삼성동,"서울특별시 강남구 삼성동 159","서울특별시 강남구 봉은사로 524",135798,6164,""127.057100286394"",""37.5129393969289""
22599763,헤어토토,,F,생활서비스,F01,이/미용/건강,F01A01,여성미용실,S96112,두발미용업,11,서울특별시,11215,광진구,1121510900,군자동,"서울특별시 광진구 군자동 228","서울특별시 광진구 능동로 243-1",143837,4998,""127.076413193571"",""37.5520625466616""
22599176,이승현아뜰리에,,R,학문/교육,R05,학원-음악미술무용,R05A01,서예/서화/미술,P85620,"예술 학원",26,부산광역시,26260,동래구,2626010700,명륜동,"부산광역시 동래구 명륜동 676-21","부산광역시 동래구 명륜로 192",607853,47747,""129.082914846438"",""35.2108936071248""
22590487,강북파출부,,F,생활서비스,F05,인력/고용/용역알선,F05A01,가사도우미알선,N75110,고용알선업,11,서울특별시,11350,노원구,1135010500,상계동,"서울특별시 노원구 상계동 693","서울특별시 노원구 동일로 1426",139200,1694,""127.060530750824"",""37.655944474372""
22565484,GS25해운리베라,,D,소매,D03,종합소매점,D03A01,편의점,G47122,"체인화 편의점",26,부산광역시,26350,해운대구,2635010600,중동,"부산광역시 해운대구 중동 1380-22","부산광역시 해운대구 구남로29번길 26",612010,48095,""129.161980333851"",""35.1622794290781""
22439982,문일고시원독서실,,R,학문/교육,R10,도서관/독서실,R10A02,고시원,R90212,"독서실 운영업",26,부산광역시,26170,동구,2617010200,수정동,"부산광역시 동구 수정동 1043-63","부산광역시 동구 홍곡남로 13-3",601030,48799,""129.039071512886"",""35.12465397386""
22556677,대성유통,,D,소매,D03,종합소매점,D03A03,잡화점,G47190,"그외 기타 종합 소매업",26,부산광역시,26500,수영구,2650010300,민락동,"부산광역시 수영구 민락동 26-8","부산광역시 수영구 광안해변로307번길 42",613827,48288,""129.12623817078"",""35.1588582104426""
22557422,GS,천호삼성점,D,소매,D03,종합소매점,D03A01,편의점,G47122,"체인화 편의점",11,서울특별시,11740,강동구,1174010900,천호동,"서울특별시 강동구 천호동 169-13","서울특별시 강동구 성안로25길 21",134020,5338,""127.134360135633"",""37.5382469032212""
22793508,제일부동산,,L,부동산,L01,부동산중개,L01A01,부동산중개,L68221,"부동산 자문 및 중개업",11,서울특별시,11680,강남구,1168010600,대치동,"서울특별시 강남구 대치동 511","서울특별시 강남구 삼성로 150",135775,6288,""127.068625876052"",""37.4957125255313""
22758690,대흥문구,,D,소매,D08,사무/문구/컴퓨터,D08A01,사무/문구용품,G47612,"문구용품 소매업",11,서울특별시,11230,동대문구,1123011000,이문동,"서울특별시 동대문구 이문동 164-13","서울특별시 동대문구 신이문로 14",130080,2411,""127.063531699039"",""37.6028611581515""
22679834,리영에스테틱,,F,생활서비스,F01,이/미용/건강,F01A03,비만/피부관리,,,11,서울특별시,11650,서초구,1165010800,서초동,"서울특별시 서초구 서초동 1318-4","서울특별시 서초구 강남대로 403",137070,6615,""127.026871089076"",""37.4984936016015""
22695143,행복찾기의원,,S,의료,S01,병원,S01B07,내과/외과,Q86201,"일반 의원",11,서울특별시,11650,서초구,1165010700,반포동,"서울특별시 서초구 반포동 722-21","서울특별시 서초구 강남대로 525",137040,6536,""127.021894404989"",""37.508940767923""
22536241,강북가스켓,,D,소매,D23,자동차/자동차용품,D23A06,자동차부품판매,G45219,"기타 자동차신품 부품 및 내장품 판매업",11,서울특별시,11230,동대문구,1123010500,답십리동,"서울특별시 동대문구 답십리동 952-4","서울특별시 동대문구 한천로 31",130030,2618,""127.060510172125"",""37.565741140464""
22536498,하나전파사,,F,생활서비스,F03,개인/가정용품수리,F03A02,가전제품수리,S95310,"가전제품 수리업",11,서울특별시,11470,양천구,1147010100,신정동,"서울특별시 양천구 신정동 1194-3","서울특별시 양천구 중앙로29길 120-11",158070,8057,""126.847424168187"",""37.5222162870877""
22743780,끼리끼리,,Q,음식,Q06,양식,Q06A01,정통양식/경양식,I56114,"서양식 음식점업",11,서울특별시,11380,은평구,1138010300,불광동,"서울특별시 은평구 불광동 102-18","서울특별시 은평구 연서로 321",122040,3343,""126.927903441349"",""37.6240796077622""
22744474,에스토팅,,F,생활서비스,F03,개인/가정용품수리,F03A06,정보통신기기수리,S95122,"통신장비 수리업",11,서울특별시,11215,광진구,1121510700,화양동,"서울특별시 광진구 화양동 48-3","서울특별시 광진구 아차산로 213",143917,5019,""127.067186933902"",""37.5413666303843""
22764981,한국간병인협의회,,F,생활서비스,F05,인력/고용/용역알선,F05A02,인력공급/고용알선,,,11,서울특별시,11215,광진구,1121510700,화양동,"서울특별시 광진구 화양동 48-3","서울특별시 광진구 아차산로 213",143917,5019,""127.067186933902"",""37.5413666303843""
22806867,뉴오리엔탈,,Q,음식,Q09,유흥주점,Q09A10,룸살롱/단란주점,I56211,"일반유흥 주점업",11,서울특별시,11140,중구,1114012300,회현동3가,"서울특별시 중구 회현동3가 10","서울특별시 중구 퇴계로14길 1",100053,4631,""126.98367935366"",""37.5603021728466""
22752917,롯데슈퍼,행당점,D,소매,D03,종합소매점,D03A02,수퍼마켓,G47121,슈퍼마켓,11,서울특별시,11200,성동구,1120010700,행당동,"서울특별시 성동구 행당동 140","서울특별시 성동구 고산자로6길 40",133070,4745,""127.035455817503"",""37.5581685449559""
22772872,씨티빌고시원,,R,학문/교육,R10,도서관/독서실,R10A02,고시원,R90212,"독서실 운영업",11,서울특별시,11590,동작구,1159010200,상도동,"서울특별시 동작구 상도동 359-20","서울특별시 동작구 상도로15길 106",156030,6949,""126.936674368689"",""37.5044289538206""
22745352,오케이영어,,R,학문/교육,R01,학원-보습교습입시,R01A01,학원-입시,P85501,"일반 교과 학원",11,서울특별시,11740,강동구,1174010100,명일동,"서울특별시 강동구 명일동 64","서울특별시 강동구 구천면로 512",134070,5271,""127.155115457316"",""37.5490296913625""
22766506,동신인테리어,,D,소매,D07,가정/주방/인테리어,D07A01,인테리어/욕실용품/커튼,G47599,"그외 기타 분류안된 가정용품 소매업",11,서울특별시,11740,강동구,1174010800,성내동,"서울특별시 강동구 성내동 408-19","서울특별시 강동구 성안로 79",134030,5390,""127.131913005466"",""37.5306961063279""
22798878,급행장,,Q,음식,Q01,한식,Q01A01,한식/백반/한정식,I56111,"한식 음식점업",26,부산광역시,26230,부산진구,2623010300,부전동,"부산광역시 부산진구 부전동 259-27","부산광역시 부산진구 서면문화로 4",614030,47256,""129.058034827425"",""35.1580939148785""
22774059,미나미용실,,F,생활서비스,F01,이/미용/건강,F01A01,여성미용실,S96112,두발미용업,11,서울특별시,11215,광진구,1121510500,자양동,"서울특별시 광진구 자양동 630-42","서울특별시 광진구 뚝섬로59길 67",143190,5058,""127.083063896877"",""37.5348322021359""
22761058,임지영,,F,생활서비스,F01,이/미용/건강,F01A01,여성미용실,S96112,두발미용업,11,서울특별시,11215,광진구,1121510300,구의동,"서울특별시 광진구 구의동 203-12","서울특별시 광진구 구의로16길 35",143200,5033,""127.092485206495"",""37.5435641017767""
22698791,행운헤어샵,,F,생활서비스,F01,이/미용/건강,F01A01,여성미용실,S96112,두발미용업,26,부산광역시,26500,수영구,2650010200,수영동,"부산광역시 수영구 수영동 312-1","부산광역시 수영구 수영로725번길 46",613830,48228,""129.116297189794"",""35.1687302497949""
22975398,박귀순미용실,,F,생활서비스,F01,이/미용/건강,F01A01,여성미용실,S96112,두발미용업,11,서울특별시,11680,강남구,1168011000,압구정동,"서울특별시 강남구 압구정동 369-1","서울특별시 강남구 압구정로29길 71",135787,6002,""127.028304754856"",""37.5335923889483""
22975498,정,,F,생활서비스,F01,이/미용/건강,F01A01,여성미용실,S96112,두발미용업,11,서울특별시,11260,중랑구,1126010200,상봉동,"서울특별시 중랑구 상봉동 114-61","서울특별시 중랑구 망우로42길 19",131220,2137,""127.083156793785"",""37.5946715843011""
22709081,청자주단,,D,소매,D05,의복의류,D05A18,섬유/직물/주단,G47419,"기타 섬유, 직물 및 의복액세서리 소매업",26,부산광역시,26290,남구,2629010600,대연동,"부산광역시 남구 대연동 330-15","부산광역시 남구 수영로 254",608020,48497,""129.094442110121"",""35.1351726411382""
22947171,박승철헤어스투디오,,F,생활서비스,F01,이/미용/건강,F01A01,여성미용실,S96112,두발미용업,11,서울특별시,11305,강북구,1130510100,미아동,"서울특별시 강북구 미아동 125-27","서울특별시 강북구 도봉로 184",142807,1157,""127.026899194188"",""37.6251267826633""
22977915,유경희헤어샵,,F,생활서비스,F01,이/미용/건강,F01A01,여성미용실,S96112,두발미용업,11,서울특별시,11215,광진구,1121510100,중곡동,"서울특별시 광진구 중곡동 35-12","서울특별시 광진구 용마산로21길 61",143220,4935,""127.085186076716"",""37.5620964589867""
22685463,조선건강원,,D,소매,D10,건강/미용식품,D10A07,건강원,G47216,"건강보조식품 소매업",11,서울특별시,11215,광진구,1121510500,자양동,"서울특별시 광진구 자양동 612-22","서울특별시 광진구 자양로15길 102",143190,5054,""127.077976017069"",""37.5345222713548""
22741311,무진푸드,,D,소매,D01,음/식료품소매,D01A07,반찬가게,G47219,"기타 식료품 소매업",26,부산광역시,26350,해운대구,2635010500,우동,"부산광역시 해운대구 우동 1406-2","부산광역시 해운대구 해운대해변로 140",612020,48092,""129.146515374093"",""35.1584156241557""
22934431,조방해수식당,,Q,음식,Q01,한식,Q01A01,한식/백반/한정식,I56111,"한식 음식점업",26,부산광역시,26230,부산진구,2623010400,범천동,"부산광역시 부산진구 범천동 839-29","부산광역시 부산진구 자유평화로37번길 15-19",614020,47366,""129.062718788133"",""35.1418458723501""
22738663,일광,,F,생활서비스,F02,세탁/가사서비스,F02A01,세탁소/빨래방,S96912,"가정용 세탁업",11,서울특별시,11215,광진구,1121510300,구의동,"서울특별시 광진구 구의동 593","서울특별시 광진구 구의강변로3길 19",143200,5049,""127.09104008295"",""37.5358309604726""
22979402,로얄크리닝,,F,생활서비스,F02,세탁/가사서비스,F02A01,세탁소/빨래방,S96912,"가정용 세탁업",11,서울특별시,11620,관악구,1162010100,봉천동,"서울특별시 관악구 봉천동 892-1","서울특별시 관악구 양녕로2길 22",151050,8748,""126.947841030777"",""37.4832191150209""
22984644,프레미낭,,F,생활서비스,F01,이/미용/건강,F01A01,여성미용실,S96112,두발미용업,11,서울특별시,11650,서초구,1165010600,잠원동,"서울특별시 서초구 잠원동 58-24","서울특별시 서초구 나루터로4길 61",137797,6523,""127.013448018261"",""37.5095823555688""
22980302,종로경찰서구내이발소,,F,생활서비스,F01,이/미용/건강,F01A04,남성미용실,S96111,이용업,11,서울특별시,11110,종로구,1111013400,경운동,"서울특별시 종로구 경운동 90-4","서울특별시 종로구 율곡로 46",110310,3147,""126.984531971051"",""37.575870499072""
22742852,돈바,,Q,음식,Q09,유흥주점,Q09A01,호프/맥주,I56219,"기타 주점업",11,서울특별시,11470,양천구,1147010100,신정동,"서울특별시 양천구 신정동 900-2","서울특별시 양천구 신정중앙로23길 12",158070,7938,""126.8635339582"",""37.5274092155433""
22688355,다본다네비게이션,,D,소매,D23,자동차/자동차용품,D23A05,네비게이션판매,G45219,"기타 자동차신품 부품 및 내장품 판매업",11,서울특별시,11500,강서구,1150010100,염창동,"서울특별시 강서구 염창동 263-7","서울특별시 강서구 양천로 716",157862,7556,""126.875389779328"",""37.5493098056858""
22719703,대성금속,,F,생활서비스,F15,주택수리,F15A04,유리창호,F42420,"유리 및 창호 공사업",11,서울특별시,11620,관악구,1162010200,신림동,"서울특별시 관악구 신림동 1694","서울특별시 관악구 신림로29길 3-20",151761,8845,""126.933784369475"",""37.4746142037725""
22950789,믿음,,F,생활서비스,F01,이/미용/건강,F01A01,여성미용실,S96112,두발미용업,11,서울특별시,11110,종로구,1111014800,계동,"서울특별시 종로구 계동 69","서울특별시 종로구 계동길 91",110800,3056,""126.986664098036"",""37.5814392290505""
22999004,어쿠스틱하우스,,R,학문/교육,R05,학원-음악미술무용,R05A02,피아노/바이올린/기타,P85620,"예술 학원",11,서울특별시,11710,송파구,1171011100,방이동,"서울특별시 송파구 방이동 219-7","서울특별시 송파구 오금로31길 17",138050,5646,""127.121843725177"",""37.5074914957989""
22917064,기와집,,Q,음식,Q01,한식,Q01A01,한식/백반/한정식,I56111,"한식 음식점업",26,부산광역시,26470,연제구,2647010200,연산동,"부산광역시 연제구 연산동 708-9","부산광역시 연제구 월드컵대로111번길 10",611080,47596,""129.082162389221"",""35.1839759885682""
22940106,신안세탁,,F,생활서비스,F02,세탁/가사서비스,F02A01,세탁소/빨래방,S96912,"가정용 세탁업",11,서울특별시,11260,중랑구,1126010400,묵동,"서울특별시 중랑구 묵동 381","서울특별시 중랑구 공릉로2라길 15",131767,2036,""127.081313840024"",""37.6128583220703""
22963710,홍림헤어라인,,F,생활서비스,F01,이/미용/건강,F01A01,여성미용실,S96112,두발미용업,26,부산광역시,26470,연제구,2647010200,연산동,"부산광역시 연제구 연산동 1262-5","부산광역시 연제구 월드컵대로73번길 51",611080,47598,""129.081036657132"",""35.181047521946""
22964392,동아리퍼머대학,,F,생활서비스,F01,이/미용/건강,F01A01,여성미용실,S96112,두발미용업,26,부산광역시,26410,금정구,2641010700,구서동,"부산광역시 금정구 구서동 1009-29","부산광역시 금정구 두실로45번길 21",609802,46228,""129.086092621636"",""35.2606212231797""
22691830,삼환문구점,,D,소매,D04,취미/오락관련소매,D04A01,완구점,G47640,"게임용구, 인형 및 장난감 소매업",11,서울특별시,11530,구로구,1153010700,개봉동,"서울특별시 구로구 개봉동 470","서울특별시 구로구 남부순환로95길 54",152753,8336,""126.854695295919"",""37.4950215398807""
22946095,금성탕내이용원,,F,생활서비스,F01,이/미용/건강,F01A04,남성미용실,S96111,이용업,26,부산광역시,26470,연제구,2647010200,연산동,"부산광역시 연제구 연산동 398-10","부산광역시 연제구 과정로226번길 13",611080,47565,""129.102502119763"",""35.1884887520288""
22832515,우리해양,,D,소매,D04,취미/오락관련소매,D04A13,수족관,G47852,"애완용 동물 및 관련용품 소매업",26,부산광역시,26470,연제구,2647010200,연산동,"부산광역시 연제구 연산동 374-46","부산광역시 연제구 고분로 135-2",611080,47556,""129.097393185987"",""35.1857949461471""
22852222,잉글리쉬무무,,R,학문/교육,R04,학원-어학,R04A01,학원-외국어/어학,P85502,외국어학원,11,서울특별시,11215,광진구,1121510900,군자동,"서울특별시 광진구 군자동 345","서울특별시 광진구 군자로 85-1",143840,5002,""127.070938507282"",""37.550911304281""
22844800,공신학원,,R,학문/교육,R01,학원-보습교습입시,R01A01,학원-입시,P85501,"일반 교과 학원",11,서울특별시,11215,광진구,1121510900,군자동,"서울특별시 광진구 군자동 134-30","서울특별시 광진구 동일로 274",143839,5000,""127.071931030291"",""37.555748737309""
22862257,금산진고려홍삼,,D,소매,D10,건강/미용식품,D10A04,건강식품판매,G47216,"건강보조식품 소매업",11,서울특별시,11710,송파구,1171010500,석촌동,"서울특별시 송파구 석촌동 275-4","서울특별시 송파구 송파대로37길 38",138846,5696,""127.107934374183"",""37.5005932811359""
22997109,짱당구,,N,관광/여가/오락,N01,PC/오락/당구/볼링등,N01A03,당구장,R91135,"당구장 운영업",11,서울특별시,11470,양천구,1147010300,신월동,"서울특별시 양천구 신월동 537-6","서울특별시 양천구 신월로15길 2",158090,8030,""126.842158376459"",""37.5189030227394""
22919833,sbs노래장,,N,관광/여가/오락,N02,무도/유흥/가무,N02A01,노래방,R91223,"노래연습장 운영업",11,서울특별시,11230,동대문구,1123010900,휘경동,"서울특별시 동대문구 휘경동 34-57","서울특별시 동대문구 망우로 116",130090,2501,""127.066024889051"",""37.5909511057191""
22891405,미도방아간기름집,,F,생활서비스,F02,세탁/가사서비스,F02A04,방앗간/정미소,,,11,서울특별시,11215,광진구,1121510100,중곡동,"서울특별시 광진구 중곡동 69-22","서울특별시 광진구 긴고랑로 151",143220,4944,""127.091735020975"",""37.5587590735229""
22846444,클린서울,,F,생활서비스,F02,세탁/가사서비스,F02A05,청소/소독,,,11,서울특별시,11140,중구,1114011300,북창동,"서울특별시 중구 북창동 66","서울특별시 중구 세종대로14길 22-4",100080,4526,""126.977750168529"",""37.5626567660785""
22968744,윤경희,,F,생활서비스,F01,이/미용/건강,F01A01,여성미용실,S96112,두발미용업,11,서울특별시,11230,동대문구,1123011000,이문동,"서울특별시 동대문구 이문동 86-48","서울특별시 동대문구 외대역동로 86",130080,2428,""127.06531991309"",""37.595712045274""
22828621,이비인후과의원,,S,의료,S01,병원,S01B14,이비인후과의원,Q86201,"일반 의원",11,서울특별시,11620,관악구,1162010200,신림동,"서울특별시 관악구 신림동 617-5","서울특별시 관악구 난곡로 202",151880,8854,""126.919143744462"",""37.4730304889767""
22863547,색깔사주,,F,생활서비스,F11,개인서비스,F11A02,운명감정작명,S96992,"점술 및 유사 서비스업",11,서울특별시,11215,광진구,1121510700,화양동,"서울특별시 광진구 화양동 3-42","서울특별시 광진구 능동로13길 6",143914,5011,""127.071449942756"",""37.542526543644""
22897986,토속막걸리,,Q,음식,Q01,한식,Q01A01,한식/백반/한정식,I56111,"한식 음식점업",26,부산광역시,26380,사하구,2638010300,하단동,"부산광역시 사하구 하단동 504-3","부산광역시 사하구 낙동대로519번길 21",604020,49309,""128.964198244216"",""35.1103364149472""
22830101,안박동물병원,,S,의료,S04,수의업,S04A02,동물병원,M73100,수의업,11,서울특별시,11500,강서구,1150010200,등촌동,"서울특별시 강서구 등촌동 628-13","서울특별시 강서구 양천로 510",157030,7548,""126.856325552031"",""37.5601102850006""
22822919,법무법인진우,,F,생활서비스,F19,법무세무회계,F19B01,법무관련서비스-종합,,,11,서울특별시,11650,서초구,1165010800,서초동,"서울특별시 서초구 서초동 1573-10","서울특별시 서초구 서초중앙로 125",137070,6644,""127.013406047413"",""37.4930026170105""
22821670,더그랜드호텔명동,,O,숙박,O01,호텔/콘도,O01A01,호텔/콘도,,,11,서울특별시,11140,중구,1114012500,충무로2가,"서울특별시 중구 충무로2가 62-2","서울특별시 중구 명동8가길 38",100861,4537,""126.987135845461"",""37.5616564099961""
22825660,신수학,,R,학문/교육,R01,학원-보습교습입시,R01A01,학원-입시,P85501,"일반 교과 학원",11,서울특별시,11680,강남구,1168010700,신사동,"서울특별시 강남구 신사동 577","서울특별시 강남구 논현로175길 25",135891,6030,""127.026634390165"",""37.5254331371873""
22838864,김종서성형,,S,의료,S01,병원,S01B08,정형/성형외과,Q86201,"일반 의원",11,서울특별시,11680,강남구,1168010700,신사동,"서울특별시 강남구 신사동 599","서울특별시 강남구 논현로 842",135893,6025,""127.028711667682"",""37.5240265784064""
23185389,에이급수학,,R,학문/교육,R01,학원-보습교습입시,R01A01,학원-입시,P85501,"일반 교과 학원",11,서울특별시,11740,강동구,1174010600,둔촌동,"서울특별시 강동구 둔촌동 39-15","서울특별시 강동구 명일로10길 23",134060,5366,""127.145195919498"",""37.531694054274""
22831748,씽크붙박이장,,D,소매,D07,가정/주방/인테리어,D07A17,주방가구판매,G47520,"가구 소매업",11,서울특별시,11215,광진구,1121510900,군자동,"서울특별시 광진구 군자동 355-5","서울특별시 광진구 동일로 190",143840,5003,""127.068113973231"",""37.5487085043471""
23014550,우리탕,,F,생활서비스,F09,대중목욕탕/휴게,F09A01,욕탕업-종합,S96121,욕탕업,26,부산광역시,26290,남구,2629010600,대연동,"부산광역시 남구 대연동 1459-2","부산광역시 남구 못골로53번길 34",608020,48438,""129.088611799042"",""35.1373614548381""
23086618,지원목욕탕,,F,생활서비스,F09,대중목욕탕/휴게,F09A01,욕탕업-종합,S96121,욕탕업,26,부산광역시,26260,동래구,2626010800,온천동,"부산광역시 동래구 온천동 1441-37","부산광역시 동래구 중앙대로1307번길 40",607060,47824,""129.075774511794"",""35.2041247757424""
23292145,히트왁싱,,F,생활서비스,F01,이/미용/건강,F01A03,비만/피부관리,,,11,서울특별시,11170,용산구,1117013000,이태원동,"서울특별시 용산구 이태원동 549","서울특별시 용산구 녹사평대로40길 31",140200,4345,""126.987590558189"",""37.5347370898545""
23159194,카페크레마,,Q,음식,Q12,커피점/카페,Q12A01,커피전문점/카페/다방,I56220,"비알콜 음료점업",26,부산광역시,26710,기장군,2671025622,정관읍,"부산광역시 기장군 정관읍 매학리 719-1","부산광역시 기장군 정관읍 정관6로 5-20",619963,46017,""129.175380183702"",""35.3205025110309""
23177140,좋고좋고숯불구이집,,Q,음식,Q01,한식,Q01A02,갈비/삼겹살,I56111,"한식 음식점업",26,부산광역시,26350,해운대구,2635010800,송정동,"부산광역시 해운대구 송정동 417-5","부산광역시 해운대구 송정중앙로 10",612040,48072,""129.201947574487"",""35.183342205493""
23225450,또와식당,,Q,음식,Q01,한식,Q01A01,한식/백반/한정식,I56111,"한식 음식점업",11,서울특별시,11230,동대문구,1123010900,휘경동,"서울특별시 동대문구 휘경동 163-9","서울특별시 동대문구 휘경로14길 15-1",130090,2432,""127.063285253202"",""37.5945155482507""
23177970,대치휴게소,,Q,음식,Q12,커피점/카페,Q12A01,커피전문점/카페/다방,I56220,"비알콜 음료점업",11,서울특별시,11680,강남구,1168010600,대치동,"서울특별시 강남구 대치동 931-25","서울특별시 강남구 삼성로 319",135280,6203,""127.059713096918"",""37.5003274192559""
23255127,악스카페테리아,,Q,음식,Q12,커피점/카페,Q12A01,커피전문점/카페/다방,I56220,"비알콜 음료점업",11,서울특별시,11215,광진구,1121510400,광장동,"서울특별시 광진구 광장동 319-33","서울특별시 광진구 구천면로 20",143807,4970,""127.107951436124"",""37.5457183340134""
23189657,최경화헤어라인,,F,생활서비스,F01,이/미용/건강,F01A01,여성미용실,S96112,두발미용업,11,서울특별시,11380,은평구,1138010500,구산동,"서울특별시 은평구 구산동 1-24","서울특별시 은평구 서오릉로 145",122819,3412,""126.916455099921"",""37.611279528774""
23189734,황금면옥,,Q,음식,Q01,한식,Q01A19,냉면집,I56111,"한식 음식점업",26,부산광역시,26380,사하구,2638010100,괴정동,"부산광역시 사하구 괴정동 436-29","부산광역시 사하구 사하로198번길 29",604080,49355,""128.995193087276"",""35.0999901821053""
23300935,태후사랑,,F,생활서비스,F01,이/미용/건강,F01A01,여성미용실,S96112,두발미용업,11,서울특별시,11170,용산구,1117012100,용문동,"서울특별시 용산구 용문동 32-23","서울특별시 용산구 새창로 98",140832,4356,""126.959431599955"",""37.5385560307284""
23079088,선경사,,F,생활서비스,F02,세탁/가사서비스,F02A01,세탁소/빨래방,S96912,"가정용 세탁업",11,서울특별시,11380,은평구,1138011000,증산동,"서울특별시 은평구 증산동 185-17","서울특별시 은평구 증산서길 68",122938,3500,""126.905798436584"",""37.582573446465""
23229410,뽀송뽀송빨래방,,F,생활서비스,F02,세탁/가사서비스,F02A01,세탁소/빨래방,S96912,"가정용 세탁업",11,서울특별시,11740,강동구,1174010700,암사동,"서울특별시 강동구 암사동 489-77","서울특별시 강동구 구천면로47길 17",134050,5265,""127.134757324002"",""37.5489183100983""
23220582,세이브헤어,,F,생활서비스,F01,이/미용/건강,F01A01,여성미용실,S96112,두발미용업,11,서울특별시,11530,구로구,1153010200,구로동,"서울특별시 구로구 구로동 1263","서울특별시 구로구 새말로 31",152770,8291,""126.882759872564"",""37.5028500605707""
23220629,버거킹연희점,연희점,Q,음식,Q07,패스트푸드,Q07A04,패스트푸드,I56199,"그외 기타 음식점업",11,서울특별시,11410,서대문구,1141011700,연희동,"서울특별시 서대문구 연희동 188-2","서울특별시 서대문구 연희로 97",120825,3708,""126.930502161135"",""37.566797454407""
23150939,세피앙,,O,숙박,O02,모텔/여관/여인숙,O02A01,모텔/여관/여인숙,I55112,여관업,11,서울특별시,11110,종로구,1111013300,익선동,"서울특별시 종로구 익선동 80","서울특별시 종로구 돈화문로11가길 49",110340,3132,""126.990444980106"",""37.574776894613""
23244219,mvp베이스볼아카데미,,R,학문/교육,R07,학원-예능취미체육,R07A17,학원-스포츠/재즈댄스,P85612,"레크레이션 교육기관",11,서울특별시,11710,송파구,1171010500,석촌동,"서울특별시 송파구 석촌동 252-1","서울특별시 송파구 가락로 58",138845,5695,""127.102925381542"",""37.4995461621229""
23268224,나르시스스킨케어,,F,생활서비스,F01,이/미용/건강,F01A03,비만/피부관리,,,26,부산광역시,26410,금정구,2641010800,장전동,"부산광역시 금정구 장전동 541-26","부산광역시 금정구 금강로 200",609393,46297,""129.082701238784"",""35.2262370238462""
23008623,제일,,F,생활서비스,F02,세탁/가사서비스,F02A01,세탁소/빨래방,S96912,"가정용 세탁업",11,서울특별시,11290,성북구,1129013900,석관동,"서울특별시 성북구 석관동 338-376","서울특별시 성북구 화랑로22가길 42",136820,2791,""127.052874051193"",""37.6073804280876""
23139031,모던이용원,,F,생활서비스,F01,이/미용/건강,F01A04,남성미용실,S96111,이용업,26,부산광역시,26290,남구,2629010600,대연동,"부산광역시 남구 대연동 245","부산광역시 남구 황령대로319번가길 190-6",608755,48426,""129.089036373829"",""35.1511128699196""
23019702,영네일,,F,생활서비스,F01,이/미용/건강,F01A02,발/네일케어,S96119,기타미용업,26,부산광역시,26470,연제구,2647010100,거제동,"부산광역시 연제구 거제동 891-14","부산광역시 연제구 아시아드대로 95",611070,47501,""129.066604088233"",""35.1931729441437""
23246858,김상하수학학원,,R,학문/교육,R01,학원-보습교습입시,R01A01,학원-입시,P85501,"일반 교과 학원",11,서울특별시,11260,중랑구,1126010500,망우동,"서울특별시 중랑구 망우동 470-10","서울특별시 중랑구 망우로 410",131230,2164,""127.097576634211"",""37.5989905977884""
23053488,남산장,,O,숙박,O02,모텔/여관/여인숙,O02A01,모텔/여관/여인숙,I55112,여관업,11,서울특별시,11170,용산구,1117013100,한남동,"서울특별시 용산구 한남동 683-138","서울특별시 용산구 이태원로 256",140892,4400,""127.001257809828"",""37.537358383301""
23233730,오늘헤어,,F,생활서비스,F01,이/미용/건강,F01A01,여성미용실,S96112,두발미용업,11,서울특별시,11380,은평구,1138010300,불광동,"서울특별시 은평구 불광동 645","서울특별시 은평구 불광로 64",122040,3364,""126.932456180587"",""37.6130742552187""
23233746,수미용실,,F,생활서비스,F01,이/미용/건강,F01A01,여성미용실,S96112,두발미용업,11,서울특별시,11620,관악구,1162010200,신림동,"서울특별시 관악구 신림동 1576-16","서울특별시 관악구 남부순환로 1534",151899,8773,""126.921050383543"",""37.4827432164394""
23299100,OB베어,,Q,음식,Q09,유흥주점,Q09A01,호프/맥주,I56219,"기타 주점업",11,서울특별시,11440,마포구,1144012200,합정동,"서울특별시 마포구 합정동 388-1","서울특별시 마포구 월드컵로3길 35",121885,4025,""126.910775684244"",""37.5502272223367""
23299190,연세피아노음악원,,R,학문/교육,R05,학원-음악미술무용,R05A02,피아노/바이올린/기타,P85620,"예술 학원",11,서울특별시,11710,송파구,1171010400,송파동,"서울특별시 송파구 송파동 54-13","서울특별시 송파구 백제고분로45길 22-1",138170,5619,""127.109144551531"",""37.5101085917663""
23211489,쉐이핏,,F,생활서비스,F01,이/미용/건강,F01A03,비만/피부관리,,,11,서울특별시,11440,마포구,1144011000,노고산동,"서울특별시 마포구 노고산동 57-4","서울특별시 마포구 신촌로 92",121807,4058,""126.935659570451"",""37.5551665979216""
23011076,아라우나,,S,의료,S04,수의업,S04A02,동물병원,M73100,수의업,11,서울특별시,11215,광진구,1121510500,자양동,"서울특별시 광진구 자양동 553-531","서울특별시 광진구 뚝섬로 548",143190,5090,""127.070859906318"",""37.5344484758055""
23042123,블루컷,,F,생활서비스,F01,이/미용/건강,F01A01,여성미용실,S96112,두발미용업,11,서울특별시,11215,광진구,1121510100,중곡동,"서울특별시 광진구 중곡동 114-18","서울특별시 광진구 자양로43길 58",143220,4953,""127.090151141172"",""37.5531153113258""
23154149,에프엠남성헤어샵,,F,생활서비스,F01,이/미용/건강,F01A04,남성미용실,S96111,이용업,11,서울특별시,11215,광진구,1121510500,자양동,"서울특별시 광진구 자양동 512-3","서울특별시 광진구 능동로8길 22",143190,5070,""127.070339398799"",""37.5362735159498""
23154251,서명옥헤어샵,,F,생활서비스,F01,이/미용/건강,F01A01,여성미용실,S96112,두발미용업,11,서울특별시,11230,동대문구,1123011000,이문동,"서울특별시 동대문구 이문동 175-11","서울특별시 동대문구 이문로42길 92",130080,2424,""127.067196528426"",""37.6005024191803""
23279538,한양이용원,,F,생활서비스,F01,이/미용/건강,F01A04,남성미용실,S96111,이용업,11,서울특별시,11410,서대문구,1141011000,북아현동,"서울특별시 서대문구 북아현동 130-1","서울특별시 서대문구 북아현로4길 8",120819,3757,""126.957073970383"",""37.5591510846872""
23020970,현대,,F,생활서비스,F02,세탁/가사서비스,F02A01,세탁소/빨래방,S96912,"가정용 세탁업",11,서울특별시,11680,강남구,1168010800,논현동,"서울특별시 강남구 논현동 174-7","서울특별시 강남구 논현로119길 17",135010,6117,""127.031087588555"",""37.5100167055437""
23021625,류미경보몽드,,F,생활서비스,F01,이/미용/건강,F01A01,여성미용실,S96112,두발미용업,11,서울특별시,11680,강남구,1168010500,삼성동,"서울특별시 강남구 삼성동 54-2","서울특별시 강남구 학동로88길 12",135090,6084,""127.052643059388"",""37.5183460992083""
23172677,브루본스테이크,,Q,음식,Q06,양식,Q06A08,스테이크전문점,I56114,"서양식 음식점업",11,서울특별시,11230,동대문구,1123010800,회기동,"서울특별시 동대문구 회기동 346-3","서울특별시 동대문구 회기로 175",130881,2452,""127.055727818154"",""37.5903826128879""
23110503,수정포토,,F,생활서비스,F06,사진,F06A01,사진관,M73301,"인물사진 및 행사용비디오 촬영업",11,서울특별시,11680,강남구,1168011800,도곡동,"서울특별시 강남구 도곡동 467-12","서울특별시 강남구 남부순환로 2806",135700,6292,""127.052899458271"",""37.489099875394""
23023565,제이휴;미용실,,F,생활서비스,F01,이/미용/건강,F01A01,여성미용실,S96112,두발미용업,11,서울특별시,11140,중구,1114017100,중림동,"서울특별시 중구 중림동 188","서울특별시 중구 중림로 9",100859,4504,""126.964577065176"",""37.5592261363588""
23044133,옥수장,,O,숙박,O02,모텔/여관/여인숙,O02A01,모텔/여관/여인숙,I55112,여관업,11,서울특별시,11200,성동구,1120011500,성수동2가,"서울특별시 성동구 성수동2가 299-152","서울특별시 성동구 성수일로12길 15-1",133120,4792,""127.053063474973"",""37.5486248054752""
23158417,가이야레스토랑,,Q,음식,Q06,양식,Q06A01,정통양식/경양식,I56114,"서양식 음식점업",11,서울특별시,11170,용산구,1117013100,한남동,"서울특별시 용산구 한남동 683-141","서울특별시 용산구 이태원로 244",140892,4400,""127.000488934792"",""37.5364688514143""
23270352,최용훈국어논술,,R,학문/교육,R01,학원-보습교습입시,R01A01,학원-입시,P85501,"일반 교과 학원",11,서울특별시,11710,송파구,1171011100,방이동,"서울특별시 송파구 방이동 190-4","서울특별시 송파구 위례성대로16길 11",138050,5638,""127.124961985459"",""37.5116685227547""
23271503,스시한판,,Q,음식,Q03,일식/수산물,Q03A03,음식점-초밥전문,I56113,"일식 음식점업",11,서울특별시,11680,강남구,1168010500,삼성동,"서울특별시 강남구 삼성동 159","서울특별시 강남구 영동대로 513",135798,6164,""127.057100286394"",""37.5129393969289""
23075716,크린토피아성내진주점,성내진주점,F,생활서비스,F02,세탁/가사서비스,F02A01,세탁소/빨래방,S96912,"가정용 세탁업",11,서울특별시,11710,송파구,1171010200,신천동,"서울특별시 송파구 신천동 20-4","서울특별시 송파구 올림픽로 399",138795,5508,""127.110275110192"",""37.5187312298487""
23076522,목림레포츠,,F,생활서비스,F09,대중목욕탕/휴게,F09A03,목욕업-찜질방,S96121,욕탕업,26,부산광역시,26470,연제구,2647010200,연산동,"부산광역시 연제구 연산동 1369-9","부산광역시 연제구 중앙대로1043번길 50",611080,47542,""129.075194831806"",""35.1818026042831""
23239058,수정탕구내이용원,,F,생활서비스,F01,이/미용/건강,F01A04,남성미용실,S96111,이용업,26,부산광역시,26320,북구,2632010400,덕천동,"부산광역시 북구 덕천동 450-11","부산광역시 북구 덕천로 31",616100,46578,""129.008261724262"",""35.2080859869337""
23038631,명국수,,Q,음식,Q04,분식,Q04A01,라면김밥분식,I56194,"분식 및 김밥 전문점",11,서울특별시,11200,성동구,1120011500,성수동2가,"서울특별시 성동구 성수동2가 339-136","서울특별시 성동구 뚝섬로 385-40",133120,4781,""127.054650124579"",""37.539482849627""
23458995,아이앤건설,,F,생활서비스,F15,주택수리,F15A03,배관난방보일러,F42201,"배관 및 냉·난방 공사업",26,부산광역시,26500,수영구,2650010500,남천동,"부산광역시 수영구 남천동 15-7","부산광역시 수영구 남천동로24번길 22",613010,48308,""129.110697656081"",""35.1411902524117""
23330237,강산애칼국수,,Q,음식,Q04,분식,Q04A02,국수/만두/칼국수,I56194,"분식 및 김밥 전문점",26,부산광역시,26350,해운대구,2635010700,좌동,"부산광역시 해운대구 좌동 906","부산광역시 해운대구 좌동로91번길 36",612030,48079,""129.17426231665"",""35.1736986491669""
23460123,불러불러노래연습장,,N,관광/여가/오락,N02,무도/유흥/가무,N02A01,노래방,R91223,"노래연습장 운영업",26,부산광역시,26410,금정구,2641011000,서동,"부산광역시 금정구 서동 205-15","부산광역시 금정구 서동로 187-7",609400,46321,""129.106909251839"",""35.2146967685813""
23460721,하나은행,대연동지점,F,생활서비스,F12,광고/인쇄,F12A01,인쇄종합,C18119,"기타 인쇄업",26,부산광역시,26290,남구,2629010600,대연동,"부산광역시 남구 대연동 1741-11","부산광역시 남구 수영로 233",608751,48445,""129.09220718945"",""35.1354361801508""
23358385,서래부대찌개와차돌구이,,Q,음식,Q01,한식,Q01A07,부대찌개/섞어찌개,I56111,"한식 음식점업",11,서울특별시,11650,서초구,1165010700,반포동,"서울특별시 서초구 반포동 94-2","서울특별시 서초구 사평대로 122",137040,6576,""126.997881631793"",""37.499611826385""
23398378,조개촌,,Q,음식,Q03,일식/수산물,Q03A09,조개구이전문,I56111,"한식 음식점업",11,서울특별시,11440,마포구,1144010400,도화동,"서울특별시 마포구 도화동 550","서울특별시 마포구 도화길 28",121772,4170,""126.949606628232"",""37.5395953484836""
23140890,헬로우죠이펌,,F,생활서비스,F01,이/미용/건강,F01A01,여성미용실,S96112,두발미용업,11,서울특별시,11215,광진구,1121510500,자양동,"서울특별시 광진구 자양동 13-1","서울특별시 광진구 동일로20길 44",143190,5072,""127.065904584606"",""37.5407527890635""
23128301,상록,,F,생활서비스,F01,이/미용/건강,F01A04,남성미용실,S96111,이용업,11,서울특별시,11680,강남구,1168010100,역삼동,"서울특별시 강남구 역삼동 701","서울특별시 강남구 언주로 508",135706,6152,""127.042725020431"",""37.5039483776607""
23521852,게임엑스포,,F,생활서비스,F13,기타서비스업,F13A13,상품전시,N75992,"전시 및 행사 대행업",11,서울특별시,11110,종로구,1111016800,동숭동,"서울특별시 종로구 동숭동 1-49","서울특별시 종로구 대학로8가길 56",110809,3086,""127.002844848983"",""37.5830006716147""
23490667,필스포츠마사지,,N,관광/여가/오락,N05,요가/단전/마사지,N05A06,스포츠마사지,S96122,마사지업,26,부산광역시,26410,금정구,2641011000,서동,"부산광역시 금정구 서동 202-8","부산광역시 금정구 서동로176번길 10",609400,46327,""129.105253879061"",""35.2141169818552""
23491829,가득드림,,Q,음식,Q04,분식,Q04A01,라면김밥분식,I56194,"분식 및 김밥 전문점",11,서울특별시,11680,강남구,1168010500,삼성동,"서울특별시 강남구 삼성동 159","서울특별시 강남구 영동대로 513",135798,6164,""127.057100286394"",""37.5129393969289""
23535086,삼화페인트,,D,소매,D07,가정/주방/인테리어,D07A15,유리/페인트/철물건축자재,G47519,"페인트, 유리 및 기타 건설자재 소매업",11,서울특별시,11230,동대문구,1123010600,장안동,"서울특별시 동대문구 장안동 358-22","서울특별시 동대문구 천호대로91길 84",130100,2642,""127.070716134638"",""37.5651731622285""
23434524,효림철학관,,F,생활서비스,F11,개인서비스,F11A02,운명감정작명,S96992,"점술 및 유사 서비스업",26,부산광역시,26230,부산진구,2623010100,양정동,"부산광역시 부산진구 양정동 393-17","부산광역시 부산진구 중앙대로909번길 8",614050,47213,""129.069606764539"",""35.171765545702""
23334182,오스카Ⅰ,,Q,음식,Q09,유흥주점,Q09A10,룸살롱/단란주점,I56211,"일반유흥 주점업",26,부산광역시,26230,부산진구,2623010300,부전동,"부산광역시 부산진구 부전동 522-40","부산광역시 부산진구 부전로 18-5",614030,47288,""129.057124969482"",""35.1522428039393""
23335186,유성기원,,N,관광/여가/오락,N01,PC/오락/당구/볼링등,N01A09,기원,R91293,"기원 운영업",26,부산광역시,26230,부산진구,2623010300,부전동,"부산광역시 부산진구 부전동 262-1","부산광역시 부산진구 새싹로8번길 19",614030,47254,""129.059302409647"",""35.1593538012295""
23090590,학생문구사,,D,소매,D08,사무/문구/컴퓨터,D08A01,사무/문구용품,G47612,"문구용품 소매업",26,부산광역시,26200,영도구,2620012100,동삼동,"부산광역시 영도구 동삼동 318-1","부산광역시 영도구 웃서발로 80-7",606080,49101,""129.0707377936"",""35.0787405204154""
23040650,성심칫과,,S,의료,S01,병원,S01B04,치과의원,Q86202,"치과 의원",26,부산광역시,26410,금정구,2641010800,장전동,"부산광역시 금정구 장전동 116-7","부산광역시 금정구 수림로 56",609836,46247,""129.086301949002"",""35.2400679680696""
23401008,쿠키네일,,F,생활서비스,F01,이/미용/건강,F01A02,발/네일케어,S96119,기타미용업,26,부산광역시,26200,영도구,2620011700,봉래동3가,"부산광역시 영도구 봉래동3가 132-2","부산광역시 영도구 대교로14번길 28",606063,49005,""129.044294325909"",""35.0945924434797""
23030355,고미진헤어라인,,F,생활서비스,F01,이/미용/건강,F01A01,여성미용실,S96112,두발미용업,26,부산광역시,26230,부산진구,2623011100,개금동,"부산광역시 부산진구 개금동 455","부산광역시 부산진구 백양대로300번길 20",614751,47174,""129.019019207205"",""35.1548678423805""
23120173,선경등산용품점,,D,소매,D14,운동/경기용품소매,D14A08,등산용품판매,G47631,"운동 및 경기용품 소매업",11,서울특별시,11215,광진구,1121510500,자양동,"서울특별시 광진구 자양동 553-219","서울특별시 광진구 뚝섬로30길 23",143190,5085,""127.06664222713"",""37.5351360580443""
23499023,모두모두콜라텍,,N,관광/여가/오락,N02,무도/유흥/가무,N02A06,무도장,R91291,"무도장 운영업",26,부산광역시,26230,부산진구,2623010300,부전동,"부산광역시 부산진구 부전동 263-25","부산광역시 부산진구 새싹로8번길 29",614030,47254,""129.059536503368"",""35.1596311856748""
23467427,아스타앤드리치,,F,생활서비스,F05,인력/고용/용역알선,F05A02,인력공급/고용알선,,,11,서울특별시,11530,구로구,1153010200,구로동,"서울특별시 구로구 구로동 49","서울특별시 구로구 공원로 26",152050,8297,""126.892134347695"",""37.4998838144852""
23501053,윤아미용실,,F,생활서비스,F01,이/미용/건강,F01A01,여성미용실,S96112,두발미용업,11,서울특별시,11620,관악구,1162010200,신림동,"서울특별시 관악구 신림동 646-96","서울특별시 관악구 난곡로26길 39",151883,8855,""126.921863927503"",""37.4701899979764""
23402967,김영희해물찜전골,경복궁점,Q,음식,Q03,일식/수산물,Q03A08,매운탕전문,I56111,"한식 음식점업",11,서울특별시,11110,종로구,1111011300,필운동,"서울특별시 종로구 필운동 207","서울특별시 종로구 사직로 103-17",110044,3041,""126.970295358169"",""37.5763148270682""
23337146,랑이와허브다이어트,,D,소매,D10,건강/미용식품,D10A01,다이어트상품판매,G47216,"건강보조식품 소매업",26,부산광역시,26290,남구,2629010900,문현동,"부산광역시 남구 문현동 94-4","부산광역시 남구 진남로 173-1",608040,48446,""129.078412399522"",""35.1419415856352""
23004818,서희경사회,,R,학문/교육,R01,학원-보습교습입시,R01A01,학원-입시,P85501,"일반 교과 학원",26,부산광역시,26410,금정구,2641010700,구서동,"부산광역시 금정구 구서동 258-1","부산광역시 금정구 금강로 466-1",609310,46243,""129.088389032208"",""35.2490810126588""
23307159,명금당,,D,소매,D26,시계/귀금속소매,D26A03,금은방,G47830,"시계 및 귀금속 소매업",11,서울특별시,11620,관악구,1162010100,봉천동,"서울특별시 관악구 봉천동 952-16","서울특별시 관악구 은천로 31",151050,8717,""126.938830247675"",""37.4863552755044""
23307484,김영훈수학,,R,학문/교육,R01,학원-보습교습입시,R01A01,학원-입시,P85501,"일반 교과 학원",11,서울특별시,11710,송파구,1171011100,방이동,"서울특별시 송파구 방이동 124-11","서울특별시 송파구 오금로 197",138050,5643,""127.116178315474"",""37.5083412907816""
23504009,도서출판논문의집,,F,생활서비스,F08,대행업,F08A06,복사대행,N75912,복사업,26,부산광역시,26290,남구,2629010600,대연동,"부산광역시 남구 대연동 496-4","부산광역시 남구 용소로 38-1",608810,48498,""129.10083327458"",""35.1339159029323""
23446268,르사이공코엑스몰점,코엑스몰점,Q,음식,Q02,중식,Q02A00,중국음식/중국집,I56112,"중식 음식점업",11,서울특별시,11680,강남구,1168010500,삼성동,"서울특별시 강남구 삼성동 159","서울특별시 강남구 영동대로 513",135798,6164,""127.059139102428"",""37.5118203253706""
23341703,미니스톱반송삼한점,반송삼한점,D,소매,D03,종합소매점,D03A01,편의점,G47122,"체인화 편의점",26,부산광역시,26350,해운대구,2635010100,반송동,"부산광역시 해운대구 반송동 877-4","부산광역시 해운대구 신반송로 168",612080,48011,""129.161279954006"",""35.2287806698528""
23096585,영화,,F,생활서비스,F01,이/미용/건강,F01A01,여성미용실,S96112,두발미용업,11,서울특별시,11545,금천구,1154510300,시흥동,"서울특별시 금천구 시흥동 790-38","서울특별시 금천구 독산로44길 15",153030,8567,""126.905604331365"",""37.4610930832777""
23509589,Cafe문달,,Q,음식,Q12,커피점/카페,Q12A01,커피전문점/카페/다방,I56220,"비알콜 음료점업",11,서울특별시,11650,서초구,1165010100,방배동,"서울특별시 서초구 방배동 927-35","서울특별시 서초구 방배로19길 25",137060,6682,""126.993669214693"",""37.4848347786317""
23318066,재활용센타,,D,소매,D24,중고품소매/교환,D24A03,중고가전가구,,,11,서울특별시,11620,관악구,1162010200,신림동,"서울특별시 관악구 신림동 92-284","서울특별시 관악구 신림로 224-1",151853,8783,""126.936523204665"",""37.4776033473973""
23377646,디아트그래픽스,,F,생활서비스,F13,기타서비스업,F13A11,패션디자인,M73209,"기타 전문 디자인업",11,서울특별시,11680,강남구,1168010800,논현동,"서울특별시 강남구 논현동 123-10","서울특별시 강남구 학동로6길 15",135010,6111,""127.024266964203"",""37.5108886442808""
23476077,수제돈까스탕수육,,Q,음식,Q02,중식,Q02A01,탕수육전문점,I56112,"중식 음식점업",11,서울특별시,11380,은평구,1138010400,갈현동,"서울특별시 은평구 갈현동 493-7","서울특별시 은평구 연서로21길 32",122050,3334,""126.914580016346"",""37.6156052598299""
23389170,세원나라,,L,부동산,L03,분양,L03A04,건물분양-종합,,,11,서울특별시,11680,강남구,1168011500,수서동,"서울특별시 강남구 수서동 724","서울특별시 강남구 광평로 280",135744,6367,""127.103094324391"",""37.4873110374136""
23479684,후네일,,F,생활서비스,F01,이/미용/건강,F01A02,발/네일케어,S96119,기타미용업,26,부산광역시,26410,금정구,2641010700,구서동,"부산광역시 금정구 구서동 258-58","부산광역시 금정구 금강로 450",609310,46243,""129.088898681894"",""35.2477514049744""
23390038,아우르미카페,,Q,음식,Q12,커피점/카페,Q12A01,커피전문점/카페/다방,I56220,"비알콜 음료점업",26,부산광역시,26290,남구,2629010900,문현동,"부산광역시 남구 문현동 353-1","부산광역시 남구 지게골로 56",608040,48465,""129.07092245155"",""35.1356261427911""
23035497,명지레포츠센터이용원,,F,생활서비스,F01,이/미용/건강,F01A04,남성미용실,S96111,이용업,26,부산광역시,26440,강서구,2644010400,명지동,"부산광역시 강서구 명지동 3226-1","부산광역시 강서구 명지오션시티13로 12-11",618814,46726,""128.898857350631"",""35.0908090570713""
23423287,유사나코리아,,D,소매,D10,건강/미용식품,D10A04,건강식품판매,G47216,"건강보조식품 소매업",11,서울특별시,11320,도봉구,1132010500,쌍문동,"서울특별시 도봉구 쌍문동 59","서울특별시 도봉구 해등로 229",132777,1430,""127.031257997592"",""37.6576178947049""
23354423,돈비치노래주점,,Q,음식,Q09,유흥주점,Q09A10,룸살롱/단란주점,I56211,"일반유흥 주점업",26,부산광역시,26500,수영구,2650010400,광안동,"부산광역시 수영구 광안동 199-7","부산광역시 수영구 광남로 96",613100,48303,""129.115092691272"",""35.1504522153774""
23383340,디자인미디어,,F,생활서비스,F13,기타서비스업,F13A11,패션디자인,M73209,"기타 전문 디자인업",11,서울특별시,11440,마포구,1144012000,서교동,"서울특별시 마포구 서교동 362-7","서울특별시 마포구 와우산로 75",121837,4041,""126.92305142571"",""37.5512408691464""
23069979,권문현수학전문학원,,R,학문/교육,R01,학원-보습교습입시,R01A01,학원-입시,P85501,"일반 교과 학원",26,부산광역시,26200,영도구,2620012000,청학동,"부산광역시 영도구 청학동 7-37","부산광역시 영도구 태종로 355",606818,49009,""129.064282432894"",""35.0950225803091""
23393637,프렌즈PC방,,N,관광/여가/오락,N01,PC/오락/당구/볼링등,N01A01,인터넷PC방,R91222,"컴퓨터 게임방 운영업",11,서울특별시,11110,종로구,1111017400,창신동,"서울특별시 종로구 창신동 647-15","서울특별시 종로구 창신길 49",110540,3097,""127.010427272357"",""37.5738468229343""
23394172,아름다운세상,,F,생활서비스,F02,세탁/가사서비스,F02A05,청소/소독,,,11,서울특별시,11215,광진구,1121510300,구의동,"서울특별시 광진구 구의동 229-43","서울특별시 광진구 광나루로 544",143200,5032,""127.089983279299"",""37.5445810573288""
23134986,싱글벙글사,,F,생활서비스,F02,세탁/가사서비스,F02A01,세탁소/빨래방,S96912,"가정용 세탁업",11,서울특별시,11200,성동구,1120010900,금호동1가,"서울특별시 성동구 금호동1가 132-13","서울특별시 성동구 행당로1길 21-10",133800,4721,""127.024338457529"",""37.5575095387055""
23483843,더비즈메이커,,L,부동산,L03,분양,L03A01,주택공급,L68121,"주거용 건물 개발 및 공급업",11,서울특별시,11470,양천구,1147010200,목동,"서울특별시 양천구 목동 923-14","서울특별시 양천구 목동동로 233-1",158718,7995,""126.871554250266"",""37.5274771147""
23485025,브레드원,,Q,음식,Q08,제과제빵떡케익,Q08A01,제과점,I56191,제과점업,11,서울특별시,11350,노원구,1135010500,상계동,"서울특별시 노원구 상계동 730-2","서울특별시 노원구 동일로 1383",139753,1762,""127.060646299498"",""37.65217006172""
23327603,다니엘해법영어교실,,R,학문/교육,R04,학원-어학,R04A02,학원-어린이영어,P85502,외국어학원,11,서울특별시,11215,광진구,1121510500,자양동,"서울특별시 광진구 자양동 516-3","서울특별시 광진구 뚝섬로37길 11",143190,5070,""127.071496074905"",""37.5351563004917""
23945394,엑스코그룹코리아,,F,생활서비스,F13,기타서비스업,F13A13,상품전시,N75992,"전시 및 행사 대행업",11,서울특별시,11215,광진구,1121510900,군자동,"서울특별시 광진구 군자동 243","서울특별시 광진구 능동로 253",143837,4998,""127.076766649082"",""37.5527681302093""
24086110,순수한의원,,S,의료,S01,병원,S01B06,한의원,Q86203,한의원,26,부산광역시,26230,부산진구,2623010700,초읍동,"부산광역시 부산진구 초읍동 291-1","부산광역시 부산진구 성지로 159",614872,47124,""129.047330817574"",""35.1818664789897""
23943203,카운테스마라롯데동래점,롯데동래점,D,소매,D05,의복의류,D05A09,남성의류전문점,,,26,부산광역시,26260,동래구,2626010800,온천동,"부산광역시 동래구 온천동 502-3","부산광역시 동래구 중앙대로 1393",607716,47727,""129.077500271184"",""35.2117261185445""
23617499,형은비즈공예,,D,소매,D02,선물/팬시/기념품,D02A01,선물용품판매,G47842,"관광 민예품 및 선물용품 소매업",11,서울특별시,11215,광진구,1121510500,자양동,"서울특별시 광진구 자양동 761","서울특별시 광진구 뚝섬로 542",143190,5090,""127.070659166452"",""37.5342126225333""
23649000,광진명문보습힉원,,R,학문/교육,R01,학원-보습교습입시,R01A01,학원-입시,P85501,"일반 교과 학원",11,서울특별시,11215,광진구,1121510100,중곡동,"서울특별시 광진구 중곡동 166-44","서울특별시 광진구 능동로 397",143220,4908,""127.083387915915"",""37.5647406072134""
23599559,에이넷디자인앤마케팅,,D,소매,D25,기타판매업,D25A23,통신판매,G47911,전자상거래업,11,서울특별시,11500,강서구,1150010400,가양동,"서울특별시 강서구 가양동 449-21","서울특별시 강서구 양천로 551-24",157200,7532,""126.861935938218"",""37.5588580025072""
23574664,그린엔지니어링,,F,생활서비스,F15,주택수리,F15A03,배관난방보일러,F42201,"배관 및 냉·난방 공사업",11,서울특별시,11620,관악구,1162010100,봉천동,"서울특별시 관악구 봉천동 635-459","서울특별시 관악구 국회단지15길 35",151050,8713,""126.939904726732"",""37.4895366187638""
23736596,위커뮤니케이션인피니티플라이트,,F,생활서비스,F13,기타서비스업,F13A13,상품전시,N75992,"전시 및 행사 대행업",11,서울특별시,11650,서초구,1165011100,신원동,"서울특별시 서초구 신원동 215-4","서울특별시 서초구 청룡마을길 5",137160,6802,""127.057784210848"",""37.4458879665543""
23788261,두로인터내셔널,,F,생활서비스,F13,기타서비스업,F13A03,상품포장,N75994,"포장 및 충전업",11,서울특별시,11470,양천구,1147010100,신정동,"서울특별시 양천구 신정동 296-17","서울특별시 양천구 신목로7길 9",158070,8014,""126.871344291366"",""37.5196360635485""
23820146,네오부동산투자자문,,L,부동산,L01,부동산중개,L01A01,부동산중개,L68221,"부동산 자문 및 중개업",11,서울특별시,11440,마포구,1144012100,동교동,"서울특별시 마포구 동교동 200-29","서울특별시 마포구 동교로 193",121819,3993,""126.922517238605"",""37.5576874352908""
23739372,디오니,,D,소매,D05,의복의류,D05A01,일반의류,G47416,"셔츠 및 기타 의복 소매업",11,서울특별시,11320,도봉구,1132010700,창동,"서울특별시 도봉구 창동 674-75","서울특별시 도봉구 덕릉로63길 106",132040,1486,""127.039895736879"",""37.6460471693775""
23663106,호남인력,,F,생활서비스,F05,인력/고용/용역알선,F05A02,인력공급/고용알선,,,11,서울특별시,11500,강서구,1150010300,화곡동,"서울특별시 강서구 화곡동 982-1","서울특별시 강서구 화곡로 282",157010,7663,""126.848032097878"",""37.5496227201089""
23728678,닥터존,,D,소매,D06,가방/신발/액세서리,D06A07,양품점,G47419,"기타 섬유, 직물 및 의복액세서리 소매업",11,서울특별시,11215,광진구,1121510100,중곡동,"서울특별시 광진구 중곡동 132-10","서울특별시 광진구 천호대로 589-1",143220,4930,""127.083563758579"",""37.5559297068338""
23838563,동현씨와이,,L,부동산,L03,분양,L03A04,건물분양-종합,,,11,서울특별시,11680,강남구,1168010100,역삼동,"서울특별시 강남구 역삼동 707-10","서울특별시 강남구 언주로90길 28",135080,6211,""127.045500020686"",""37.5027453977919""
23840932,영플랜닝,,F,생활서비스,F13,기타서비스업,F13A13,상품전시,N75992,"전시 및 행사 대행업",11,서울특별시,11470,양천구,1147010200,목동,"서울특별시 양천구 목동 919","서울특별시 양천구 목동서로 186",158050,7992,""126.871624755056"",""37.5303070503921""
23591613,ACE허브클럽,,D,소매,D10,건강/미용식품,D10A01,다이어트상품판매,G47216,"건강보조식품 소매업",26,부산광역시,26710,기장군,2671025628,정관읍,"부산광역시 기장군 정관읍 용수리 1387","부산광역시 기장군 정관읍 정관4로 24",619745,46016,""129.170353667976"",""35.3250400281188""
23546127,에이케이네트워크,,L,부동산,L03,분양,L03A04,건물분양-종합,,,11,서울특별시,11530,구로구,1153010200,구로동,"서울특별시 구로구 구로동 106-3","서울특별시 구로구 공원로 7",152050,8298,""126.892174406116"",""37.4979379331102""
23704744,코리아카닷컴,,D,소매,D25,기타판매업,D25A23,통신판매,G47911,전자상거래업,11,서울특별시,11290,성북구,1129011500,삼선동5가,"서울특별시 성북구 삼선동5가 334","서울특별시 성북구 보문로 152",136045,2848,""127.017684808151"",""37.5884232259756""
23853716,대림정밀,,D,소매,D23,자동차/자동차용품,D23A06,자동차부품판매,G45219,"기타 자동차신품 부품 및 내장품 판매업",11,서울특별시,11560,영등포구,1156012700,양평동3가,"서울특별시 영등포구 양평동3가 13","서울특별시 영등포구 양산로 57-5",150103,7271,""126.889344938043"",""37.5255643678658""
23797701,테크노폴리스,,F,생활서비스,F13,기타서비스업,F13A01,사업경영상담,M71531,경영컨설팅업,11,서울특별시,11680,강남구,1168011800,도곡동,"서울특별시 강남구 도곡동 467-18","서울특별시 강남구 언주로 122",135270,6295,""127.051059251376"",""37.4870757487531""
23594244,게이트벤처,,F,생활서비스,F13,기타서비스업,F13A01,사업경영상담,M71531,경영컨설팅업,11,서울특별시,11680,강남구,1168010100,역삼동,"서울특별시 강남구 역삼동 679-5","서울특별시 강남구 테헤란로 201",135978,6141,""127.037160503062"",""37.5012991027665""
23763209,뉴디즈니,,D,소매,D03,종합소매점,D03A02,수퍼마켓,G47121,슈퍼마켓,11,서울특별시,11530,구로구,1153010800,오류동,"서울특별시 구로구 오류동 297-6","서울특별시 구로구 오리로 1163",152100,8363,""126.837768263329"",""37.4875938187129""
23783860,쇼팩,,N,관광/여가/오락,N03,연극/영화/극장,N03A06,연극/음악/예술관련기타,,,11,서울특별시,11680,강남구,1168010100,역삼동,"서울특별시 강남구 역삼동 793-42","서울특별시 강남구 논현로63길 52",135080,6256,""127.036727902847"",""37.4918344875682""
23605074,이머니,,D,소매,D25,기타판매업,D25A23,통신판매,G47911,전자상거래업,11,서울특별시,11680,강남구,1168010100,역삼동,"서울특별시 강남구 역삼동 680","서울특별시 강남구 봉은사로 302",135080,6143,""127.039384453965"",""37.5086788278875""
23672838,꿈씨,,D,소매,D25,기타판매업,D25A23,통신판매,G47911,전자상거래업,11,서울특별시,11530,구로구,1153010200,구로동,"서울특별시 구로구 구로동 98-4","서울특별시 구로구 가마산로 268",152050,8302,""126.890354760136"",""37.4955691263463""
23689973,캐스팅나우,,F,생활서비스,F05,인력/고용/용역알선,F05A02,인력공급/고용알선,,,11,서울특별시,11680,강남구,1168010700,신사동,"서울특별시 강남구 신사동 590-16","서울특별시 강남구 논현로152길 13",135893,6025,""127.029267973947"",""37.5212559132182""
24136845,프로그맨구구,,D,소매,D25,기타판매업,D25A23,통신판매,G47911,전자상거래업,11,서울특별시,11350,노원구,1135010600,중계동,"서울특별시 노원구 중계동 505","서울특별시 노원구 섬밭로 265",139784,1774,""127.063801801651"",""37.6391301310474""
24793955,삼한할인슈퍼,,D,소매,D03,종합소매점,D03A02,수퍼마켓,G47121,슈퍼마켓,26,부산광역시,26320,북구,2632010200,화명동,"부산광역시 북구 화명동 732","부산광역시 북구 화명대로 97-26",616798,46532,""129.018781120231"",""35.2351747467522""
24038130,브릭,,R,학문/교육,R02,학원-창업취업취미,R02A07,학원-광고디자인,P85659,"기타 기술 및 직업훈련학원",11,서울특별시,11215,광진구,1121510700,화양동,"서울특별시 광진구 화양동 488-2","서울특별시 광진구 광나루로26길 15",143926,5022,""127.076831360719"",""37.5456863763972""
23669346,잉글루학원,,R,학문/교육,R01,학원-보습교습입시,R01A01,학원-입시,P85501,"일반 교과 학원",26,부산광역시,26380,사하구,2638010600,다대동,"부산광역시 사하구 다대동 1577","부산광역시 사하구 다송로68번길 34",604050,49521,""128.982061865564"",""35.0613636342342""
24050080,서전,,D,소매,D25,기타판매업,D25A23,통신판매,G47911,전자상거래업,11,서울특별시,11110,종로구,1111015900,원남동,"서울특별시 종로구 원남동 66-66","서울특별시 종로구 창경궁로18길 21",110450,3127,""126.998411775576"",""37.5750069465376""
24050716,보루네오가구,,D,소매,D15,가구소매,D15A01,일반가구소매,G47520,"가구 소매업",26,부산광역시,26380,사하구,2638010500,장림동,"부산광역시 사하구 장림동 산59-14","부산광역시 사하구 두송로144번길 14",604845,49512,""128.982348637499"",""35.0715743197247""
24050733,흥일상가조합,,L,부동산,L03,분양,L03A04,건물분양-종합,,,11,서울특별시,11545,금천구,1154510200,독산동,"서울특별시 금천구 독산동 1093-4","서울특별시 금천구 한내로 62",153753,8599,""126.888857865334"",""37.4553773193125""
24587679,크라운상회,,D,소매,D06,가방/신발/액세서리,D06A07,양품점,G47419,"기타 섬유, 직물 및 의복액세서리 소매업",26,부산광역시,26380,사하구,2638010100,괴정동,"부산광역시 사하구 괴정동 1015-27","부산광역시 사하구 사하로186번다길 11-2",604080,49356,""128.994879439766"",""35.0994519121117""
24592388,카페까마르도,,D,소매,D01,음/식료품소매,D01A01,식료품점,G47219,"기타 식료품 소매업",11,서울특별시,11470,양천구,1147010100,신정동,"서울특별시 양천구 신정동 1296","서울특별시 양천구 목동동로 180",158792,8010,""126.87283418339"",""37.5213622686633""
24525011,신앙촌상회,,D,소매,D06,가방/신발/액세서리,D06A07,양품점,G47419,"기타 섬유, 직물 및 의복액세서리 소매업",11,서울특별시,11350,노원구,1135010600,중계동,"서울특별시 노원구 중계동 90-43","서울특별시 노원구 중계로14사길 7",139220,1722,""127.082893968627"",""37.6501916449498""
24419215,속옷나라,,D,소매,D05,의복의류,D05A04,여성내의전문점,G47415,"내의 소매업",11,서울특별시,11620,관악구,1162010200,신림동,"서울특별시 관악구 신림동 637-1","서울특별시 관악구 난곡로26길 4",151015,8856,""126.92038083691"",""37.4703386455212""
24605184,MJ,,D,소매,D06,가방/신발/액세서리,D06A10,가방/가죽제품소매,G47430,"가방 및 기타 가죽제품 소매업",11,서울특별시,11560,영등포구,1156010400,영등포동3가,"서울특별시 영등포구 영등포동3가 31","서울특별시 영등포구 영중로 40",150033,7302,""126.904880570752"",""37.519978821934""
24318558,충남식품,,D,소매,D01,음/식료품소매,D01A01,식료품점,G47219,"기타 식료품 소매업",11,서울특별시,11410,서대문구,1141010200,충정로3가,"서울특별시 서대문구 충정로3가 465","서울특별시 서대문구 서소문로 27",120013,3741,""126.964845533717"",""37.5602736986601""
24531651,검정고무신,,D,소매,D05,의복의류,D05A01,일반의류,G47416,"셔츠 및 기타 의복 소매업",26,부산광역시,26230,부산진구,2623010300,부전동,"부산광역시 부산진구 부전동 573-1","부산광역시 부산진구 중앙대로 737",614782,47254,""129.061125071684"",""35.1602482564528""
24335217,나무사랑학원,,R,학문/교육,R01,학원-보습교습입시,R01A01,학원-입시,P85501,"일반 교과 학원",11,서울특별시,11170,용산구,1117011900,효창동,"서울특별시 용산구 효창동 3-197","서울특별시 용산구 효창원로 227",140897,4311,""126.96297278361"",""37.5475795998735""
24446376,김현중소아과의원,,S,의료,S01,병원,S01B11,소아과,Q86201,"일반 의원",11,서울특별시,11350,노원구,1135010400,하계동,"서울특별시 노원구 하계동 280","서울특별시 노원구 공릉로59길 28",139935,1829,""127.068669463938"",""37.6358618506752""
24110705,대원정육점,,D,소매,D01,음/식료품소매,D01A06,육류소매,G47212,"육류 소매업",11,서울특별시,11230,동대문구,1123010200,용두동,"서울특별시 동대문구 용두동 231-5","서울특별시 동대문구 한빛로 62-1",130823,2579,""127.029473918146"",""37.5786813663643""
24764205,제이알빌더스,,F,생활서비스,F05,인력/고용/용역알선,F05A02,인력공급/고용알선,,,11,서울특별시,11680,강남구,1168010800,논현동,"서울특별시 강남구 논현동 19-2","서울특별시 강남구 강남대로 578",135010,6043,""127.020829936192"",""37.5133651281241""
24837191,드림부동산개발,,L,부동산,L01,부동산중개,L01A01,부동산중개,L68221,"부동산 자문 및 중개업",11,서울특별시,11710,송파구,1171010800,문정동,"서울특별시 송파구 문정동 39-1","서울특별시 송파구 문정로 19",138200,5806,""127.124690671962"",""37.4864638233187""
23949295,우정쇼핑,,D,소매,D02,선물/팬시/기념품,D02A01,선물용품판매,G47842,"관광 민예품 및 선물용품 소매업",11,서울특별시,11170,용산구,1117013100,한남동,"서울특별시 용산구 한남동 794-4","서울특별시 용산구 한남대로42길 6",140894,4417,""127.002958119402"",""37.5422293961269""
24483452,한국지식경제진흥원,,R,학문/교육,R09,학원기타,R09A01,학원(종합),P85501,"일반 교과 학원",11,서울특별시,11650,서초구,1165010800,서초동,"서울특별시 서초구 서초동 1443-12","서울특별시 서초구 효령로 330-1",137070,6721,""127.020386784101"",""37.4858162192453""
24766613,핑크멤버,,D,소매,D25,기타판매업,D25A23,통신판매,G47911,전자상거래업,11,서울특별시,11215,광진구,1121510500,자양동,"서울특별시 광진구 자양동 210-44","서울특별시 광진구 동일로2길 2-22",143190,5088,""127.060926376353"",""37.5343789123793""
24017780,영흥철물,,D,소매,D07,가정/주방/인테리어,D07A15,유리/페인트/철물건축자재,G47519,"페인트, 유리 및 기타 건설자재 소매업",26,부산광역시,26110,중구,2611013000,신창동4가,"부산광역시 중구 신창동4가 20-3","부산광역시 중구 국제시장2길 9",600064,48945,""129.028331116623"",""35.1002544873243""
24373993,홀릭,,D,소매,D05,의복의류,D05A01,일반의류,G47416,"셔츠 및 기타 의복 소매업",26,부산광역시,26230,부산진구,2623010300,부전동,"부산광역시 부산진구 부전동 573-1","부산광역시 부산진구 중앙대로 717",614782,47286,""129.05916145521"",""35.1552536985683""
24164894,용주탕,,F,생활서비스,F09,대중목욕탕/휴게,F09A01,욕탕업-종합,S96121,욕탕업,26,부산광역시,26380,사하구,2638010800,감천동,"부산광역시 사하구 감천동 682","부산광역시 사하구 감천로 32",604782,49446,""128.996101316571"",""35.0907973826153""
24812992,매너지먼트솔루션그룹,,R,학문/교육,R09,학원기타,R09A01,학원(종합),P85501,"일반 교과 학원",11,서울특별시,11470,양천구,1147010200,목동,"서울특별시 양천구 목동 923-14","서울특별시 양천구 목동동로 233-1",158718,7995,""126.871554250266"",""37.5274771147""
24387291,금선정,,F,생활서비스,F05,인력/고용/용역알선,F05A02,인력공급/고용알선,,,11,서울특별시,11680,강남구,1168010600,대치동,"서울특별시 강남구 대치동 889-5","서울특별시 강남구 테헤란로 406",135712,6192,""127.049946352687"",""37.5044121531044""
24843913,원일하우징,,L,부동산,L03,분양,L03A04,건물분양-종합,,,11,서울특별시,11530,구로구,1153010200,구로동,"서울특별시 구로구 구로동 503-4","서울특별시 구로구 구로중앙로31길 18",152050,8280,""126.884185022341"",""37.4990431049832""
24560997,제일슈퍼,,D,소매,D03,종합소매점,D03A02,수퍼마켓,G47121,슈퍼마켓,11,서울특별시,11545,금천구,1154510300,시흥동,"서울특별시 금천구 시흥동 817-29","서울특별시 금천구 독산로24나길 13",153030,8570,""126.907510765982"",""37.4559206637157""
24561522,이혜인뷰티화장품,,D,소매,D16,화장품소매,D16A01,화장품판매점,G47813,"화장품 및 방향제 소매업",11,서울특별시,11215,광진구,1121510900,군자동,"서울특별시 광진구 군자동 49-53","서울특별시 광진구 면목로 8",143837,4996,""127.075449299475"",""37.5549653949333""
24814912,피에이씨컨설팅,,F,생활서비스,F13,기타서비스업,F13A01,사업경영상담,M71531,경영컨설팅업,11,서울특별시,11410,서대문구,1141011200,대현동,"서울특별시 서대문구 대현동 144","서울특별시 서대문구 이화여대길 50-5",120757,3764,""126.946079933815"",""37.5594228817364""
25161872,MIS발레교습소,,R,학문/교육,R05,학원-음악미술무용,R05A05,학원-무용,P85620,"예술 학원",11,서울특별시,11170,용산구,1117012900,이촌동,"서울특별시 용산구 이촌동 301-10","서울특별시 용산구 이촌로 245",140030,4423,""126.974348075353"",""37.5201700231513""
25174295,엘에이치피,,L,부동산,L03,분양,L03A04,건물분양-종합,,,11,서울특별시,11305,강북구,1130510100,미아동,"서울특별시 강북구 미아동 703-64","서울특별시 강북구 삼양로32나길 20-4",142100,1178,""127.022129834198"",""37.6199424362646""
25322182,태이소주방,,Q,음식,Q09,유흥주점,Q09A07,기타일반유흥주점,I56211,"일반유흥 주점업",26,부산광역시,26530,사상구,2653010200,모라동,"부산광역시 사상구 모라동 1356-8","부산광역시 사상구 백양대로 921-6",617080,46929,""128.990761949776"",""35.1887333200345""
24681276,케이앤비교육,,R,학문/교육,R09,학원기타,R09A01,학원(종합),P85501,"일반 교과 학원",11,서울특별시,11680,강남구,1168010100,역삼동,"서울특별시 강남구 역삼동 832-25","서울특별시 강남구 역삼로2길 7",135080,6252,""127.031456580242"",""37.4928366140352""
24774174,청토탈패션,,D,소매,D05,의복의류,D05A01,일반의류,G47416,"셔츠 및 기타 의복 소매업",11,서울특별시,11305,강북구,1130510100,미아동,"서울특별시 강북구 미아동 860-48","서울특별시 강북구 월계로 27-4",142100,1221,""127.033133613283"",""37.6108425248039""
24797625,청림인터콤,,F,생활서비스,F13,기타서비스업,F13A01,사업경영상담,M71531,경영컨설팅업,11,서울특별시,11440,마포구,1144012100,동교동,"서울특별시 마포구 동교동 158-26","서울특별시 마포구 동교로 200",121898,3995,""126.923104929456"",""37.5577468595849""
24744483,사이프로콘,,F,생활서비스,F13,기타서비스업,F13A13,상품전시,N75992,"전시 및 행사 대행업",11,서울특별시,11680,강남구,1168010100,역삼동,"서울특별시 강남구 역삼동 702-10","서울특별시 강남구 테헤란로 311",135565,6151,""127.044819943606"",""37.503749082849""
24686446,비알리츠,,L,부동산,L01,부동산중개,L01A01,부동산중개,L68221,"부동산 자문 및 중개업",11,서울특별시,11260,중랑구,1126010200,상봉동,"서울특별시 중랑구 상봉동 81-5","서울특별시 중랑구 망우로 346",131778,2150,""127.090870071907"",""37.5973262582564""
24848471,그린아시아인터내셔널,,F,생활서비스,F13,기타서비스업,F13A12,사업중개업,M73903,"사업 및 무형 재산권 중개업",11,서울특별시,11680,강남구,1168010100,역삼동,"서울특별시 강남구 역삼동 662-16","서울특별시 강남구 언주로 533",135080,6138,""127.040881563564"",""37.5057085025707""
25178695,보라매공원주차장,,F,생활서비스,F14,자동차/이륜차,F14A07,주차장운영,H52915,"주차장 운영업",11,서울특별시,11590,동작구,1159010900,신대방동,"서울특별시 동작구 신대방동 395","서울특별시 동작구 보라매로5길 28",156010,7062,""126.922643189877"",""37.4938676847761""
24974886,라임PC방,,N,관광/여가/오락,N01,PC/오락/당구/볼링등,N01A01,인터넷PC방,R91222,"컴퓨터 게임방 운영업",11,서울특별시,11350,노원구,1135010200,월계동,"서울특별시 노원구 월계동 942","서울특별시 노원구 광운로 132",139050,1885,""127.058657804245"",""37.6292408661274""
24777894,삼동스카이파크,,F,생활서비스,F18,장례/묘지,F18A02,묘지관리-종합,S96922,"화장, 묘지분양 및 관리업",11,서울특별시,11680,강남구,1168010100,역삼동,"서울특별시 강남구 역삼동 699-29","서울특별시 강남구 테헤란로43길 29",135080,6147,""127.043998394041"",""37.5052021464777""
24835592,블룸,,D,소매,D06,가방/신발/액세서리,D06A07,양품점,G47419,"기타 섬유, 직물 및 의복액세서리 소매업",26,부산광역시,26230,부산진구,2623010300,부전동,"부산광역시 부산진구 부전동 573-1","부산광역시 부산진구 중앙대로 717",614782,47286,""129.05916145521"",""35.1552536985683""
24778015,큐알미,,D,소매,D25,기타판매업,D25A23,통신판매,G47911,전자상거래업,11,서울특별시,11680,강남구,1168010100,역삼동,"서울특별시 강남구 역삼동 642-10","서울특별시 강남구 논현로 509",135080,6132,""127.036078078957"",""37.5019210138113""
24690834,아인스플래닝,,L,부동산,L01,부동산중개,L01A01,부동산중개,L68221,"부동산 자문 및 중개업",11,서울특별시,11710,송파구,1171010400,송파동,"서울특별시 송파구 송파동 32","서울특별시 송파구 석촌호수로 272",138170,5623,""127.105911138889"",""37.5099760341654""
24865704,님프만,,D,소매,D07,가정/주방/인테리어,D07A03,침구/수예품,G47411,"가정용 직물제품 소매업",11,서울특별시,11710,송파구,1171010200,신천동,"서울특별시 송파구 신천동 7","서울특별시 송파구 올림픽로35길 104",138796,5504,""127.099289046588"",""37.5198103241711""
24983770,유니온카이로프랙틱,,F,생활서비스,F01,이/미용/건강,F01A03,비만/피부관리,,,11,서울특별시,11320,도봉구,1132010600,방학동,"서울특별시 도봉구 방학동 720-1","서울특별시 도봉구 마들로 616",132798,1337,""127.04689320908"",""37.6650976848897""
24881873,보광식육점,,D,소매,D01,음/식료품소매,D01A03,정육점,G47212,"육류 소매업",26,부산광역시,26200,영도구,2620012000,청학동,"부산광역시 영도구 청학동 233","부산광역시 영도구 태종로322번길 2-4",606822,49023,""129.060670610352"",""35.0964423878777""
24986059,내추럴발란스서부경남,,S,의료,S04,수의업,S04A02,동물병원,M73100,수의업,26,부산광역시,26380,사하구,2638010600,다대동,"부산광역시 사하구 다대동 9","부산광역시 사하구 두송로144번길 51",604050,49512,""128.982770478951"",""35.0710931538755""
25100920,블루랜드씨앤씨,,L,부동산,L03,분양,L03A02,상가분양,L68122,"비주거용 건물 개발 및 공급업",11,서울특별시,11170,용산구,1117012800,한강로3가,"서울특별시 용산구 한강로3가 16-20","서울특별시 용산구 청파로 77",140879,4366,""126.960850349137"",""37.5333514753031""
24731319,에스지엠맨파워,,F,생활서비스,F05,인력/고용/용역알선,F05A02,인력공급/고용알선,,,11,서울특별시,11470,양천구,1147010300,신월동,"서울특별시 양천구 신월동 195-22","서울특별시 양천구 남부순환로60길 29",158090,7914,""126.827323171404"",""37.5307764700242""
24713001,디스엔뎃디자인,,F,생활서비스,F12,광고/인쇄,F12A05,광고물제작-종합,C33910,"간판 및 광고물 제조업",11,서울특별시,11560,영등포구,1156012700,양평동3가,"서울특별시 영등포구 양평동3가 16","서울특별시 영등포구 양산로 43",150946,7270,""126.887928030281"",""37.5257492629185""
25169880,장백트레킹,,D,소매,D14,운동/경기용품소매,D14A01,운동/경기용품,G47631,"운동 및 경기용품 소매업",11,서울특별시,11440,마포구,1144011000,노고산동,"서울특별시 마포구 노고산동 31-8","서울특별시 마포구 백범로1길 21",121806,4101,""126.937837174609"",""37.5548438131158""
25080912,서호씨엔티,,L,부동산,L03,분양,L03A04,건물분양-종합,,,11,서울특별시,11680,강남구,1168010600,대치동,"서울특별시 강남구 대치동 891-42","서울특별시 강남구 테헤란로78길 8",135280,6194,""127.055213064522"",""37.5056167571204""
25081373,닛츠,,D,소매,D25,기타판매업,D25A23,통신판매,G47911,전자상거래업,11,서울특별시,11560,영등포구,1156010700,영등포동6가,"서울특별시 영등포구 영등포동6가 15-6","서울특별시 영등포구 영중로 65-4",150036,7251,""126.904540664476"",""37.5223364013298""
25054467,동무,,D,소매,D01,음/식료품소매,D01A06,육류소매,G47212,"육류 소매업",11,서울특별시,11320,도봉구,1132010600,방학동,"서울특별시 도봉구 방학동 530","서울특별시 도봉구 방학로15길 26",132765,1360,""127.023993363186"",""37.6602070407391""
25076575,씨에이치디그룹,,F,생활서비스,F17,예식/의례/관혼상제,F17A01,예식장/예식서비스,S96991,예식장업,11,서울특별시,11680,강남구,1168010600,대치동,"서울특별시 강남구 대치동 891-42","서울특별시 강남구 테헤란로78길 8",135280,6194,""127.055213064522"",""37.5056167571204""
24733438,아쿠아나인,,F,생활서비스,F13,기타서비스업,F13A01,사업경영상담,M71531,경영컨설팅업,11,서울특별시,11680,강남구,1168010700,신사동,"서울특별시 강남구 신사동 595-1","서울특별시 강남구 논현로168길 36",135893,6024,""127.030973710054"",""37.5231981714978""
24713603,프라임경제신문,,F,생활서비스,F12,광고/인쇄,F12A05,광고물제작-종합,C33910,"간판 및 광고물 제조업",11,서울특별시,11170,용산구,1117011900,효창동,"서울특별시 용산구 효창동 5-48","서울특별시 용산구 효창원로70길 14",140896,4317,""126.962977446778"",""37.5415246278351""
25108012,주연테크,중구센터,D,소매,D08,사무/문구/컴퓨터,D08A04,컴퓨터/주변기기,G47311,"컴퓨터 및 주변장치, 소프트웨어 소매업",11,서울특별시,11140,중구,1114016200,신당동,"서울특별시 중구 신당동 333-199","서울특별시 중구 다산로24길 15",100450,4589,""127.013411003962"",""37.5579143069329""
25005963,미모,,F,생활서비스,F01,이/미용/건강,F01A03,비만/피부관리,,,11,서울특별시,11350,노원구,1135010600,중계동,"서울특별시 노원구 중계동 505","서울특별시 노원구 섬밭로 265",139784,1774,""127.063801801651"",""37.6391301310474""
24714984,아이에셋개발,,F,생활서비스,F13,기타서비스업,F13A01,사업경영상담,M71531,경영컨설팅업,11,서울특별시,11380,은평구,1138010700,응암동,"서울특별시 은평구 응암동 110-4","서울특별시 은평구 은평로8길 8",122010,3454,""126.920598323436"",""37.5996761745684""
24715983,이지스노사자문,,F,생활서비스,F13,기타서비스업,F13A01,사업경영상담,M71531,경영컨설팅업,11,서울특별시,11440,마포구,1144010700,마포동,"서울특별시 마포구 마포동 136-1","서울특별시 마포구 마포대로 12",121736,4175,""126.944380783875"",""37.5378547863079""
25172741,웨스트베리,,L,부동산,L03,분양,L03A04,건물분양-종합,,,11,서울특별시,11170,용산구,1117013300,서빙고동,"서울특별시 용산구 서빙고동 198-1","서울특별시 용산구 서빙고로59길 3",140240,4384,""126.993283629472"",""37.5202969030194""
25033034,뷰오레헤어에비뉴,,F,생활서비스,F01,이/미용/건강,F01A01,여성미용실,S96112,두발미용업,26,부산광역시,26260,동래구,2626010800,온천동,"부산광역시 동래구 온천동 189-16","부산광역시 동래구 금강공원로 23-1",607833,47712,""129.081769592113"",""35.2189441701631""
24851046,블루민트커뮤니케이션,,F,생활서비스,F13,기타서비스업,F13A11,패션디자인,M73209,"기타 전문 디자인업",11,서울특별시,11650,서초구,1165011000,염곡동,"서울특별시 서초구 염곡동 98-2","서울특별시 서초구 염곡안1길 20",137170,6793,""127.050845136671"",""37.4628805615936""
25360849,서일선지,,Q,음식,Q01,한식,Q01A05,해장국/감자탕,I56111,"한식 음식점업",26,부산광역시,26380,사하구,2638010100,괴정동,"부산광역시 사하구 괴정동 436-8","부산광역시 사하구 낙동대로199번길 21",604080,49354,""128.99570557966"",""35.0997425944935""
25173875,더마루,,D,소매,D25,기타판매업,D25A23,통신판매,G47911,전자상거래업,11,서울특별시,11440,마포구,1144012400,연남동,"서울특별시 마포구 연남동 570-20","서울특별시 마포구 연남로1길 67",121869,3991,""126.919905166603"",""37.5590872083658""
25084634,에이원파트너스,,F,생활서비스,F13,기타서비스업,F13A01,사업경영상담,M71531,경영컨설팅업,11,서울특별시,11560,영등포구,1156012700,양평동3가,"서울특별시 영등포구 양평동3가 34","서울특별시 영등포구 선유서로 128",150103,7270,""126.887101741191"",""37.5273002791918""
25085472,제이팀,,F,생활서비스,F12,광고/인쇄,F12A05,광고물제작-종합,C33910,"간판 및 광고물 제조업",11,서울특별시,11680,강남구,1168010700,신사동,"서울특별시 강남구 신사동 595-1","서울특별시 강남구 논현로168길 36",135893,6024,""127.030973710054"",""37.5231981714978""
24902593,포이닉스괴정점,괴정점,D,소매,D15,가구소매,D15A01,일반가구소매,G47520,"가구 소매업",26,부산광역시,26380,사하구,2638010100,괴정동,"부산광역시 사하구 괴정동 554-2","부산광역시 사하구 장평로 448",604812,49384,""128.986702942971"",""35.0981035199831""
25318776,제일체인,,D,소매,D26,시계/귀금속소매,D26A01,시계/귀금속,G47830,"시계 및 귀금속 소매업",26,부산광역시,26230,부산진구,2623010400,범천동,"부산광역시 부산진구 범천동 837-11","부산광역시 부산진구 범일로142번길 26",614020,47365,""129.06080855206"",""35.1426287951813""
25191017,임페리얼트레이딩,,D,소매,D23,자동차/자동차용품,D23A01,자동차판매,G45110,"자동차 신품 판매업",11,서울특별시,11170,용산구,1117011400,신창동,"서울특별시 용산구 신창동 77-113","서울특별시 용산구 효창원로23길 24",140060,4357,""126.954319480362"",""37.5367628466826""
25362316,부산중앙청과222번중도매인,,D,소매,D01,음/식료품소매,D01A13,청과물소매,G47214,"과실 및 채소 소매업",26,부산광역시,26350,해운대구,2635010300,반여동,"부산광역시 해운대구 반여동 559","부산광역시 해운대구 수영강변대로 626",612060,48031,""129.120952257256"",""35.215946667245""
25362630,일원부동산,,L,부동산,L01,부동산중개,L01A01,부동산중개,L68221,"부동산 자문 및 중개업",11,서울특별시,11680,강남구,1168011500,수서동,"서울특별시 강남구 수서동 738","서울특별시 강남구 광평로39길 3",135886,6352,""127.097244260422"",""37.4857617083509""
25320078,북경중화요리,,Q,음식,Q02,중식,Q02A00,중국음식/중국집,I56112,"중식 음식점업",11,서울특별시,11230,동대문구,1123010600,장안동,"서울특별시 동대문구 장안동 331-12","서울특별시 동대문구 장한로28길 44",130100,2524,""127.074313043314"",""37.5727071476413""
25340646,홍콩반점0410,까치산역점,Q,음식,Q02,중식,Q02A00,중국음식/중국집,I56112,"중식 음식점업",11,서울특별시,11500,강서구,1150010300,화곡동,"서울특별시 강서구 화곡동 343-61","서울특별시 강서구 강서로 33",157010,7774,""126.847022226761"",""37.5306911238822""
25298814,메가글라스안경콘텍트,,D,소매,D18,사진/광학/정밀기기소매,D18A04,안경원,G47822,"안경 소매업",11,서울특별시,11230,동대문구,1123010300,제기동,"서울특별시 동대문구 제기동 148-18","서울특별시 동대문구 약령시로 8-1",130861,2574,""127.030748400534"",""37.5825483022875""
24750534,탑걸상회,,D,소매,D05,의복의류,D05A03,여성의류전문점,,,26,부산광역시,26140,서구,2614010600,서대신동3가,"부산광역시 서구 서대신동3가 85","부산광역시 서구 꽃마을로169번길 45",602821,49200,""129.005901705791"",""35.1297472831631""
24701101,엠점지,,N,관광/여가/오락,N03,연극/영화/극장,N03A06,연극/음악/예술관련기타,,,26,부산광역시,26470,연제구,2647010200,연산동,"부산광역시 연제구 연산동 1127-11","부산광역시 연제구 월드컵대로 160-1",611080,47524,""129.079142771363"",""35.1872749635528""
25160363,피글,,D,소매,D20,의약/의료품소매,D20A01,의료용품소매,G47811,"의약품 및 의료용품 소매업",26,부산광역시,26410,금정구,2641010800,장전동,"부산광역시 금정구 장전동 30","부산광역시 금정구 산성로 872",609735,46240,""129.067595840931"",""35.2353849955517""
25118426,더루브엔터테인먼트,,F,생활서비스,F20,행사/이벤트,F20A05,연예인대리업,M73901,매니저업,11,서울특별시,11680,강남구,1168010500,삼성동,"서울특별시 강남구 삼성동 142-34","서울특별시 강남구 선릉로92길 28",135090,6160,""127.050913250713"",""37.505762498765""
25140847,이지팰리스,,L,부동산,L03,분양,L03A04,건물분양-종합,,,11,서울특별시,11650,서초구,1165010800,서초동,"서울특별시 서초구 서초동 1362-13","서울특별시 서초구 강남대로37길 12-12",137070,6735,""127.03252418139"",""37.4854657063365""
25342708,사상양곱창,,Q,음식,Q01,한식,Q01A03,곱창/양구이전문,I56111,"한식 음식점업",26,부산광역시,26530,사상구,2653010400,괘법동,"부산광역시 사상구 괘법동 564-16","부산광역시 사상구 새벽로223번길 60",617809,46972,""128.980949284179"",""35.1616090314916""
25536492,리라미술,,R,학문/교육,R05,학원-음악미술무용,R05A01,서예/서화/미술,P85620,"예술 학원",11,서울특별시,11740,강동구,1174010300,상일동,"서울특별시 강동구 상일동 124-2","서울특별시 강동구 구천면로 669",134836,5275,""127.172270440097"",""37.55123263483""
25473136,투,,O,숙박,O02,모텔/여관/여인숙,O02A01,모텔/여관/여인숙,I55112,여관업,11,서울특별시,11215,광진구,1121510900,군자동,"서울특별시 광진구 군자동 471-16","서울특별시 광진구 능동로35길 37",143838,4996,""127.076961494478"",""37.5571577671459""
25312639,꼼에스타,,D,소매,D05,의복의류,D05A05,아동복판매,G47416,"셔츠 및 기타 의복 소매업",26,부산광역시,26230,부산진구,2623010300,부전동,"부산광역시 부산진구 부전동 503-15","부산광역시 부산진구 가야대로 772",614732,47285,""129.056437700996"",""35.1568098468641""
25332984,황생칼국수,,Q,음식,Q04,분식,Q04A02,국수/만두/칼국수,I56194,"분식 및 김밥 전문점",11,서울특별시,11140,중구,1114012200,회현동2가,"서울특별시 중구 회현동2가 10-1","서울특별시 중구 소공로 48",100725,4631,""126.983052196223"",""37.5598102093029""
25333514,since1974,,D,소매,D05,의복의류,D05A01,일반의류,G47416,"셔츠 및 기타 의복 소매업",11,서울특별시,11740,강동구,1174010900,천호동,"서울특별시 강동구 천호동 408-6","서울특별시 강동구 진황도로 2",134020,5335,""127.128058679427"",""37.5400837494385""
25520715,아낌없는주는나무,,R,학문/교육,R09,학원기타,R09A01,학원(종합),P85501,"일반 교과 학원",11,서울특별시,11290,성북구,1129013500,종암동,"서울특별시 성북구 종암동 10-12","서울특별시 성북구 종암로14길 12-16",136858,2800,""127.036241145677"",""37.596478335686""
25353753,리베피아노,,R,학문/교육,R05,학원-음악미술무용,R05A02,피아노/바이올린/기타,P85620,"예술 학원",11,서울특별시,11740,강동구,1174010800,성내동,"서울특별시 강동구 성내동 20-5","서울특별시 강동구 천호대로168가길 52",134030,5380,""127.129479715955"",""37.5356249961608""
25354154,교동짬뽕,,Q,음식,Q02,중식,Q02A00,중국음식/중국집,I56112,"중식 음식점업",11,서울특별시,11710,송파구,1171010100,잠실동,"서울특별시 송파구 잠실동 181-10","서울특별시 송파구 올림픽로12길 4",138220,5557,""127.08275275379"",""37.5112671930192""
25354160,비에라왁싱,,F,생활서비스,F01,이/미용/건강,F01A03,비만/피부관리,,,11,서울특별시,11680,강남구,1168010600,대치동,"서울특별시 강남구 대치동 890-59","서울특별시 강남구 선릉로86길 31",135280,6193,""127.052030646855"",""37.5041585815151""
25227347,보떼,,D,소매,D16,화장품소매,D16A01,화장품판매점,G47813,"화장품 및 방향제 소매업",11,서울특별시,11620,관악구,1162010100,봉천동,"서울특별시 관악구 봉천동 972-1","서울특별시 관악구 보라매로 7",151050,8708,""126.927367388232"",""37.4901082487637""
25227826,르꽁비브,,Q,음식,Q06,양식,Q06A01,정통양식/경양식,I56114,"서양식 음식점업",26,부산광역시,26350,해운대구,2635010400,재송동,"부산광역시 해운대구 재송동 1209","부산광역시 해운대구 센텀북대로 60",612050,48059,""129.125429725298"",""35.176659044448""
25228109,수독서실,,R,학문/교육,R10,도서관/독서실,R10A01,독서실,R90212,"독서실 운영업",11,서울특별시,11170,용산구,1117011200,원효로1가,"서울특별시 용산구 원효로1가 53-17","서울특별시 용산구 원효로 239",140846,4316,""126.967623794014"",""37.539384813815""
25484337,보라매생선구이조림,,Q,음식,Q03,일식/수산물,Q03A11,갈치/생선구이,I56111,"한식 음식점업",11,서울특별시,11560,영등포구,1156013200,신길동,"서울특별시 영등포구 신길동 4358","서울특별시 영등포구 여의대방로17길 10",150050,7433,""126.917016628558"",""37.4982133482164""
25484951,BP인력기술,,F,생활서비스,F05,인력/고용/용역알선,F05A02,인력공급/고용알선,,,11,서울특별시,11545,금천구,1154510100,가산동,"서울특별시 금천구 가산동 60-24","서울특별시 금천구 벚꽃로 254",153781,8511,""126.885473967857"",""37.4777545468451""
25322942,조선일보,,D,소매,D13,책/서적/도서,D13A03,서적/신문소매,G47611,"서적 및 잡지류 소매업",11,서울특별시,11680,강남구,1168010300,개포동,"서울특별시 강남구 개포동 166","서울특별시 강남구 선릉로10길 8",135240,6325,""127.060921916729"",""37.483270988982""
25323606,더함,,Q,음식,Q12,커피점/카페,Q12A01,커피전문점/카페/다방,I56220,"비알콜 음료점업",11,서울특별시,11380,은평구,1138010300,불광동,"서울특별시 은평구 불광동 92-5","서울특별시 은평구 연서로41길 13-3",122040,3343,""126.927595808978"",""37.6257797569824""
25335223,용산상회,,D,소매,D01,음/식료품소매,D01A13,청과물소매,G47214,"과실 및 채소 소매업",26,부산광역시,26530,사상구,2653010500,감전동,"부산광역시 사상구 감전동 143-16","부산광역시 사상구 새벽로 141",617803,46988,""128.982451305412"",""35.1541603140766""
25283884,컨셉원,현대백화점천호점,D,소매,D05,의복의류,D05A02,캐쥬얼/스포츠의류,G47416,"셔츠 및 기타 의복 소매업",11,서울특별시,11740,강동구,1174010900,천호동,"서울특별시 강동구 천호동 455-8","서울특별시 강동구 천호대로 1005",134779,5328,""127.124418139224"",""37.5388493978687""
25207923,마트메인,,L,부동산,L03,분양,L03A01,주택공급,L68121,"주거용 건물 개발 및 공급업",11,서울특별시,11215,광진구,1121510300,구의동,"서울특별시 광진구 구의동 596-5","서울특별시 광진구 뚝섬로 742",143200,5115,""127.091410383019"",""37.5342209235652""
25228204,파티카멜리에쿠킹클래스,,Q,음식,Q07,패스트푸드,Q07A09,생과자점,I56191,제과점업,11,서울특별시,11740,강동구,1174010200,고덕동,"서울특별시 강동구 고덕동 499","서울특별시 강동구 동남로79길 26",134753,5232,""127.153721915276"",""37.5591746016068""
25520950,명동명품사,,D,소매,D05,의복의류,D05A09,남성의류전문점,,,11,서울특별시,11740,강동구,1174010600,둔촌동,"서울특별시 강동구 둔촌동 172-1","서울특별시 강동구 양재대로 1330",134060,5411,""127.135964308302"",""37.5247427920454""
25302554,시세이너,,D,소매,D05,의복의류,D05A07,셔츠/내의/속옷,,,11,서울특별시,11740,강동구,1174010900,천호동,"서울특별시 강동구 천호동 410-105","서울특별시 강동구 진황도로 18",134020,5335,""127.129075332597"",""37.5392622806945""
25356016,전국손오공총판,보람유통,D,소매,D04,취미/오락관련소매,D04A02,오락게임기구/장난감소매,G47640,"게임용구, 인형 및 장난감 소매업",11,서울특별시,11500,강서구,1150010300,화곡동,"서울특별시 강서구 화곡동 1143","서울특별시 강서구 국회대로7길 157",157010,7787,""126.852129499797"",""37.5289117728146""
25229737,악녀수학,,R,학문/교육,R01,학원-보습교습입시,R01A01,학원-입시,P85501,"일반 교과 학원",11,서울특별시,11470,양천구,1147010200,목동,"서울특별시 양천구 목동 907-12","서울특별시 양천구 목동동로 393",158731,7983,""126.880078857156"",""37.5361902176005""
25291306,스마트어패럴,,F,생활서비스,F11,개인서비스,F11A01,탐정/경호,,,11,서울특별시,11680,강남구,1168010600,대치동,"서울특별시 강남구 대치동 947-3","서울특별시 강남구 영동대로 421",135280,6182,""127.063520408035"",""37.5069894414056""
25324517,팀반프로퍼티,,F,생활서비스,F13,기타서비스업,F13A01,사업경영상담,M71531,경영컨설팅업,11,서울특별시,11680,강남구,1168010400,청담동,"서울특별시 강남구 청담동 84-24","서울특별시 강남구 도산대로55길 45",135954,6014,""127.040885968068"",""37.5265769349692""
25384836,청운검도관,,R,학문/교육,R07,학원-예능취미체육,R07A22,검도도장,P85611,"스포츠 교육기관",11,서울특별시,11620,관악구,1162010100,봉천동,"서울특별시 관악구 봉천동 925-27","서울특별시 관악구 봉천로 385",151050,8750,""126.942762047438"",""37.483372005524""
25314387,코인노래,,N,관광/여가/오락,N02,무도/유흥/가무,N02A01,노래방,R91223,"노래연습장 운영업",11,서울특별시,11740,강동구,1174010900,천호동,"서울특별시 강동구 천호동 453-24","서울특별시 강동구 천호대로157길 26",134020,5335,""127.127530164556"",""37.5388273785228""
25314482,조희정헤어샵,,F,생활서비스,F01,이/미용/건강,F01A01,여성미용실,S96112,두발미용업,26,부산광역시,26530,사상구,2653010200,모라동,"부산광역시 사상구 모라동 1329-6","부산광역시 사상구 백양대로 971",617080,46926,""128.992524979319"",""35.1928562819147""
25336903,이룸미술치료상담센타,,R,학문/교육,R05,학원-음악미술무용,R05A01,서예/서화/미술,P85620,"예술 학원",11,서울특별시,11620,관악구,1162010100,봉천동,"서울특별시 관악구 봉천동 464-8","서울특별시 관악구 은천로 114",151050,8743,""126.947962986276"",""37.4866171646023""
25230084,제비표페인트,,D,소매,D22,페인트/유리제품소매,D22A01,페인트/유리제품소매,G47519,"페인트, 유리 및 기타 건설자재 소매업",26,부산광역시,26230,부산진구,2623011100,개금동,"부산광역시 부산진구 개금동 633-23","부산광역시 부산진구 진사로77번길 47",614812,47395,""129.018792811866"",""35.1446298726546""
25230538,웰빙손칼국수,,Q,음식,Q04,분식,Q04A02,국수/만두/칼국수,I56194,"분식 및 김밥 전문점",26,부산광역시,26230,부산진구,2623010400,범천동,"부산광역시 부산진구 범천동 1291-16","부산광역시 부산진구 신암로25번길 5",614020,47369,""129.055576321545"",""35.1445043177901""
25230861,베러먼데이,,Q,음식,Q09,유흥주점,Q09A01,호프/맥주,I56219,"기타 주점업",26,부산광역시,26290,남구,2629010600,대연동,"부산광역시 남구 대연동 60-5","부산광역시 남구 용소로19번길 24",608020,48512,""129.102048165331"",""35.1361312974431""
25252337,궁채,,Q,음식,Q01,한식,Q01A01,한식/백반/한정식,I56111,"한식 음식점업",11,서울특별시,11200,성동구,1120010700,행당동,"서울특별시 성동구 행당동 155-1","서울특별시 성동구 왕십리로 241",133070,4765,""127.040008574127"",""37.557070331727""
25252439,만다리나덕,현대백화점천호점,D,소매,D06,가방/신발/액세서리,D06A10,가방/가죽제품소매,G47430,"가방 및 기타 가죽제품 소매업",11,서울특별시,11740,강동구,1174010900,천호동,"서울특별시 강동구 천호동 455-8","서울특별시 강동구 천호대로 1005",134779,5328,""127.124418139224"",""37.5388493978687""
25252572,티파니,롯데백화점부산본점,D,소매,D05,의복의류,D05A05,아동복판매,G47416,"셔츠 및 기타 의복 소매업",26,부산광역시,26230,부산진구,2623010300,부전동,"부산광역시 부산진구 부전동 503-15","부산광역시 부산진구 가야대로 772",614732,47285,""129.056437700996"",""35.1568098468641""
25486370,슈퍼게임랜드,,N,관광/여가/오락,N01,PC/오락/당구/볼링등,N01A01,인터넷PC방,R91222,"컴퓨터 게임방 운영업",11,서울특별시,11215,광진구,1121510700,화양동,"서울특별시 광진구 화양동 111-5","서울특별시 광진구 광나루로 380",143915,5009,""127.071862172364"",""37.547611713021""
25502083,조이마트,,F,생활서비스,F14,자동차/이륜차,F14A01,자동차정비/카센타,,,11,서울특별시,11500,강서구,1150010400,가양동,"서울특별시 강서구 가양동 18-24","서울특별시 강서구 양천로 431",157200,7527,""126.84994610305"",""37.5642561332798""
25521788,유가네닭갈비부산외대점,부산외대점,Q,음식,Q05,닭/오리요리,Q05A02,닭갈비전문,I56111,"한식 음식점업",26,부산광역시,26410,금정구,2641010400,남산동,"부산광역시 금정구 남산동 124-1","부산광역시 금정구 금강로 646",609814,46224,""129.088834536192"",""35.265139505928""
25385227,티월드,,D,소매,D12,가전제품소매,D12A05,전화기판매,G47312,"통신기기 소매업",26,부산광역시,26230,부산진구,2623010300,부전동,"부산광역시 부산진구 부전동 517-54","부산광역시 부산진구 중앙대로691번길 28-1",614030,47287,""129.057518361583"",""35.1546551043257""
25385925,태양사우나식당,,F,생활서비스,F09,대중목욕탕/휴게,F09A02,사우나/증기탕/온천,S96121,욕탕업,11,서울특별시,11620,관악구,1162010200,신림동,"서울특별시 관악구 신림동 1695","서울특별시 관악구 신원로 26",151783,8775,""126.928253124915"",""37.4811418322218""
25303333,서초주택,,L,부동산,L03,분양,L03A01,주택공급,L68121,"주거용 건물 개발 및 공급업",11,서울특별시,11650,서초구,1165010800,서초동,"서울특별시 서초구 서초동 1656-2","서울특별시 서초구 서초중앙로 114",137070,6634,""127.014280318907"",""37.4918745857028""
25377824,국수집,,Q,음식,Q04,분식,Q04A02,국수/만두/칼국수,I56194,"분식 및 김밥 전문점",11,서울특별시,11440,마포구,1144011400,창전동,"서울특별시 마포구 창전동 381-4","서울특별시 마포구 독막로22길 27",121882,4078,""126.928457335853"",""37.5467578210014""
25232054,갤럭시,롯데백화점센텀점,D,소매,D05,의복의류,D05A09,남성의류전문점,,,26,부산광역시,26350,해운대구,2635010500,우동,"부산광역시 해운대구 우동 1496","부산광역시 해운대구 센텀남대로 59",612020,48058,""129.131099324358"",""35.1698729034813""
25466335,해왕,,D,소매,D26,시계/귀금속소매,D26A01,시계/귀금속,G47830,"시계 및 귀금속 소매업",26,부산광역시,26230,부산진구,2623010400,범천동,"부산광역시 부산진구 범천동 837-28","부산광역시 부산진구 범일로142번길 16",614020,47365,""129.060291790603"",""35.1425521924656""
25466405,olleh,,D,소매,D12,가전제품소매,D12A05,전화기판매,G47312,"통신기기 소매업",11,서울특별시,11680,강남구,1168011800,도곡동,"서울특별시 강남구 도곡동 952-10","서울특별시 강남구 강남대로 248",135270,6266,""127.033900636806"",""37.4857022343301""
25345763,우리애니원,,D,소매,D03,종합소매점,D03A04,생활용품판매,G47190,"그외 기타 종합 소매업",26,부산광역시,26230,부산진구,2623010200,전포동,"부산광역시 부산진구 전포동 660-1","부산광역시 부산진구 동천로 116",614744,47247,""129.062657411432"",""35.1590720300884""
25346314,베네통키즈,,D,소매,D05,의복의류,D05A05,아동복판매,G47416,"셔츠 및 기타 의복 소매업",11,서울특별시,11545,금천구,1154510100,가산동,"서울특별시 금천구 가산동 60-8","서울특별시 금천구 디지털로10길 9",153801,8514,""126.889037556666"",""37.4776078994761""
25346347,부엌,,Q,음식,Q01,한식,Q01A01,한식/백반/한정식,I56111,"한식 음식점업",11,서울특별시,11560,영등포구,1156012600,양평동2가,"서울특별시 영등포구 양평동2가 8","서울특별시 영등포구 영등포로 26",150102,7278,""126.884361847627"",""37.5228773500892""
25379245,더아트연기학원,,R,학문/교육,R09,학원기타,R09A01,학원(종합),P85501,"일반 교과 학원",11,서울특별시,11200,성동구,1120010400,도선동,"서울특별시 성동구 도선동 21-1","서울특별시 성동구 고산자로 255",133882,4709,""127.035681966192"",""37.5625765093041""
25379334,기타교실,,R,학문/교육,R05,학원-음악미술무용,R05A02,피아노/바이올린/기타,P85620,"예술 학원",11,서울특별시,11410,서대문구,1141011600,창천동,"서울특별시 서대문구 창천동 20-26","서울특별시 서대문구 신촌로 127",120833,3780,""126.939976134226"",""37.556448867196""
25359894,뮤즈아카데미,,R,학문/교육,R05,학원-음악미술무용,R05A02,피아노/바이올린/기타,P85620,"예술 학원",11,서울특별시,11680,강남구,1168010700,신사동,"서울특별시 강남구 신사동 550-13","서울특별시 강남구 논현로175길 59-6",135890,6029,""127.024221513278"",""37.5239355025126""
25286083,페나테스컨설팅,,F,생활서비스,F13,기타서비스업,F13A01,사업경영상담,M71531,경영컨설팅업,11,서울특별시,11560,영등포구,1156010400,영등포동3가,"서울특별시 영등포구 영등포동3가 8","서울특별시 영등포구 영중로 22",150033,7302,""126.905934071527"",""37.5183306666506""
25286438,NBA,,N,관광/여가/오락,N02,무도/유흥/가무,N02A01,노래방,R91223,"노래연습장 운영업",11,서울특별시,11680,강남구,1168010100,역삼동,"서울특별시 강남구 역삼동 643-7","서울특별시 강남구 테헤란로25길 23",135080,6131,""127.035159756848"",""37.5020937277123""
25466562,한우야,,D,소매,D01,음/식료품소매,D01A03,정육점,G47212,"육류 소매업",11,서울특별시,11215,광진구,1121510100,중곡동,"서울특별시 광진구 중곡동 83-31","서울특별시 광진구 영화사로 21-1",143220,4945,""127.089826069408"",""37.5575099338351""
25486960,나래꽃,,D,소매,D02,선물/팬시/기념품,D02A02,꽃집/꽃배달,G47851,"화초 및 산식물 소매업",11,서울특별시,11650,서초구,1165010800,서초동,"서울특별시 서초구 서초동 1689-2","서울특별시 서초구 서초대로 335",137070,6607,""127.018069431466"",""37.495267076466""
25502909,타이전통마사지,,N,관광/여가/오락,N05,요가/단전/마사지,N05A07,안마시술소,S96122,마사지업,11,서울특별시,11650,서초구,1165010800,서초동,"서울특별시 서초구 서초동 1597-1","서울특별시 서초구 사임당로 26",137070,6651,""127.012945150053"",""37.4876374879735""
25305326,세븐일레븐대치코스모스점B,,D,소매,D03,종합소매점,D03A01,편의점,G47122,"체인화 편의점",11,서울특별시,11680,강남구,1168010600,대치동,"서울특별시 강남구 대치동 1001-6","서울특별시 강남구 영동대로86길 10",135280,6174,""127.064890282224"",""37.5077932234843""
25233231,애스크주니어,,D,소매,D05,의복의류,D05A05,아동복판매,G47416,"셔츠 및 기타 의복 소매업",26,부산광역시,26230,부산진구,2623010200,전포동,"부산광역시 부산진구 전포동 668-1","부산광역시 부산진구 동천로 92",614772,47293,""129.063037211547"",""35.157049580457""
25233647,필성형외과,,S,의료,S01,병원,S01B08,정형/성형외과,Q86201,"일반 의원",11,서울특별시,11740,강동구,1174010900,천호동,"서울특별시 강동구 천호동 453-15","서울특별시 강동구 천호대로 1033",134020,5335,""127.126941418691"",""37.5378859293189""
25255831,국제기구세계녹색기후기구덕산종합대학교재단,,R,학문/교육,R09,학원기타,R09A01,학원(종합),P85501,"일반 교과 학원",11,서울특별시,11380,은평구,1138010400,갈현동,"서울특별시 은평구 갈현동 276-58","서울특별시 은평구 갈현로39길 12-5",122050,3319,""126.91539267883"",""37.6228209636123""
25256264,안심축산물전문점,,D,소매,D01,음/식료품소매,D01A03,정육점,G47212,"육류 소매업",11,서울특별시,11215,광진구,1121510100,중곡동,"서울특별시 광진구 중곡동 82-25","서울특별시 광진구 영화사로 22",143220,4949,""127.089613233866"",""37.5573280828189""
25502950,니들앤스티치,,D,소매,D05,의복의류,D05A08,맞춤양복/양복점,G47413,"남녀용 정장 소매업",26,부산광역시,26230,부산진구,2623010300,부전동,"부산광역시 부산진구 부전동 170-7","부산광역시 부산진구 동천로 69-1",614030,47295,""129.062143167041"",""35.1549752057273""
25527590,투스카로나,,D,소매,D14,운동/경기용품소매,D14A08,등산용품판매,G47631,"운동 및 경기용품 소매업",26,부산광역시,26230,부산진구,2623010800,부암동,"부산광역시 부산진구 부암동 257","부산광역시 부산진구 신천대로 241",614090,47187,""129.04934326862"",""35.1633254737143""
25527898,금성공인중개사,,L,부동산,L01,부동산중개,L01A01,부동산중개,L68221,"부동산 자문 및 중개업",11,서울특별시,11560,영등포구,1156011000,여의도동,"서울특별시 영등포구 여의도동 21-3","서울특별시 영등포구 여의나루로 117",150875,7336,""126.931036506997"",""37.5262194114967""
25327412,iff,,D,소매,D05,의복의류,D05A09,남성의류전문점,,,26,부산광역시,26230,부산진구,2623010300,부전동,"부산광역시 부산진구 부전동 168-291","부산광역시 부산진구 동천로 89",614030,47292,""129.062109381458"",""35.1565980079476""
25327501,팀더베이직,,F,생활서비스,F13,기타서비스업,F13A01,사업경영상담,M71531,경영컨설팅업,11,서울특별시,11680,강남구,1168010700,신사동,"서울특별시 강남구 신사동 660-18","서울특별시 강남구 압구정로46길 5-2",135897,6018,""127.036850947981"",""37.5280308317805""
25239071,하나인력개발,,F,생활서비스,F05,인력/고용/용역알선,F05A02,인력공급/고용알선,,,11,서울특별시,11620,관악구,1162010200,신림동,"서울특별시 관악구 신림동 1422-4","서울특별시 관악구 남부순환로 1635",151890,8754,""126.932271066726"",""37.4848274660583""
25234440,삼명학원,,R,학문/교육,R09,학원기타,R09A11,학원-기타,P85699,"그외 기타 분류안된 교육기관",11,서울특별시,11740,강동구,1174010300,상일동,"서울특별시 강동구 상일동 227","서울특별시 강동구 상일로 43",134837,5282,""127.172534505943"",""37.5508920841752""
25235169,디지털영상속기센터,,R,학문/교육,R07,학원-예능취미체육,R07A11,학원-주산암산부기속셈,P85699,"그외 기타 분류안된 교육기관",11,서울특별시,11560,영등포구,1156010400,영등포동3가,"서울특별시 영등포구 영등포동3가 7-25","서울특별시 영등포구 영중로10길 6",150033,7302,""126.90616146951"",""37.5190265761155""
25235212,사라제이,,D,소매,D05,의복의류,D05A01,일반의류,G47416,"셔츠 및 기타 의복 소매업",11,서울특별시,11215,광진구,1121510500,자양동,"서울특별시 광진구 자양동 553-438","서울특별시 광진구 뚝섬로 515",143190,5074,""127.067609044467"",""37.5356392742803""
25503598,오행쑥뜸방,,S,의료,S03,유사의료업,S03B09,유사의료업기타,Q86902,"유사 의료업",26,부산광역시,26380,사하구,2638010200,당리동,"부산광역시 사하구 당리동 133-1","부산광역시 사하구 제석로 62",604828,49323,""128.975005976491"",""35.1059592725762""
25327673,에스빠,,Q,음식,Q09,유흥주점,Q09A08,빠/카페/스탠드빠,I56211,"일반유흥 주점업",11,서울특별시,11530,구로구,1153010200,구로동,"서울특별시 구로구 구로동 569-8","서울특별시 구로구 새말로 19",152050,8291,""126.882903894409"",""37.502292775625""
25328242,미니텔자취방,,R,학문/교육,R10,도서관/독서실,R10A02,고시원,R90212,"독서실 운영업",26,부산광역시,26530,사상구,2653010400,괘법동,"부산광역시 사상구 괘법동 526-12","부산광역시 사상구 광장로37번길 34",617808,46963,""128.981279394607"",""35.1644187227032""
25328933,아토토루,,Q,음식,Q01,한식,Q01A01,한식/백반/한정식,I56111,"한식 음식점업",11,서울특별시,11710,송파구,1171010100,잠실동,"서울특별시 송파구 잠실동 206","서울특별시 송파구 백제고분로7길 42-25",138220,5559,""127.083981228252"",""37.5097809715422""
25268779,모토맥스,,D,소매,D23,자동차/자동차용품,D23A06,자동차부품판매,G45219,"기타 자동차신품 부품 및 내장품 판매업",26,부산광역시,26380,사하구,2638010500,장림동,"부산광역시 사하구 장림동 1033-2","부산광역시 사하구 을숙도대로 610",604040,49472,""128.972341544192"",""35.0847975470312""
25503615,서울대한의원,,S,의료,S01,병원,S01B06,한의원,Q86203,한의원,11,서울특별시,11650,서초구,1165010200,양재동,"서울특별시 서초구 양재동 80","서울특별시 서초구 강남대로 148",137130,6748,""127.039155511319"",""37.4779959856989""
25504429,퓨전밸리댄스,,R,학문/교육,R07,학원-예능취미체육,R07A17,학원-스포츠/재즈댄스,P85612,"레크레이션 교육기관",26,부산광역시,26530,사상구,2653010700,학장동,"부산광역시 사상구 학장동 574-45","부산광역시 사상구 대동로 133-2",617845,47050,""128.981846035119"",""35.1403196989239""
25535238,삼우기원,,R,학문/교육,R07,학원-예능취미체육,R07A16,학원-바둑,P85612,"레크레이션 교육기관",11,서울특별시,11680,강남구,1168010300,개포동,"서울특별시 강남구 개포동 186-3","서울특별시 강남구 개포로82길 11",135240,6329,""127.067425729925"",""37.4885486506933""
25349435,소피아,,D,소매,D05,의복의류,D05A01,일반의류,G47416,"셔츠 및 기타 의복 소매업",11,서울특별시,11620,관악구,1162010100,봉천동,"서울특별시 관악구 봉천동 1637-45","서울특별시 관악구 인헌4길 16",151050,8793,""126.966036631518"",""37.4748197482223""
25387207,강남불고기,,Q,음식,Q01,한식,Q01A02,갈비/삼겹살,I56111,"한식 음식점업",11,서울특별시,11680,강남구,1168010100,역삼동,"서울특별시 강남구 역삼동 642-1","서울특별시 강남구 테헤란로25길 20",135080,6132,""127.035629555647"",""37.5016200047788""
25269808,우삼철학원,,F,생활서비스,F11,개인서비스,F11A02,운명감정작명,S96992,"점술 및 유사 서비스업",11,서울특별시,11740,강동구,1174010800,성내동,"서울특별시 강동구 성내동 50-5","서울특별시 강동구 천호옛길 98",134030,5379,""127.126314329706"",""37.5373226368933""
25221916,금성베스트,,F,생활서비스,F14,자동차/이륜차,F14A07,주차장운영,H52915,"주차장 운영업",11,서울특별시,11140,중구,1114016700,정동,"서울특별시 중구 정동 34-5","서울특별시 중구 서소문로11길 19",100785,4516,""126.972075253415"",""37.5637788458812""
25259932,차이나중화요리,,Q,음식,Q02,중식,Q02A00,중국음식/중국집,I56112,"중식 음식점업",11,서울특별시,11230,동대문구,1123010900,휘경동,"서울특별시 동대문구 휘경동 363","서울특별시 동대문구 서울시립대로29길 62",130732,2493,""127.055075052713"",""37.5864848807208""
25259994,루다네일,,F,생활서비스,F01,이/미용/건강,F01A02,발/네일케어,S96119,기타미용업,26,부산광역시,26230,부산진구,2623010900,당감동,"부산광역시 부산진구 당감동 571-8","부산광역시 부산진구 가야대로507번길 237",614100,47272,""129.03854021302"",""35.1562524845623""
25260302,Grag,,D,소매,D05,의복의류,D05A01,일반의류,G47416,"셔츠 및 기타 의복 소매업",11,서울특별시,11680,강남구,1168010700,신사동,"서울특별시 강남구 신사동 646-20","서울특별시 강남구 도산대로49길 41",135896,6020,""127.03688071807"",""37.5257153721686""
25469115,프리미에쥬르,,D,소매,D11,유아용품,D11A01,유아/임부복,,,11,서울특별시,11230,동대문구,1123010400,전농동,"서울특별시 동대문구 전농동 591-53","서울특별시 동대문구 왕산로 214",130020,2555,""127.051129904848"",""37.584191612425""
25489094,파리게이츠,,D,소매,D14,운동/경기용품소매,D14A01,운동/경기용품,G47631,"운동 및 경기용품 소매업",11,서울특별시,11230,동대문구,1123010400,전농동,"서울특별시 동대문구 전농동 591-53","서울특별시 동대문구 왕산로 214",130020,2555,""127.051129904848"",""37.584191612425""
25489266,랄라참숯바베큐,,Q,음식,Q05,닭/오리요리,Q05A08,후라이드/양념치킨,I56193,"치킨 전문점",11,서울특별시,11500,강서구,1150010400,가양동,"서울특별시 강서구 가양동 1479-7","서울특별시 강서구 양천로57길 9-14",157200,7527,""126.851446780818"",""37.5638292372285""
25489673,하비몰,,D,소매,D04,취미/오락관련소매,D04A02,오락게임기구/장난감소매,G47640,"게임용구, 인형 및 장난감 소매업",11,서울특별시,11650,서초구,1165010200,양재동,"서울특별시 서초구 양재동 376","서울특별시 서초구 동산로 52",137130,6784,""127.044632458191"",""37.4714085978737""
25223030,선진지물포,,D,소매,D07,가정/주방/인테리어,D07A14,지물판매,G47513,"벽지 및 장판류 소매업",11,서울특별시,11740,강동구,1174010800,성내동,"서울특별시 강동구 성내동 142","서울특별시 강동구 천호옛12길 46",134030,5387,""127.126911768915"",""37.5346058661903""
25242664,월천개발,,F,생활서비스,F05,인력/고용/용역알선,F05A02,인력공급/고용알선,,,26,부산광역시,26230,부산진구,2623010800,부암동,"부산광역시 부산진구 부암동 133-39","부산광역시 부산진구 신천대로 204",614090,47195,""129.05045349928"",""35.1600347831125""
25237393,CARIBOUCOFFEE,,Q,음식,Q12,커피점/카페,Q12A01,커피전문점/카페/다방,I56220,"비알콜 음료점업",11,서울특별시,11410,서대문구,1141011200,대현동,"서울특별시 서대문구 대현동 60-7","서울특별시 서대문구 이화여대8길 3",120808,3764,""126.946053850812"",""37.5588640039904""
25237620,만판장,자양점,Q,음식,Q03,일식/수산물,Q03A07,민물장어전문,I56111,"한식 음식점업",11,서울특별시,11215,광진구,1121510500,자양동,"서울특별시 광진구 자양동 584-3","서울특별시 광진구 자양번영로 21",143190,5093,""127.074958142962"",""37.5315161843087""
25506091,늘푸른식품,,D,소매,D01,음/식료품소매,D01A01,식료품점,G47219,"기타 식료품 소매업",11,서울특별시,11230,동대문구,1123010300,제기동,"서울특별시 동대문구 제기동 887-169","서울특별시 동대문구 약령서길 88",130864,2569,""127.03675379894"",""37.5821829814884""
25506310,코리아나제화,,D,소매,D06,가방/신발/액세서리,D06A01,신발소매,G47420,"신발 소매업",11,서울특별시,11500,강서구,1150010300,화곡동,"서울특별시 강서구 화곡동 340-51","서울특별시 강서구 강서로 60",157010,7756,""126.846205868514"",""37.533007824337""
25349970,순미용실,,F,생활서비스,F01,이/미용/건강,F01A01,여성미용실,S96112,두발미용업,11,서울특별시,11470,양천구,1147010100,신정동,"서울특별시 양천구 신정동 962-1","서울특별시 양천구 중앙로48길 40",158070,8025,""126.85579222355"",""37.5239195262398""
25368377,마돈나,,N,관광/여가/오락,N02,무도/유흥/가무,N02A01,노래방,R91223,"노래연습장 운영업",11,서울특별시,11215,광진구,1121510100,중곡동,"서울특별시 광진구 중곡동 40-1","서울특별시 광진구 능동로 376",143220,4937,""127.082756528825"",""37.5626903220432""
25309436,실버텔인수목적,,L,부동산,L01,부동산중개,L01A01,부동산중개,L68221,"부동산 자문 및 중개업",11,서울특별시,11110,종로구,1111012000,신문로1가,"서울특별시 종로구 신문로1가 226","서울특별시 종로구 새문안로 68",110786,3184,""126.972119281815"",""37.5696359955689""
25273169,쿠키수학,,R,학문/교육,R09,학원기타,R09A11,학원-기타,P85699,"그외 기타 분류안된 교육기관",11,서울특별시,11740,강동구,1174010500,길동,"서울특별시 강동구 길동 384-5","서울특별시 강동구 성안로 170",134813,5354,""127.136059802881"",""37.5380430966542""
25224196,태양탕이용원,,F,생활서비스,F01,이/미용/건강,F01A04,남성미용실,S96111,이용업,11,서울특별시,11470,양천구,1147010300,신월동,"서울특별시 양천구 신월동 121-19","서울특별시 양천구 곰달래로 33",158090,7923,""126.836362419718"",""37.5300909961748""
25224286,엘리트고시원,,R,학문/교육,R10,도서관/독서실,R10A02,고시원,R90212,"독서실 운영업",11,서울특별시,11500,강서구,1150010300,화곡동,"서울특별시 강서구 화곡동 987-6","서울특별시 강서구 화곡로 291",157010,7687,""126.848165469689"",""37.5505160447738""
25243848,흄,,D,소매,D05,의복의류,D05A02,캐쥬얼/스포츠의류,G47416,"셔츠 및 기타 의복 소매업",11,서울특별시,11620,관악구,1162010100,봉천동,"서울특별시 관악구 봉천동 862-1","서울특별시 관악구 남부순환로 1820",151050,8787,""126.952067736166"",""37.4809409770823""
25261424,부산양곱창1호,,Q,음식,Q01,한식,Q01A03,곱창/양구이전문,I56111,"한식 음식점업",26,부산광역시,26230,부산진구,2623010300,부전동,"부산광역시 부산진구 부전동 520-2","부산광역시 부산진구 가야대로784번길 62",614030,47287,""129.057003857985"",""35.1547587472594""
25489806,가온누리,,D,소매,D03,종합소매점,D03A05,수입품판매점,G47190,"그외 기타 종합 소매업",11,서울특별시,11740,강동구,1174010700,암사동,"서울특별시 강동구 암사동 464-1","서울특별시 강동구 고덕로10길 47",134050,5251,""127.129690450051"",""37.5525393520806""
25490278,해오름,,L,부동산,L01,부동산중개,L01A01,부동산중개,L68221,"부동산 자문 및 중개업",11,서울특별시,11680,강남구,1168010600,대치동,"서울특별시 강남구 대치동 917","서울특별시 강남구 선릉로72길 42",135280,6200,""127.054582502964"",""37.5009081983569""
25351160,소리울,,Q,음식,Q09,유흥주점,Q09A07,기타일반유흥주점,I56211,"일반유흥 주점업",11,서울특별시,11230,동대문구,1123010800,회기동,"서울특별시 동대문구 회기동 60-46","서울특별시 동대문구 경희대로1길 7",130872,2454,""127.051681256187"",""37.5916026200178""
25382288,두리잡,,F,생활서비스,F05,인력/고용/용역알선,F05A02,인력공급/고용알선,,,11,서울특별시,11740,강동구,1174010800,성내동,"서울특별시 강동구 성내동 163-16","서울특별시 강동구 천호대로 1082",134030,5380,""127.131719380164"",""37.535686537471""
25382793,스텝스,,F,생활서비스,F05,인력/고용/용역알선,F05A02,인력공급/고용알선,,,11,서울특별시,11740,강동구,1174010800,성내동,"서울특별시 강동구 성내동 196-3","서울특별시 강동구 천호대로170길 16",134030,5381,""127.1330102845"",""37.5346237645501""
25278923,씨,,D,소매,D05,의복의류,D05A03,여성의류전문점,,,11,서울특별시,11230,동대문구,1123010600,장안동,"서울특별시 동대문구 장안동 368-1","서울특별시 동대문구 답십리로 288",130100,2637,""127.072364380402"",""37.5719169507645""
25276687,노비타,,D,소매,D07,가정/주방/인테리어,D07A05,정수기연수기,G47320,"가전제품 소매업",11,서울특별시,11620,관악구,1162010100,봉천동,"서울특별시 관악구 봉천동 41-846","서울특별시 관악구 은천로 162",151050,8744,""126.953184017136"",""37.4860237953075""
25490778,아띠무용아카데미,,R,학문/교육,R05,학원-음악미술무용,R05A05,학원-무용,P85620,"예술 학원",11,서울특별시,11290,성북구,1129010300,돈암동,"서울특별시 성북구 돈암동 2-2","서울특별시 성북구 정릉로52길 22",136060,2801,""127.029196132762"",""37.6035568348617""
25507398,앤드류앤레슬리,,D,소매,D05,의복의류,D05A09,남성의류전문점,,,11,서울특별시,11560,영등포구,1156011000,여의도동,"서울특별시 영등포구 여의도동 2-6","서울특별시 영등포구 의사당대로 101",150010,7327,""126.923948554327"",""37.5218931054506""
25311212,명진유통,,D,소매,D25,기타판매업,D25A23,통신판매,G47911,전자상거래업,11,서울특별시,11545,금천구,1154510200,독산동,"서울특별시 금천구 독산동 376-24","서울특별시 금천구 독산로68가길 39",153010,8560,""126.907792303867"",""37.4668710446037""
25332789,야구용품점,,D,소매,D14,운동/경기용품소매,D14A01,운동/경기용품,G47631,"운동 및 경기용품 소매업",11,서울특별시,11230,동대문구,1123010700,청량리동,"서울특별시 동대문구 청량리동 2-5","서울특별시 동대문구 왕산로 295-3",130866,2462,""127.052070393625"",""37.5868121959371""
25352632,원할머니,,Q,음식,Q01,한식,Q01A08,족발/보쌈전문,I56111,"한식 음식점업",11,서울특별시,11680,강남구,1168010100,역삼동,"서울특별시 강남구 역삼동 818-7","서울특별시 강남구 강남대로94길 23",135080,6129,""127.029184703137"",""37.4997380728727""
25352757,우리기업,,D,소매,D06,가방/신발/액세서리,D06A10,가방/가죽제품소매,G47430,"가방 및 기타 가죽제품 소매업",11,서울특별시,11470,양천구,1147010300,신월동,"서울특별시 양천구 신월동 85-2","서울특별시 양천구 월정로 221",158090,7906,""126.833344121204"",""37.5379182410184""
25203644,비티씨코리아,,D,소매,D25,기타판매업,D25A23,통신판매,G47911,전자상거래업,11,서울특별시,11545,금천구,1154510100,가산동,"서울특별시 금천구 가산동 685","서울특별시 금천구 범안로 1130",153716,8595,""126.887609780564"",""37.4656195294283""
